"location","address","area","city","longitude","latitude"
"""the ent and head neck cancer hospital and institute,north shyamoli""","Professor Dr. Shaikh Nurul Fattah Rumi, Head of ENT and Head Neck dept, DMC, Road 4, Dhanmondi, Dhaka","Dhanmondi","Dhaka","90.383283","23.7416233"
"""bazar sadai departmental store,dewanbag""","Sadai Departmental Store, Sharafat Ali Dream, House  44/3, Azimpur Road, Azimpur, Dhaka","Azimpur","Dhaka","90.38438262049328","23.72414450974821"
"""g.h.p electronics, dhakachittagong highway, westy jatrabari""","Fatema Electronics And Electric, House  270/1, Dhaka Mawa Highway, Dewanpara, South Jatrabari, Jatrabari, Dhaka","Jatrabari","Dhaka","90.43494687819964","23.703793064446625"
"""206/1, nort shajahan pur road, uttor shahajahanpur railway banijjik alaka, shahjahanpur""","206, 206/1, North Shahjahanpur, Shahjahanpur, Dhaka","Shahjahanpur","Dhaka","90.42533967999996","23.74491840999999"
"""road 22,mohakhali dohs,sher e bangla nagar""","Sher E Bangla Nagar, Sher E Bangla Nagar, Dhaka","Sher E Bangla Nagar","Dhaka","90.37632192","23.76849829"
"""civil aviation c type quarter,new airport road""","Civil Aviation Officers Quarter, Road  26, Banani, Dhaka","Banani","Dhaka","90.40754417299979","23.79373908658745"
"""h 52/3, new easkaton rd, new easkaton""","House  52/3, New Eskaton Road, Eskaton, Dhaka","Eskaton","Dhaka","90.3965324163437","23.747342811934008"
"""dutch bangla bank ltd atm, station  rd, kamalapur""","Dutch-Bangla Bank PLC. (DBBPLC) ATM, Outer Circular Road, Kamlapur, Dhaka","Kamlapur","Dhaka","90.42592127","23.73167165"
"""new bikrampur pharmacy,h 19/1,rankin st,wari""","New Bikrampur Pharmacy, House  19/1, Rankin Street, Wari, Wari, Dhaka","Wari","Dhaka","90.41663867102733","23.721169513969066"
"""biswa sahitwa kendro , h 17, bishwa sahitto kendro ln, paribag, ramna""","House  17, Bishwa Sahitto Kendro Lane, Bangla Motor, Eskaton, Dhaka","Eskaton","Dhaka","90.39393437","23.74501579"
"""sarkari karmachari hospital""","Sarkari Kormochari Hospital, Gulistan, Dhaka","Gulistan","Dhaka","90.4052992","23.725171300000003"
"""abesh hotel biriyani house , mirpur - 2""","Abesh Hotel & Biriyani House, House  2, Road  2, Block E, Section 2, Mirpur, Dhaka","Mirpur","Dhaka","90.35635525743193","23.80372860975975"
"""nandipara garments rd, nandipara basabo""","New Al Madina Garments, Nandipara Bazar Road, Nandipara Bazar, Nandipara, Dhaka","Nandipara","Dhaka","90.44297552238959","23.74475121879782"
"""road to be named""","Be Fair Beauty Fair, Airport Road, Tejgaon, Dhaka","Tejgaon","Dhaka","90.38904000073671","23.762447321351203"
"""nandan selim , 8/f , road no . 2 , block d , basunmdhara r/a""","Nandan Selim, House  8/F, Road  1, Block D, Bashundhara, Dhaka","Bashundhara","Dhaka","90.43207527175387","23.818117977164224"
"""shanta garden""","Shanta Garden, House  50/B, New Eskaton Road, New Eskaton, Eskaton, Dhaka","Eskaton","Dhaka","90.39728882267258","23.74682682072186"
"""hawai goli, moddho bashabo, shhajahanpur""","Hawai Goli, Khilgaon, Dhaka","Khilgaon","Dhaka","90.43387627","23.74515614"
"""monsur vaban , house 125, peer shaheber goli , shantinagar ,kakrail""","Heritage Monsur Bhaban, House  125, Shantinagar, Dhaka","Shantinagar","Dhaka","90.4141672542562","23.738956966940105"
"""coal power generation company bangladesh limited (cpgcbl) unique heights ( level 17), 117, kazi nazrul islam avenue, eska""","Unique Helghts, House  117, Kazi Nazrul Islam Avenue, Ramna, Dhaka","Ramna","Dhaka","90.39603860803356","23.74315863248235"
"""khatun e jannat jame masjid , hazi piar ali rd , rustampur""","Baitul Jannat Jame Masjid, Middle Ali Nagar, Ali Nagar, Kamrangirchar, Dhaka","Kamrangirchar","Dhaka","90.36892981763748","23.713054774263025"
"""the tyre & battery bazar, h 60, kazi nazrul islam ave, east tejturipara""","The City Tyre, House  20/2, Culvert Road, Paltan, Dhaka","Paltan","Dhaka","90.41042860597372","23.733905967332294"
"""islami bank bangladesh limited , basabo market road , tempo stand , middle basabo""","Islami Bank Bangladesh PLC. (IBBPLC) Limited Bashabo Branch, Middle Basabo, Basabo, Dhaka","Basabo","Dhaka","90.43271248","23.74034027"
"""tetul para shahi jame masjid , namapara tetul tola""","Tetul Shop, Somrat Sobji Arot, Chattogram Road, South Jatrabari, Jatrabari, Dhaka","Jatrabari","Dhaka","90.43940002685162","23.70864265977823"
"""dncc dedicated covid - 19 hospital , mohakhali, dhaka- 1212, dakkhinpara""","Songkramok Bhadi Hospital, Dakkhinpara, Mohakhali, Dhaka","Mohakhali","Dhaka","90.4055645884892","23.775628716270607"
"""87 new eskaton road, home town complex , 9th floor""","Hometown Apartment, House  87, New Eskaton Road, Eskaton, Dhaka","Eskaton","Dhaka","90.39635807275774","23.7459016928144"
"""walton service centre , dhaka chittagong highway , sign board , shiddhirganj , narayanganj , 1361""","Sign Board Shop, House  Ka/96, Pragati Sarani, Kuril, Dhaka","Kuril","Dhaka","90.42095350837815","23.8187309464939"
"""90/1 jomidar goli , shiddeswari, ramna, 1000""","Jomidar Goli, Ramna, Dhaka","Ramna","Dhaka","90.40573602","23.74857661"
"""heritage school , dhaka narayanganj rd , chasara , narayanganj sadar , narayanganj , 1400""","Shyampur Government Primary School, Dhaka Narayanganj Highway, Shyampur, Dhaka","Shyampur","Dhaka","90.43595653027296","23.684432435803732"
"""ad din hospital rd, moghbazar""","Ad-din Pharmaceuticals HQ, Ad-Din Hospital, House  2, Jomidar Goli, Moghbazar, Dhaka","Moghbazar","Dhaka","90.40552988235095","23.748234359386927"
"""house 51, road 17 , sector 11 , uttara , dhaka ( uttara  poshchim thanar samne )""","House  51, Road  17, Sector 11, Uttara, Dhaka","Uttara","Dhaka","90.38723766878034","23.87586999301677"
"""entry gate for rd 5 , h 8, 9, 13, rd 3 , block j""","RD Contraction, HM Plaza, Sector 3, Uttara, Dhaka","Uttara","Dhaka","90.39927527630556","23.864688555398203"
"""rayer bazar , bhuiyan eastate""","Bhuiyan Villa, House  32/10/f/4, Sultanganj, Rayer Bazar, Dhaka","Rayer Bazar","Dhaka","90.36118090152742","23.746080301279562"
"""outer stadium,milk vita rd,block g,mirpur 2""","Milk Vita, Milk Vita Road, Section 7, Mirpur, Dhaka","Mirpur","Dhaka","90.36074739","23.81892082"
"""shamsur madrasa circle""","Shamsur Rahman, House  11/7, Madrasa Road, Block F, Ajij Mahalla, Mohammadpur, Dhaka","Mohammadpur","Dhaka","90.36265176","23.76895029"
"""h 29 , rd 6, south banasree project""","House  6, South Banasree Main Road, Block H, South Banasree, Banasree, Dhaka","Banasree","Dhaka","90.44110610555752","23.752688828823217"
"""shadhinata tower,h 1667,bir uttam ziaur rahman rd,shaheenbag""","Shadhinota Tower, Bir Uttam Ziaur Rahman Road, Dhaka Cantonment, Dhaka","Dhaka Cantonment","Dhaka","90.390240765618","23.775821063141"
"""snackbar express,food zone,naya paltan""","Hair Zone, House  84, Masjid Goli, Naya Paltan, Paltan, Dhaka","Paltan","Dhaka","90.41453177289571","23.734058328902623"
"""spring dale , banashree , block d""","Spring Dale, House  915, Shahidbagh, Dhaka","Shahidbagh","Dhaka","90.41949950158596","23.74246476440273"
"""salbon filling station, dhaka mymensingh highway, 1702""","Tasin CNG Filling Station, Dhaka Mymensingh Highway, Abdullahpur, Uttara, Dhaka","Uttara","Dhaka","90.40018448336798","23.881115357590016"
"""der food island,3/8,north peerbug,mukti housing,dokkhin monipur""","Mukti Housing, Mukti Housing, Agargaon, Dhaka","Agargaon","Dhaka","90.371271371841","23.785158272179"
"""emergency department ( nirtot), sayed mahbub morshed road , sher-e-bangla-nagar""","Rahmat Telecom, Sayed Mahbub Morshed Road, Sher E Bangla Nagar, Dhaka","Sher E Bangla Nagar","Dhaka","90.3702417074237","23.774230237684957"
"""bay's lakewood""","Bay's Oakwood, House  20, Road  107, Gulshan 2, Gulshan, Dhaka","Gulshan","Dhaka","90.4193850376871","23.79105117983129"
"""thai chi restaurant and cafe , h 117/a, bijoy sarani tejgaon link rd , tejkunipara""","Thai-Chi Restaurant and Cafe, Farmgate, Tejgaon, Dhaka","Tejgaon","Dhaka","90.38954459130763","23.764749617132605"
"""motalib plaza, hatirpool circle""","Motalib Plaza, Bir Uttam CR Dutta Road, Hatirpool, Dhaka","Hatirpool","Dhaka","90.39209882065353","23.741802244494327"
"""borak zahir tower,kazi nazrul islam ave,panthapath""","Borak Zahir Tower, Kazi Nazrul Islam Avenue, Kawran Bazar, Tejgaon, Dhaka","Tejgaon","Dhaka","90.3929127752781","23.75047550831927"
"""darussalam tower , 59/da , mirpur road , abdul rafiq housing , gabtali""","Abdul Jalil Motors, Darussalam Tower, House  59/D/A, Mirpur Road, Darussalam, Mirpur, Dhaka","Mirpur","Dhaka","90.356052135744","23.779136860337182"
"""bikrampur mistanno vander & bakery 22,60 feet,senpara parbata,boorbagh""","Bikrampur Mistanno Vandar, Uttara, Dhaka","Uttara","Dhaka","90.38873","23.8632"
"""kuril gausia brtc ticket counter""","Shaymoli Ticket Counter, Road  2, Dhanmondi, Dhaka","Dhanmondi","Dhaka","90.37774890661241","23.73841820411672"
"""shahi mithai,h 27,nazimuddin rd,begum bazar,chawkbazar""","Shahi Mithai, House  27, Nazimuddin Road, Chawkbazar, Dhaka","Chawkbazar","Dhaka","90.39834955694434","23.71999365182922"
"""15,mitford road,islampur,keranigank subdistrict""","House  15, Mitford Road, Babu Bazar, Dhaka","Babu Bazar","Dhaka","90.40041980775138","23.712377008195208"
"""haque library,jhonson rd,sadarghat""","Haque Library, Liakat Avenue, Johnson Road, Sutrapur, Dhaka","Sutrapur","Dhaka","90.41139571499593","23.707920477158435"
"""ranir bhubon,376/a,road 10,block c""","Aupo Ajita, House  375/376, Road  10, Block C, Bashundhara, Dhaka","Bashundhara","Dhaka","90.42673945","23.81718661"
"""38,extended pallabi,mirpur`""","RFL Best buy Extended pollobi mirpur-11.5, House  29/A/23, Jahurul Islam Avenue, Pallabi, Mirpur, Dhaka","Mirpur","Dhaka","90.3596635","23.8244261"
"""arham pharmacy , ka / 92/ a, nurani masjid rd, joar shahara""","Arham Pharmacy, Joar Shahara, Joar Shahara, Dhaka","Joar Shahara","Dhaka","90.4170548","23.8177724"
"""twenty twenty restaurant and party center""","Twenty Twenty Restaurant And Party Center, House  2/C, Road  19, Nikunja 2, Nikunja, Dhaka","Nikunja","Dhaka","90.41785978402282","23.835351879075162"
"""eastern villa,h 6,segunbagicha rd,segunbagicha""","Eastern Villa, House  6, Segunbagicha, Dhaka","Segunbagicha","Dhaka","90.40715262293816","23.734683700304025"
"""fulbaria super market, gulistan""","Fulbaria Shoe, Jaker Super Market, AKM Kamrujjaman Sarani, Fulbaria, Gulistan, Dhaka","Gulistan","Dhaka","90.4091621441197","23.722823719810343"
"""www.humayra.com.bd,block e.banasree""","Block F, Block F, South Banasree, Banasree, Dhaka","Banasree","Dhaka","90.437843799591","23.752460277741"
"""hasnabad bakery,dhaka mawa highway""","Bakery Shop, Dhaka Mawa Highway, East Jurain, Jurain, Dhaka","Jurain","Dhaka","90.43544024057422","23.694518678548622"
"""habib bank ltd,h 67,dilkusha rd,dilkusha""","House  67, Dilkusha Road, Dilkusha Commercial Area, Motijheel, Dhaka","Motijheel","Dhaka","90.41774333000001","23.726170739999997"
"""grameenphone head office , alhaz abdus sobhan rd , block b, kuril""","Alhajo Abdus Sobhan Sharak, Kuril, Dhaka","Kuril","Dhaka","90.4206528","23.81352235"
"""akij service centre, wireless niketon""","Bosch Homes Appliance Service Centre, House  62, Road 8, Niketon, Gulshan, Dhaka","Gulshan","Dhaka","90.4116017","23.772454"
"""prapti city,pagla link rd,pagla,narayanganj""","Pagla Babar Mazar, Pagla Majar Goli, Noyatola, Moghbazar, Dhaka","Moghbazar","Dhaka","90.40619401771522","23.75633121955096"
"""basher pool dogair bazar""","Shat Tola Minar Masjid, Basher Pool Dogair Bazar Road, Konapara, Demra, Dhaka","Demra","Dhaka","90.47563645988704","23.712146899222756"
"""pongkhumiya jame masjid , rani mohol boro vanga rd""","Rani Tailors And Cloth Store, Rani Mohol, House  115, Beraid Purbapara Jame Masjid Road, Purbapara, Boro Beraid, Beraid, Dhaka","Beraid","Dhaka","90.47810012110159","23.800759221242647"
"""house 83/5, omar ali lane, west rampura , pampura""","House  83, Omor Ali Lane, West Rampura, Rampura, Dhaka","Rampura","Dhaka","90.41602577160177","23.760951895293363"
"""bangladesh agriculture research council ( barc) , old airport rd, monipuri para""","Bangladesh Agricultural Research Council (BARC), Airport Road, Monipuripara, Tejgaon, Dhaka","Tejgaon","Dhaka","90.3888465","23.7596181"
"""biddut bhaban , h 1 , abdul gani rd , purana paltan""","House  3/1/H, Purana Paltan, Paltan, Dhaka","Paltan","Dhaka","90.41059713523686","23.73316874105608"
"""square hospital ltd , panmthapath""","Square Hospital Ltd Auditorium, Panthapath, Lake Circus, Panthapath, Dhaka","Panthapath","Dhaka","90.3813680701058","23.752203991093992"
"""tolerbag jame masjid""","Tolarbagh Central Jame Masjid, Mirpur, Dhaka","Mirpur","Dhaka","90.35028615543973","23.788548359017863"
"""h 345, dilu rd , new eskaton""","House  345/1, Dilu Road, Eskaton, Dhaka","Eskaton","Dhaka","90.40163364261389","23.750209151708894"
"""sutrapur thana , waltan rd , sutrapur""","Sutrapur Thana (Sutrapur Police Station), Malaka Tola Lane, Sutrapur, Dhaka","Sutrapur","Dhaka","90.41798104","23.70232437"
"""nundica restaurant, hazrat shah ali mazar , mirpur - 1""","Hazrat Shah Ali Girls High School, Hazrat Shah Ali College Market, Section 1, Mirpur, Dhaka","Mirpur","Dhaka","90.35009970799246","23.79825170000085"
"""interlink technology""","Interlink Technology, House  84, New Airport Road, Shahid Bir Uttam Ziaur Rahman Sarani, Dhaka Mymensingh Highway, Kakoli, Banani, Dhaka","Banani","Dhaka","90.40024806308519","23.791736993266888"
"""iub fashion,road no 12,block c,basundhara r /a""","Le Reve Rupayan - Basundhara R/A, House  C/2, Umme Kulsum Road, Block G, Bashundhara, Dhaka","Bashundhara","Dhaka","90.4297097","23.8241828"
"""priyo prangon""","Priyo Prangon, House  3/1, Segunbagicha, Dhaka","Segunbagicha","Dhaka","90.40664467960596","23.735222647501622"
"""dhanmondi foot over bridge""","Sobhanbagh Foot Over Bridge, Mirpur Road, Dhanmondi, Dhaka","Dhanmondi","Dhaka","90.376385061383","23.754051121059"
"""nishus food,80 north basabo,shobujbag""","House  80, North Basabo, Basabo, Dhaka","Basabo","Dhaka","90.42887266","23.74232174"
"""city international school and college,city school goli,kamrangichor,bhuiya estate""","City International School And College, Kamrangirchar, Dhaka","Kamrangirchar","Dhaka","90.3712922","23.7177218"
"""ranimohol bokvanga road,mahmudnagar,green model town""","Green Model Town, Green Model Town, Dhaka","Green Model Town","Dhaka","90.44877819","23.72856282"
"""bouddho mondir bus stoppage,autish dipankar road,moddho bashabo,komlapur""","Bashabo Bus Stop, Atish Dipankar Road, Basabo, Dhaka","Basabo","Dhaka","90.42750589","23.73963339"
"""sonar bangla media,nurechala rd,nurer chala""","Sonar Bangla Market, Rupnagar, Mirpur, Dhaka","Mirpur","Dhaka","90.3563324420586","23.813898328583512"
"""dhaka demra highway,shonir akhra""","Shonir Akhra, Shonir Akhra, Dhaka","Shonir Akhra","Dhaka","90.45218039","23.70353829"
"""bank alfalah limited mirpur,house 1,kalsi road,block d,section 11,mirpur dhaka 1216""","Bank AlFalah Mirpur Branch, House  1, Avenue 1, Block D, Section 11, Mirpur, Dhaka","Mirpur","Dhaka","90.36555983","23.82026256"
"""purbachalgas filling station,darus salam road,darus salam""","Darus Salam, Darus Salam, Dhaka","Darus Salam","Dhaka","90.34767553","23.78546701"
"""5,kachabazar road,section  10""","House  6/D/5, Kachabazar Road, Mohammadpur, Dhaka","Mohammadpur","Dhaka","90.35988606512548","23.766451688064354"
"""tabaq grameenphone office,bashundhara rd,bashundhara""","Grameenphone Head Office, Bashundhara Main Road, Block A, Bashundhara, Dhaka","Bashundhara","Dhaka","90.42605","23.8121"
"""hashim tower""","Hashim Tower, House  205/1/A, Gulshan Tejgaon Link Road, Tejgaon, Dhaka","Tejgaon","Dhaka","90.41159469953334","23.77148876169109"
"""mirpur dohs house 710 road 10 avenued 3 flat 4 a""","House  710, Road  10, Mirpur DOHS, Mirpur, Dhaka","Mirpur","Dhaka","90.36719709634781","23.837892479378727"
"""h 48, indira road farmngate""","Indira Road, Farmgate, Dhaka","Farmgate","Dhaka","90.38701113","23.75826218"
"""road 10 block d house 328 basundhara""","Maa, House  328, Road  10, Block D, Bashundhara, Dhaka","Bashundhara","Dhaka","90.43113537309968","23.813486217516076"
"""road 3 , basha 18/b , monshurabad abashik area ada""","Aloron, House  18/B, Road  3, Block B, Monsurabad Residential Area, Adabor, Dhaka","Adabor","Dhaka","90.35453553627826","23.774492490379103"
"""tasty treat panthapath , 44/9 , west panthapath""","Tasty Treat, House  44/8, Bir Uttam Kazi Nuruzzaman Road, Panthapath, Dhaka","Panthapath","Dhaka","90.3848879","23.752299"
"""clothero, nosor uddin rd, matikata""","Inspire Gramar School, House  99/2, Matikata, Matikata, Dhaka","Matikata","Dhaka","90.39483249892238","23.818589276942447"
"""ahsaniya mission cancer and general hospital""","Ahsania Mission Cancer And General Hospital, Shah Kabir Majar Road, Uttarkhan, Dhaka","Uttarkhan","Dhaka","90.42193","23.86981"
"""chefs table court side""","GelatoFix  Chefs Table Courtside (United City), 100 Feet Road, Badda, Dhaka","Badda","Dhaka","90.4549908","23.7998139"
"""h 55, rd 1, aftab nagar project badda""","House  55, Road  7, DIT Project, Merul Badda, Badda, Dhaka","Badda","Dhaka","90.42920903153833","23.774520374425745"
"""nuvista pharma plant""","Nuvista Training Office, Gausul Azam Avenue, Sector 13, Uttara, Dhaka","Uttara","Dhaka","90.38643000000002","23.86947999999998"
"""hospital""","Hospital Road, Sultanganj, Dhaka","Sultanganj","Dhaka","90.36455949","23.71269271"
"""the buffet stories mirpur""","The Romancia Buffet, Pallabi, Mirpur, Dhaka","Mirpur","Dhaka","90.3636104171793","23.82946924016585"
"""napd office , kataban rd,nilkhet""","Nilkhet Sharak, Nilkhet, Dhaka","Nilkhet","Dhaka","90.38610307","23.73245873"
"""bishnurpriya hotel,tati bazar,kotwali""","Bishnupriya Bojonaloi, House  95, Tati Bazar Road, Tati Bazar, Kotwali, Dhaka","Kotwali","Dhaka","90.40839027281905","23.712319698645494"
"""stamford university,dhaka chittagonh highway,sayedabad""","Stamford University Bangladesh, House  51, Siddheshwari Road, Siddheshwari, Dhaka","Siddheshwari","Dhaka","90.4081437","23.74402103"
"""rd 12,block c,mirpur 6""","House  6, Road  12, Block C, Section 12, Mirpur, Dhaka","Mirpur","Dhaka","90.36680851131678","23.824707562081347"
"""house 36 road 7 uttora sector 13""","House  36, Road  7, Sector 13, Uttara, Dhaka","Uttara","Dhaka","90.38818538188934","23.870820254582373"
"""nescafe, station rd , kamalpur""","Nescafe, Polwel Carnation Shopping Center, Dhaka Mymensingh Highway, Sector 8, Uttara, Dhaka","Uttara","Dhaka","90.40174771917054","23.878808137066002"
"""ymca training centre , masjidul llah  , savar""","Masjidul Illah Road, Savar Paurashava, Dhaka","Savar Paurashava","Dhaka","90.25702663","23.8561657"
"""tejgaon thana health complex""","Tejgaon Thana Health Complex, Love Road, Tejgaon Industrial Area, Tejgaon, Dhaka","Tejgaon","Dhaka","90.40545777391424","23.76382114349115"
"""apr a4 house 6,road 109 gulshan 2""","House  6, Road  109, Gulshan 2, Gulshan, Dhaka","Gulshan","Dhaka","90.41716140382442","23.790818283987097"
"""ad din medical college hospital""","Ad Din Womens Medical College And Hospital, House  12, Jamidar Goli, Moghbazar, Dhaka","Moghbazar","Dhaka","90.40552854537964","23.748338388069673"
"""h 0301/81, kamal khan rd , ibrahimpur""","House  564, Kamal Khan Sarak, North Ibrahimpur, Ibrahimpur, Kafrul, Dhaka","Kafrul","Dhaka","90.38133895479257","23.797136508897967"
"""banashree physicotherapy center , block  d""","Banasree MT Physiotherapy Center, House  14, Road  7, Block D, Banasree, Dhaka","Banasree","Dhaka","90.43101539772573","23.76091271722623"
"""reckitt benckiser official store tejgaon""","Reckitt Benckiser Bangladesh PLC, The Glass House, House  38, Gulshan Avenue, Gulshan 1, Gulshan, Dhaka","Gulshan","Dhaka","90.41712703516362","23.77906310807513"
"""east goran""","East Goran, East Goran, Goran, Dhaka","Goran","Dhaka","90.43482041266651","23.748619541027118"
"""brac bank atm, azimpur rd , new market""","Brac Bank PLC. ATM, Elephant Road, New Market, Dhaka","New Market","Dhaka","90.38987919688225","23.740816394913846"
"""194/1 , uttara shyamoli  , paschim agargaon  , shyamoli road no . 2 , mukti housing  , uttara  shyamoli  , paschim agargaon""","Uttar Shyamoli Pashchim Agargaon Somobay Somity, House  188, Road 2, Bhuiya Goli, North Shyamoli, Shyamoli, Dhaka","Shyamoli","Dhaka","90.36694184702934","23.779795737183594"
"""bardem hospital""","Bardem General Hospital 2 (Child And Mother), Segunbagicha, Dhaka","Segunbagicha","Dhaka","90.4060311242938","23.731643333413537"
"""south bishil adarsha bidya niketon, darussalam rd""","South Bishil Adarsha Biddya Niketan, House  78/A, Road  7, South Bishil, Bishil, Mirpur, Dhaka","Mirpur","Dhaka","90.35267106212342","23.7955322604015"
"""sel bari legacy""","Legacy Legal Corporate, Road 27, Banani, Dhaka","Banani","Dhaka","90.40724","23.79691"
"""b.i.h.s general hospital , dar us salam road , abdul rafiq housing , shah ali bagh""","Dar-Us-Salam Road, Mirpur, Dhaka","Mirpur","Dhaka","90.35374355","23.78922825"
"""19/d . uttar tolarbagh , uttara bhaban 5/a . mirpur 1 dhaka 1216.""","Uttara Bhaban, House  19/D/7, North Tolarbagh, Tolarbagh, Mirpur, Dhaka","Mirpur","Dhaka","90.35119146502603","23.790754020601"
"""ananda food house""","M5 Food, House  144, Ananda Bazar, West Shewrapara, Shewrapara, Mirpur, Dhaka","Mirpur","Dhaka","90.3711672381595","23.792230695250918"
"""house 295/296""","Montarj, House  295/296, Road  7/A, Block E, Bashundhara, Dhaka","Bashundhara","Dhaka","90.43310825730754","23.809629410341454"
"""hotel al faysal , h 295/2 , toyenbee circular rd , arambagh""","RD Printers, House  186, Motijheel Circular Road, Arambagh, Motijheel, Dhaka","Motijheel","Dhaka","90.42055428028108","23.731791265287224"
"""dhaka medical college hospital , sir sayed rd  , university of dhaka""","Bhumijo Toilet ( Dhaka Medical 01 (Ladies), Sir Sayed Road, Dhaka University Campus, Dhaka","Dhaka University Campus","Dhaka","90.39730394447491","23.727138673607783"
"""ali asgar hospital , 111/1/a, distilary road , goipibag , dayaganj""","Food Cornar (Asgar Ali Hospital), Asgar Ali Hospital, Distrillery Road, Dhupkhola, Gendaria, Dhaka","Gendaria","Dhaka","90.4235889","23.7078652"
"""koshai bari rail crossing kosai bari level crossing  , sector 2 , utto""","Koshai Bari, Koshai Bari, Dakkhinkhan, Dhaka","Dakkhinkhan","Dhaka","90.40710568428","23.857748574849"
"""h k 75/8, rd 13 , kalachandpur""","House  K-75, Pocchimpara, Pocchimpara Mosjid, Kalachandpur, Dhaka","Kalachandpur","Dhaka","90.41531556693525","23.810525240581057"
"""birdem hospital , shahbag  circle""","Birdem General Hospital, Kazi Nazrul Islam Avenue, Shahbagh, Dhaka","Shahbagh","Dhaka","90.39648547768593","23.73934110034453"
"""imbd agency  , banani  dohs""","IMBD Agency, Road  3, Banani DOHS, Banani, Dhaka","Banani","Dhaka","90.397674463448","23.793604201759"
"""lalbag""","Lalbag Kazi Office, Azimpur Road, Lalbagh, Dhaka","Lalbagh","Dhaka","90.38715","23.72378"
"""shumaiya 's place""","Shumaiya Restaurant, House  66, Green Road, Kathalbagan, Dhaka","Kathalbagan","Dhaka","90.38709838","23.75009791"
"""hungry eyes food corner""","Hungry Eyes 3, House  1, Road 2, Section 2, Mirpur, Dhaka","Mirpur","Dhaka","90.3562629","23.8037763"
"""kurmitola general hospital""","Kurmitola General Hospital, New airport Road, MES, Dhaka Cantonment, Dhaka","Dhaka Cantonment","Dhaka","90.40937205588256","23.81922560115306"
"""the vapianoo cafe , satmasjid rd , jigatola""","Yumyum The Cafe, Satmasjid Road, Dhanmondi, Dhaka","Dhanmondi","Dhaka","90.37597385766065","23.73830297632046"
"""613, north kafrul , jhilpar road , ashar alo lake view tower""","Asar Alo LAke View, House  613, Jheelpar Road, North Kafrul, Kafrul, Dhaka","Kafrul","Dhaka","90.38249775767326","23.790290614186112"
"""channel 24 , shahid tazuddin ahmed ave , tejgaon industrial area""","Channel I, House  40, Shahid Tajuddin Ahmed Sarani, Tejgaon Industrial Area, Tejgaon, Dhaka","Tejgaon","Dhaka","90.40058135713815","23.76818493137888"
"""dhaka metropoliton police  headquarter , mintu rd""","Dhaka Metropolitan Police Headquarters, Ramna, Dhaka","Ramna","Dhaka","90.4047849","23.7436153"
"""shyamoli tb hospital  , syed mahbub murshed ave""","Tb Hospital (250 Bed), Sayed Mahbub Morshed Road, Shyamoli, Dhaka","Shyamoli","Dhaka","90.367985162884","23.77420626938016"
"""bird bazar  , senpara parbata , senpara parbata  , section 13""","Senpara Parbata, Senpara Parbata, Mirpur, Dhaka","Mirpur","Dhaka","90.372199416161","23.803401724734"
"""manasi cinema hala  , bangshal rd , nawabpur""","Manoshi Cinema Hall, House  1, Bangshal Road, Bangshal, Dhaka","Bangshal","Dhaka","90.41095800697803","23.717208449637717"
"""bilkis villa , 22 , mitali housing society , south kafrul , poshchim  kafrul""","Bilkis Villa, House  434/1, Mitali Housing Road, South Kafrul, Kafrul, Dhaka","Kafrul","Dhaka","90.38460060954094","23.787914526709237"
"""house 52,road 9a""","House  1013, Road  9a, Mirpur DOHS, Mirpur, Dhaka","Mirpur","Dhaka","90.37507742643356","23.838028642823744"
"""lamia enterprise,h 13/3,hazi chinu mia rd,mohammadppur""","House  6/H/3, Chinu Mia Road, Tikkapara, Mohammadpur, Dhaka","Mohammadpur","Dhaka","90.35967685282229","23.767147299971803"
"""jamila tower , 93/1 indira road , tollabag dhaal""","Jamila Tower, House  93/1, Indira Road, Tejgaon, Dhaka","Tejgaon","Dhaka","90.38095247687721","23.756371331701356"
"""firoza manson, h 60/2, old elephant rd , noyatola""","Ehu, House  18/1, Old Elephant Road, East Noyatola, Noyatola, Moghbazar, Dhaka","Moghbazar","Dhaka","90.4112694","23.75551431"
"""riceman""","Richman Apparels Limited, Badda, Dhaka","Badda","Dhaka","90.4260069","23.7783616"
"""h ka 28/3/3/a, kuwaiti masjid rd , vatara""","House  Ka/28/3/3/A, Shahid Harez Road, Jagannathpur, Vatara, Dhaka","Vatara","Dhaka","90.42482996128433","23.80796840710736"
"""kotbari bazar , dhakshin azampur""","Azampur Tower, Azampur Kacha Bazar, Azampur, Dakkhinkhan, Dhaka","Dakkhinkhan","Dhaka","90.40994749999997","23.868942399999984"
"""university of asia pacific , green rd farmgate""","University Of Asia Pacific, House  74/A, Green Road, Farmgate, Tejgaon, Dhaka","Tejgaon","Dhaka","90.38906877037317","23.754945207968795"
"""ashi dag circle , north ibrahimpur""","House  706, Ashi Dag Road, North Ibrahimpur, Ibrahimpur, Kafrul, Dhaka","Kafrul","Dhaka","90.37960564606993","23.79853353381306"
"""pingus kitchen,sky view garden,shantinagar""","Sky View Garden, 77/1, 79, 79/1, Shantinagar, Dhaka","Shantinagar","Dhaka","90.41465341999998","23.736790370000012"
"""947, 60 feet  , mukti housinf , dokkhin  monipur""","Meena Bazar 60 feet, House  742, 60 Feet Road, Monipur, Mirpur, Dhaka","Mirpur","Dhaka","90.3636026","23.7993307"
"""mr. kacchi  , 252/4 , west monipur , mukti housing , paschim monipur""","House  252/4/1, West Monipur, Monipur, Mirpur, Dhaka","Mirpur","Dhaka","90.36479404554068","23.795098085102612"
"""jahangir traders,demra narayanganj rd,siddhirganj""","Maria Traders, Demra Narayanganj Road, Golakata, Shukursi, Sarulia, Demra, Dhaka","Demra","Dhaka","90.50196795853924","23.708204487044647"
"""future point , riazbag , taltola , khigoan""","Future point 3, House  1398/19/A/9, Riazbag, Khilgaon, Dhaka","Khilgaon","Dhaka","90.42666751889726","23.7544305858084"
"""metro food court , uttara , diyabari""","Metro Foodies, Diabari, Uttara, Dhaka","Uttara","Dhaka","90.367088476075","23.868477913553"
"""h 379,rd 21,block g,asundhara r/a""","House  379, Road  21, Block G, Bashundhara, Dhaka","Bashundhara","Dhaka","90.43231073766947","23.822725921032344"
"""city lp gass , west kafrul , taltola , west kafrul , paschim  kafrul""","City LP Gas, House  229, Taltola, West Kafrul, Kafrul, Dhaka","Kafrul","Dhaka","90.37730889442446","23.783870961327494"
"""h 7 b/9 , mirbag rampura dit link rd , mirbag""","Mirbag road, Rampura, Dhaka","Rampura","Dhaka","90.4133787","23.7606851"
"""rampura kacha bazar  , west rampura""","Paan Shop, West Rampura Kacha Bazar, DIT Road, West Rampura, Rampura, Dhaka","Rampura","Dhaka","90.41839934058731","23.760041550713293"
"""babuil cycle store , h 174/175, begunbari rd , east tejkunipara""","Ratnagarva, House  174-175, Kathalbagan, Dhaka","Kathalbagan","Dhaka","90.38755171","23.74788604"
"""dhanmondi 4/a , beside of renesha hospital, house no 62 , flat no b2""","House  62/1, Road  4/A, Dhanmondi, Dhaka","Dhanmondi","Dhaka","90.37391990851148","23.740419255417855"
"""sonarang kabarsthan  , sonarang""","Trimohoni Kabarsthan, Kabarsthan Road, Jorevita, Trimohoni, Dhaka","Trimohoni","Dhaka","90.45628411485798","23.7551290834411"
"""house 629,road 4,block h,basundhara""","House  4/h, Road  7, Block G, Bashundhara, Dhaka","Bashundhara","Dhaka","90.43411552149512","23.825678895588656"
"""fm zaman,h 21,rd 9 a,nikunja1""","House  21, Road  9/A, Nikunja 1, Nikunja, Dhaka","Nikunja","Dhaka","90.41927386075258","23.826195383194612"
"""bangladesh laser skin center , green road , dhanmo""","Bangladesh Laser Skin, Skytorch Rajkosh, House  43/R/5/C, Bir Uttam Nuruzzaman Road, Panthapath, Dhaka","Panthapath","Dhaka","90.38414862848111","23.752845806876497"
"""h 15 , garden rd , west karwan bazar""","House  15, Garden Road, West Kawran Bazar, Kawran Bazar, Tejgaon, Dhaka","Tejgaon","Dhaka","90.38962930431927","23.752774768865063"
"""dhaka cmh cancer center , matikata mirpur ecb""","Raiyan Car AC Center, ECB Chattar, Matikata, Dhaka Cantonment, Dhaka","Dhaka Cantonment","Dhaka","90.39128812704286","23.820986302901233"
"""delhi darbar mohakhali""","Delhi Darbar, SKS Tower, Bir Uttam Ziaur Rahman Road, Mohakhali DOHS, Mohakhali, Dhaka","Mohakhali","Dhaka","90.39661061262956","23.7783550101868"
"""santinibash 78 ,  santinibas baf officers quarter internal rd , pashcim nakhalpara , sher  e  bangla nagar""","Santinibas BAF Officers' Quarter Internal Road, Tejgaon, Dhaka","Tejgaon","Dhaka","90.39138535","23.76698549"
"""aloki , tejgaon  link road , niketon gulshan""","Aloki, House  211, Tejgaon Gulshan Link Road, Tejgaon Industrial Area, Tejgaon, Dhaka","Tejgaon","Dhaka","90.40899222169116","23.770390741285645"
"""universal  international school""","Universal Intrnational School, House  10, Lane 7, Avenue 5, Block C, Section 11, Mirpur, Dhaka","Mirpur","Dhaka","90.37406461283746","23.815593120047986"
"""miniso , banani , block g""","Miniso, South Breeze Center, House  5, Road  11, Block G, Banani, Dhaka","Banani","Dhaka","90.40473969510236","23.790623543838088"
"""bahadur shah park ( victoria park ) , chitta ranjan avenue , bangla bazar , keraniganj subdistrict""","Bahadur Shah Park, Johnson Road, Victoria Park, Sutrapur, Dhaka","Sutrapur","Dhaka","90.412431880832","23.709350975293"
"""airport masjid , new air port rd""","Air Port Road, Tejgaon, Dhaka","Tejgaon","Dhaka","90.38935959","23.76902092"
"""international centre for diarrhoeal disease research,bangladesh,mohakhaliu,mohakhali bazar road""","Institute of Epidemiology Disease Control And Research IEDCR, Mohakhali Bazar Road, Mohakhali, Dhaka","Mohakhali","Dhaka","90.4006771","23.7795529"
"""uttar  tolarbag general store,darus salam rd,tolarbag,miprur 1""","Tolarbag Water Tank, Lane 1, Tolarbagh, Mirpur, Dhaka","Mirpur","Dhaka","90.35348162","23.78735156"
"""ma shahi fuchka and chotpoti house , islambag , lalbagh""","Shahi Chotpoti & Fuchka, House  105/1/B, Golartek, Mirpur, Dhaka","Mirpur","Dhaka","90.34288790076971","23.79158770339104"
"""aziza mistanno bhander,haricharan ray rd,faridabad""","Kazi Office, House  56, Haricharan Ray Road, Faridabad, Gendaria, Dhaka","Gendaria","Dhaka","90.4213567044484","23.699523669165853"
"""665/2, 665/2 , ibrahimpur road , near kochukhet bazar , cantonment""","House  665/2, Ashi Dag Road, West Ibrahimpur, Ibrahimpur, Kafrul, Dhaka","Kafrul","Dhaka","90.3805109203085","23.79592139550743"
"""dhaka cmh cancer center , matikata , mirpur ecb""","Raiyan Car AC Center, ECB Chattar, Matikata, Dhaka Cantonment, Dhaka","Dhaka Cantonment","Dhaka","90.39128812704286","23.820986302901233"
"""taqwa biryani house""","Taqwa Biryani House, House  124, Distrillery Road, Murgitola, Gendaria, Dhaka","Gendaria","Dhaka","90.42154469142139","23.707441209519686"
"""mridus jail""","Centeral Jail Jame Masjid, Jail Road, Chawkbazar, Dhaka","Chawkbazar","Dhaka","90.39772868156433","23.717837714722606"
"""aurora specialized hospital ltd , 19/1 , khulna trade square , kakrail , dhaka -1000""","Aurora Specialized Hospital Limited, House  19/1, Kakrail Road, Kakrail, Dhaka","Kakrail","Dhaka","90.41044180000002","23.73927720000001"
"""shahjadpur bus stop""","Khushi, Eidgah Masjid Road, Shahjadpur Bus Stand, Shahjadpur, Dhaka","Shahjadpur","Dhaka","90.42535580177231","23.79217837995847"
"""h 315,khilgaon gulbag rd,shantibag""","House  B/315, Taltola, Khilgaon, Dhaka","Khilgaon","Dhaka","90.42284723371267","23.75410311403604"
"""home tower shopping center ,dhaka chittagong highway""","Home Tower Shopping Center, House  72, College Road, Muslim Nagar, South Matuail, Matuail, Dhaka","Matuail","Dhaka","90.46625383","23.69629838"
"""56, road 8/a , dhanmondi r /a""","MM Hossen, House  56, Road  8/A, Dhanmondi, Dhaka","Dhanmondi","Dhaka","90.37579211709112","23.7461293746563"
"""aarong gulshan , tejgaon gulshan link rd""","Aarong, House  204/B-5, Tejgaon Gulshan Link Road, Gulshan, Dhaka","Gulshan","Dhaka","90.41223172098398","23.771325188960233"
"""kuwaiti masjid , goli 6 , west nakhalpara""","Anwar Store, DNC 6, Banoful Goli, West Nakhalpara, Nakhalpara, Tejgaon, Dhaka","Tejgaon","Dhaka","90.39380351154517","23.766770399064704"
"""city plaza fulbaria super market ,moti sarder rd , fulbaria""","Bonggo Islamia Super Market, Fulbaria Road, Fulbaria, Dhaka","Fulbaria","Dhaka","90.40537","23.72348"
"""h 67 , atish dipankar rd , basabo""","Basabo Bus Stand, Atish Dipankar Road, Basabo, Dhaka","Basabo","Dhaka","90.42753909","23.73968238"
"""secret recipe mohakhali""","Secret Recipe, SKS Tower, Bir Uttam Ziaur Rahman Road, Mohakhali DOHS, Mohakhali, Dhaka","Mohakhali","Dhaka","90.39664950821869","23.778261867336198"
"""cafe tiffin box , chaya bithi'r goli , tikatuli""","Chaya Bithi'r Goli, Sutrapur, Dhaka","Sutrapur","Dhaka","90.4249654","23.72003035"
"""south badda jame masjid , bazar rd , south badda""","Sahaba Jame Masjid, South Badda, Badda, Dhaka","Badda","Dhaka","90.4191890358925","23.77348711054157"
"""89 sihrawardy avenue . road no. 11 baridhara""","House  89, Suhrawardy Avenue, Block K, Baridhara, Dhaka","Baridhara","Dhaka","90.42116984725","23.807924457927264"
"""norshindi pouroshova , norshindi sadar . norshindi""","Norshindi Road, Gulshan, Dhaka","Gulshan","Dhaka","90.41234135","23.784441"
"""airport rail station""","Gandaria Rail Station, Gendaria, Dhaka","Gendaria","Dhaka","90.42895764112473","23.701472151942966"
"""bonosri e block""","Block E, Block E, Lalmatia, Dhaka","Lalmatia","Dhaka","90.366368293762","23.754080647091"
"""shuvastu nagar valley , f/2, bir uttam rafiqul islam ave , shahjadpur""","House  Kha/2, Bir Uttam Rafiqul Islam Avenue, Shahjadpur, Dhaka","Shahjadpur","Dhaka","90.42302285183905","23.791877451051903"
"""arafis dine restaurant , joynogor gov . r/a , mirpur-13""","The Mughals Dine, Road 13/A, Banani, Dhaka","Banani","Dhaka","90.40332","23.79145"
"""paltan model police station,vip road""","Paltan Model Thana, VIP Road, Naya Paltan, Paltan, Dhaka","Paltan","Dhaka","90.41611253999996","23.73592363999999"
"""boss host bd,539/1,w nakhalpara rd,paschim nakhalpara""","House  539/1, Lane 8, West Nakhalpara, Nakhalpara, Tejgaon, Dhaka","Tejgaon","Dhaka","90.39459403224811","23.771324754740565"
"""ific bank limited,mridha bari road,shonir akhra,donia""","Premier Bank Limited Donia Branch, Akanda Villa, House  3, Noyapara, Shonir Akhra, Dhaka","Shonir Akhra","Dhaka","90.44991716","23.70269747"
"""shahin motors  , 58 , bnp bazar agargaon water tank road , taltola , poschim kafrul""","Shahin Motors, House  58, West Agargaon, Agargaon, Dhaka","Agargaon","Dhaka","90.37101966","23.77984529"
"""ena kingdom , 32 , girls school road dhanmindi""","Ena Kingdom, House  32, Lake Circus, Kalabagan, Dhaka","Kalabagan","Dhaka","90.3820993149629","23.750971088016197"
"""ismail arcade,house 27,road 14/a,dhanmondi,dhaka 1209""","Ismail Arcade, House  27, Road  14/A, Dhanmondi, Dhaka","Dhanmondi","Dhaka","90.37063334137201","23.750610859096668"
"""house 41/ 27, road 3b , mohammadia housing limited , mohammadour""","House  37, Road  3B, Mohammadia Housing, Mohammadpur, Dhaka","Mohammadpur","Dhaka","90.35289929","23.76069654000001"
"""islam pharma""","Islam Pharmacy, Sarulia, Demra, Dhaka","Demra","Dhaka","90.4977448146497","23.712433775326453"
"""salam tea store , west kafrul mirpur""","Green Tea Store, Salam Mansion, House  220/D, Begum Rokeya Sarani, West Kafrul, Kafrul, Dhaka","Kafrul","Dhaka","90.37719600079316","23.78715867448852"
"""admiral height , h 18/3 , biri rd , west rajabazar""","House  58/H, West Rajabazar, Rajabazar, Tejgaon, Dhaka","Tejgaon","Dhaka","90.38167967400784","23.75577199663202"
"""dhaka technical bus stop , begum rokeya sarani , kazipara""","Kazipara Bus Stand, Begum Rokeya Sarani, Kazipara, Mirpur, Dhaka","Mirpur","Dhaka","90.37182006897501","23.79914870543317"
"""banani 132/33 kv grid substation , block i""","Mirpur 132/33 kV Grid Substation, PGCB, Mirpur, Dhaka","Mirpur","Dhaka","90.3597248","23.8309394"
"""bangladesh bar council""","Bangladesh Bar Council, Topkhana Road, Segunbagicha, Dhaka","Segunbagicha","Dhaka","90.40365099906921","23.732879008949226"
"""shohag paribagh pvt . ltd , chowdhurypara , malibagh b""","House  8/B, Chowdhurypara, Malibagh, Dhaka","Malibagh","Dhaka","90.41579337055651","23.750143741681605"
"""hashim toweer""","Hashim Tower, House  205/1/A, Gulshan Tejgaon Link Road, Tejgaon, Dhaka","Tejgaon","Dhaka","90.41159469953334","23.77148876169109"
"""intraco cng station,rd 9,block a,mirpurr 12""","Intraco CNG And LPG, Begum Rokeya Sarani, Block C, Section 12, Mirpur, Dhaka","Mirpur","Dhaka","90.36429455555287","23.828616018602446"
"""c 22, road 3 , mohanagar housing project""","House  22, Road  3, Block C, Mohanagar Project, Rampura, Dhaka","Rampura","Dhaka","90.41471511125565","23.764240249590447"
"""tangail chamcham misti ghor , h 180 /d , goran sipahibag rd , goran""","Gazi Shorbot And Moshla Ghor, House  180, North Goran, Goran, Dhaka","Goran","Dhaka","90.4332463034462","23.74830013301392"
"""monir hossain lane , gopibag, kulutola""","Narinda Monir Hossain Lane, Gendaria, Dhaka","Gendaria","Dhaka","90.41901331","23.71135223"
"""panda dumplings , hosna center , gulshan avenue""","Panda Dumplings, Hosna Center, House  106, Gulshan Avenue, Gulshan 2, Gulshan, Dhaka","Gulshan","Dhaka","90.4168320462714","23.788032382020788"
"""h ka 31,old ka 11/1,beribadh rd,nukunja 2""","House  KA-31, Road  10, Nikunja 2, Nikunja, Dhaka","Nikunja","Dhaka","90.4143650829792","23.832225929243492"
"""a k m kniw wear ltd,dhaka aricha highway,nobinagar 1340""","M & U Cycles Ltd, Block K, Baridhara, Dhaka","Baridhara","Dhaka","90.4216314","23.8048461"
"""national heart foundation hospital & research institute , mirpur 2  main rd""","National Heart Foundation Hospital, Mirpur, Dhaka","Mirpur","Dhaka","90.3534094","23.7885487"
"""bagan bari goli , rayer bazar""","Bagan Bari Goli, Hazaribagh, Dhaka","Hazaribagh","Dhaka","90.36115784","23.74554526"
"""kpmlapur railway station dhaka""","Kamlapur Railway Station (Dhaka Railway Station), Outer Circular Road, Kamlapur, Dhaka","Kamlapur","Dhaka","90.42592419657514","23.732037781564763"
"""pingus kitchen , sky view garden , shantinagar .""","Sky View Garden, 77/1, 79, 79/1, Shantinagar, Dhaka","Shantinagar","Dhaka","90.41465341999998","23.736790370000012"
"""national board of revenue , shyamoli rd , agargaon""","National Board Of Revenue, Segunbagicha, Dhaka","Segunbagicha","Dhaka","90.4088061","23.735760500000005"
"""barishal general store , girl's school rd , west archipur, moinartek""","General Store, Moinartek Road, Moinartek Bazar, Moinartek, Uttarkhan, Dhaka","Uttarkhan","Dhaka","90.4453188406224","23.88187311053853"
"""moszid a khana baba faridouri , justice syed mahmub morshed avenue , taltola  , sher  e bangla  nagar""","Justice Syed Mahbub Morshed Avenue, Sher E Bangla Nagar, Dhaka","Sher E Bangla Nagar","Dhaka","90.37391306","23.77510728"
"""dhaka airport railway station , dhaka mymensigh highway""","Dhaka Airport Railway Station, Dhaka Mymensingh Highway, Uttara, Dhaka","Uttara","Dhaka","90.40832","23.852126"
"""combined military hospital ( cmh) , shahid sarani , dhaka canmtonment""","Combined Military Hospital (CMH) Dhaka, Shahid Sarani, Dhaka Cantonment, Dhaka","Dhaka Cantonment","Dhaka","90.39835095405579","23.814362271157822"
"""lets eat , basundhara r/ a""","House  554,555, Road  23, Block L, Bashundhara R/A, Dhaka","Bashundhara R/A","Dhaka","90.44770081292165","23.82153768610095"
"""492,shapla sharani,mukti housing,pashchim kafrul""","House  492, South Kafrul, Kafrul, Dhaka","Kafrul","Dhaka","90.3832156","23.78881159"
"""brb hospital""","BRB Hospital Limited, House  77/A, Bir Uttam Kazi Nuruzzaman Road, Panthapath, Dhaka","Panthapath","Dhaka","90.38538076","23.75257733"
"""b 4,ramna estate complex,124,boro mogbazar,dhaka 1217""","Ramna Estate Complex, House  124, Ramna Century Avenue, Boro Moghbazar, Moghbazar, Dhaka","Moghbazar","Dhaka","90.4088695567339","23.746018737781238"
"""ashraf 4a house 19,rd 7,sector 10 uttara""","House  7, Road  19, Sector 10, Uttara, Dhaka","Uttara","Dhaka","90.38719786944777","23.89194310591901"
"""esha villa , ta 118/2 , cumilla para , middle badda , dhaka .""","Esha Villa, House  TA/118/2, Middle Badda, Badda, Dhaka","Badda","Dhaka","90.42390295918977","23.781357304059775"
"""mitali confectionary , hindu temple rd , shakhari bazar""","Hindu Tample road (Shakhari Bazar), Kotwali, Dhaka","Kotwali","Dhaka","90.40959936","23.70989415"
"""tsc circle""","TSC Lane, Savar, Dhaka","Savar","Dhaka","90.27068673","23.87896129"
"""siyam tyre battery , tongi kaliganj highway , west archipur , mpinartek""","Bismillah Battery And Tyre, House  103, Dhaka Mawa Highway, Dholairpar, Dhaka","Dholairpar","Dhaka","90.43520316481593","23.702181924351937"
"""uttara medicine""","Uttara Medicine Point, Hazi Chan Super Market, Jasimuddin Avenue, Badshartek, Uttara, Dhaka","Uttara","Dhaka","90.39308208678331","23.861369104669063"
"""upazila health complex,keraniganj kholamora konakhola rd,bharalia""","Kholamora - Konakhola Road, Sakta, Dhaka","Sakta","Dhaka","90.34605888","23.70593591"
"""duniya , 10 , mitali housing spciety , south kafrul , paschim kafrul""","Duniya, House  458/1/B, Mitali Housing Road, East Kafrul, Kafrul, Dhaka","Kafrul","Dhaka","90.38471115400462","23.78814719401366"
"""62 park road,rebecca apartmentss,apt 7""","Ventura Rebecca, House  64, Park Road, Block K, Baridhara, Dhaka","Baridhara","Dhaka","90.42118716441723","23.80560213501866"
"""house 292 road 4,dohs basundhara""","Manor, House  292, Road  4, Mirpur DOHS, Mirpur, Dhaka","Mirpur","Dhaka","90.36690205335617","23.834845324885254"
"""house 90b,hatembag road,east rayer bazar""","House  90/C, Hatembagh Road, East Rayer Bazar, Rayer Bazar, Dhaka","Rayer Bazar","Dhaka","90.3675388172632","23.74327609295656"
"""nishdish nasta ghor,h 8/c,girda urdu rd,bakshi bazar""","House  8, Girda Urdu Road, Bakshi Bazar, Dhaka","Bakshi Bazar","Dhaka","90.39373619","23.72131486"
"""phoenix building , h 407, station rd""","Phoenix Head Office, Phoenix Tower, House  407, Shahid Tajuddin Ahmed Sarani, Tejgaon Industrial Area, Tejgaon, Dhaka","Tejgaon","Dhaka","90.39671072336841","23.760020758337898"
"""tapout fitness""","","","","",""
"""mohammad abdul kashem , 187 , i block road 9 , bashunmdhara r/a""","","","","",""
"""embasssy of the united states of america,madani ave,bvaridhara""","","","","",""
"""h 3,rd 2merul badda""","","","","",""
"""alfresco tejgaon""","","","","",""
"""kawla bus stop kawla""","","","","",""
"""house 7 , road 29 , sector 7 , uttara model town""","","","","",""
"""mugda para police station""","","","","",""
"""redical hospital,shah makdum ave,sector 12""","","","","",""
"""bakur math , north jatrabari""","","","","",""
"""bank alfalah atm , gulshan 2 gulshan""","","","","",""
"""dhanmondi hoqurs market""","","","","",""
"""smell 1 , road 7 , block e, shajahanpur""","","","","",""
"""new dhansiri restaurant - gulshan 2, road 46 , gulshan 2 , ghulshan""","","","","",""
"""bangladesh  - china friendship exhibition , sector 4 , purbachal""","","","","",""
"""berlin foods , dncc market , gulshan -1""","","","","",""
"""mezbandari,joynab ali sarak,basundhara road""","","","","",""
"""faridabad high school,faridabad ln,gandaria""","","","","",""
"""h 13/2, kalachandpur main rd  kalachandpur""","","","","",""
"""shwapno , lake city rd""","","","","",""
"""brac pollu 2,azampur uttara dhaka.dewanpara""","","","","",""
"""nabilas premimum kitchen , dhonia , shoniakhra""","","","","",""
"""sorwardi hospital""","","","","",""
"""sukonna tower""","","","","",""
"""bashtola foot over bridge""","","","","",""
"""foodspire""","","","","",""
"""pizza xpeart dhanmondi , sukrabad , dhaka 1207""","","","","",""
"""eastern plaza shopping complex , shantinagar rd""","","","","",""
"""dhaka community medical college and hospital , boro mogbazar""","","","","",""
"""prottasha kindar garten school , north vasantek rd , vasantek""","","","","",""
"""majumder's kemal atatruk avenue banani""","","","","",""
"""dncc police box, madani avenue baridhara , notun bazar""","","","","",""
"""sheikh hayder box lane,noorbagh,babu bazar""","","","","",""
"""satarkul merul rahmate noor jame mosque , madani avenue , kathalbaria badda""","","","","",""
"""united international university campus""","","","","",""
"""sonali bank ltd , custom clearance br . new airport rd""","","","","",""
"""plot 1, avenue 1, block b , section 10 , mirpur , dhaka 1216 (helal diagonstic centre building )""","","","","",""
"""bangabandhu international conference center , begum rokeya sarani , she e bangla nagar""","","","","",""
"""house 37,road 1,block f,sector 1,aftabnagar""","","","","",""
"""sheltech,monihar bhaban no 8,h 154/1,gate 2 rd,monipuripara""","","","","",""
"""arambagh ndc footover bridge,south kamalapur""","","","","",""
"""road 6,monsurbad housing,adabar""","","","","",""
"""shantos hq""","","","","",""
"""kaunshilor karjalay , 49 no word , dhaka uttar   s""","","","","",""
"""appetina , shimanto shombar , dhanmondi 2""","","","","",""
"""purbp sadarpur road, ashulia , nobinagar""","","","","",""
"""ahsania mission cancer & general hospital , ahsania mission rd , mirpur 14""","","","","",""
"""twenty 20 snacks""","","","","",""
"""national eye hospital , mirpur  road sher e bangla nagar""","","","","",""
"""suvastu ruchira , house # 41 rd no 9a , dhaka 1205""","","","","",""
"""rajuk uttara model college,sector 6""","","","","",""
"""ahsan villa, h 113,crescent rd,katabagan""","","","","",""
"""rd 5, arambag r/a pallabi""","","","","",""
"""red olive restaurant , mirpur 7""","","","","",""
"""h 286, aftab uddin ahmed rd , block b , bashunmdhara r /a""","","","","",""
"""al helal jame masjid , demra narayanganj rd , shiddhirganj""","","","","",""
"""house 14/15, road 8 , extended pallabi , mirpur 11.5""","","","","",""
"""h 251, h 252, 253, 254, 256 , rd 8, basdhundhara r /a""","","","","",""
"""panna battery , beribadh rd , vagolpur hazaribag""","","","","",""
"""basumati real estate limited , hatirjheel , tejgaon ind .area""","","","","",""
"""tongi fire station , dhaka mymensingh highway , purbo arichpur""","","","","",""
"""nitol niloy tower nikunjo 2""","","","","",""
"""162 post office road modhubajar dhanmondi 19""","","","","",""
"""shiyal bari circle bus stop , rupnagar""","","","","",""
"""nazira bazar boro masjid , nazira bazar rd , bangla duar""","","","","",""
"""100 ft goru chagoler haat,madani avenue,100 ft""","","","","",""
"""house 32 , road 7/c , sector 9 , uttara dhaka""","","","","",""
"""santinibas 78 , santinibas baf officers quarter internal rd , paschim nakhalpara , sher  e bangla nagar""","","","","",""
"""bashabo  , dhaka , middle bashabo""","","","","",""
"""h 485 , rd 2, block d, bashundhara 4/a""","","","","",""
"""abdullagpur bus stop""","","","","",""
"""alir mor rd , purbachal , west badda""","","","","",""
"""khana- pina restaurant , panch char""","","","","",""
"""suvastu kunjan""","","","","",""
"""baitul taqwa jame masjid,east maniknagar""","","","","",""
"""mad chicken""","","","","",""
"""shopno neer 6,mitali housing society,south kafrul""","","","","",""
"""farhana sharmin , block l , bashundharab r/a""","","","","",""
"""farid market kacha bazar,uttara azampur""","","","","",""
"""hungry treat""","","","","",""
"""banani skatepark,block k""","","","","",""
"""tejgaon industrial area police station,shahid tajuddin ahmed ave,tejgao i/a""","","","","",""
"""sanmar tower 2""","","","","",""
