"location","formatted_address","latitude","longitude"
"""I CARE COMPUTER SYSTEM , HOUSE 41/2/E/3 , HARI CHARAN RAY ROAD , FARIDABAD , GENDARIA , DHAKA 1204""","","",""
"""H 366/6, RD 6, BARIDHARA DOHS""","Bangladesh","24.0","90.0"
"""NEW JANANI ENGINEERING WORKSHOP , NABI NAGAR HOUSING , MOHAMMADPUR""","Mohammadpur, Bangladesh","23.7659","90.35851"
"""G. PRASANTY , 10, ROAD 3 , MUKTI HOUSING , KALLYANPUR""","Bangladesh","24.0","90.0"
"""AIRPORT ROAD , NEW AIRPORT ROAD, KURMITOLA N, SECTOR 2""","Bangladesh","24.0","90.0"
"""north shyamoli""","Kallyanpur, Dhaka - 1916, Bangladesh","23.7784144","90.3654452"
"""dewanbag""","Babe Nur' Dewanbag Darbar Sharif 'বাবে নূর' দেওয়ানবাগ দরবার শরীফ, Airport Road, Rajshahi District, - 6203, Bangladesh","24.403494","88.6075937"
"""westy jatrabari""","Jātrābāri, Bangladesh","24.98797","90.90801"
"""shahjahanpur""","Shahjahanpur, Dhaka - 1217, Bangladesh","23.7407406","90.4240134"
"""sher e bangla nagar""","Sher-E-Bangla Nagar, Dhaka - 1207, Bangladesh","23.7741959","90.3754853"
"""new airport road""","New Airport Road, Khilkhet, Dhaka - 1229, Bangladesh","23.8398867","90.4172633"
"""new easkaton""","Bangladesh","24.0","90.0"
"""kamalapur""","Kamalapur, Outer Circular Road, Dhaka - 1203, Bangladesh","23.7325123","90.4257424"
"""wari""","Wari, Dhaka - 1203, Bangladesh","23.7186574","90.4153989"
"""ramna""","Ramna, Dhaka - 1000, Bangladesh","23.7398559","90.4022658"
"""sarkari karmachari hospital""","Bangladesh","24.0","90.0"
"""mirpur - 2""","Mirpur, Dhaka - 1216, Bangladesh","23.8050427","90.3585246"
"""nandipara basabo""","Islami Bank Bangladesh Limited, Bashabo Branch, Bashabo-Madartek Road, Bashabo, Dhaka - 1214, Bangladesh","23.7403862","90.4326774"
"""road to be named""","Bangladesh","24.0","90.0"
"""basunmdhara r/a""","Bangladesh","24.0","90.0"
"""shanta garden""","Bangladesh","24.0","90.0"
"""shhajahanpur""","Bangladesh","24.0","90.0"
"""kakrail""","Segunbagicha, Dhaka - 1000, Bangladesh","23.7385398","90.4071475"
"""eska""","Bangladesh","24.0","90.0"
"""rustampur""","Rustampur, Faridganj Upazila, Bangladesh","23.099416","90.7894818"
"""east tejturipara""","Bangladesh","24.0","90.0"
"""middle basabo""","Bashabo, Dhaka - 1214, Bangladesh","23.7415414","90.4319335"
"""namapara tetul tola""","Kola, Khulna Division, Bangladesh","23.65335","89.0933"
"""dakkhinpara""","Bangladesh","24.0","90.0"
"""9th floor""","London ward, Nakuru West, Kenya","-0.2864982","36.0514231"
"""1361""","Dhaka District, - 1361, Bangladesh","23.7067441","90.4798084"
"""1000""","Dhaka District, - 1000, Bangladesh","23.7324204","90.406732"
"""1400""","Narayanganj District, - 1400, Bangladesh","23.6252806","90.4955204"
"""moghbazar""","Moghbazar-Mouchak Flyover, Shiddheswari, Dhaka - 1217, Bangladesh","23.7449296","90.4132248"
"""dhaka ( uttara  poshchim thanar samne )""","Dhaka Division, Bangladesh","24.16667","90.41667"
"""block j""","Bashundhara Residential Area, Dhaka - 1229, Bangladesh","23.8227827","90.4425682"
"""bhuiyan eastate""","Bangladesh","24.0","90.0"
"""mirpur 2""","Mirpur, Dhaka - 1216, Bangladesh","23.8050427","90.3585246"
"""shamsur madrasa circle""","Bangladesh","24.0","90.0"
"""south banasree project""","Bangladesh Krishi Bank, Dakhin Banasree Project Road, Madartek, Dhaka - 1214, Bangladesh","23.7447527","90.4427661"
"""shaheenbag""","Nakhalpara, Dhaka - 1208, Bangladesh","23.7727992","90.3929208"
"""naya paltan""","Noya Paltan, Dhaka - 1000, Bangladesh","23.7356527","90.4132052"
"""block d""","Banasree, Dhaka, Dhaka District, Bangladesh","23.7619434","90.4319378"
"""1702""","Gazipur District, - 1702, Bangladesh","24.0855436","90.3818567"
"""dokkhin monipur""","Manipur, Bangladesh","23.47172","91.0612"
"""sher-e-bangla-nagar""","Sher-E-Bangla Nagar, Dhaka - 1207, Bangladesh","23.7741959","90.3754853"
"""bay's lakewood""","Bangladesh","24.0","90.0"
"""tejkunipara""","Tejgaon, Dhaka - 1215, Bangladesh","23.7618151","90.3924323"
"""hatirpool circle""","Bangladesh","24.0","90.0"
"""panthapath""","Rajabazar, Dhaka - 1215, Bangladesh","23.7525464","90.3833456"
"""gabtali""","Gabtali, গাবতলী উপজেলা, Bangladesh","24.8770229","89.4512705"
"""boorbagh""","Bangladesh","24.0","90.0"
"""kuril gausia brtc ticket counter""","Bangladesh","24.0","90.0"
"""chawkbazar""","Chawkbazar, Dhaka - 1310, Bangladesh","23.715323","90.3954354"
"""keranigank subdistrict""","Bangladesh","24.0","90.0"
"""sadarghat""","Sadar Ghat, Strand Road, Agrabad, Chattogram - 4000, Bangladesh","22.3247581","91.8308197"
"""block c""","Banasree, Dhaka, Dhaka District, Bangladesh","23.7622736","90.4294142"
"""mirpur`""","Mirpur, Kushtia District, Bangladesh","23.9363038","88.997764"
"""joar shahara""","Joar Shahara Bazar Road, Joar Sahara, Dhaka - 1229, Bangladesh","23.8133087","90.4184094"
"""twenty twenty restaurant and party center""","Bangladesh","24.0","90.0"
"""segunbagicha""","Segunbagicha, Dhaka - 1000, Bangladesh","23.7340321","90.4076745"
"""gulistan""","Gulistan, Dhaka - 1000, Bangladesh","23.7249037","90.4120785"
"""block e.banasree""","Banasree, Dhaka, Dhaka District, Bangladesh","23.7613593","90.4351191"
"""dhaka mawa highway""","Dhaka-Mawa Highway, Munshiganj District, Mawa - 1535, Bangladesh","23.4813191","90.2669091"
"""dilkusha""","Dilkusha, Dhaka - 1203, Bangladesh","23.7272736","90.4162497"
"""kuril""","Kuril, Dhaka - 1229, Bangladesh","23.8218203","90.4228833"
"""wireless niketon""","Bangladesh","24.0","90.0"
"""narayanganj""","Narayanganj, Narayanganj Sadar Upazila, Bangladesh","23.6236732","90.4988075"
"""basher pool dogair bazar""","Bāzār, Rangpur Division, Bangladesh","25.74442","88.49186"
"""rani mohol boro vanga rd""","Bangladesh","24.0","90.0"
"""pampura""","Bangladesh","24.0","90.0"
"""monipuri para""","Tejgaon, Dhaka - 1215, Bangladesh","23.7616919","90.3859025"
"""purana paltan""","Purana Paltan Line, Noya Paltan, Dhaka - 1217, Bangladesh","23.7384749","90.411512"
"""panmthapath""","Bangladesh","24.0","90.0"
"""tolerbag jame masjid""","Bangladesh","24.0","90.0"
"""new eskaton""","Kawran Bazar, Dhaka - 1234, Bangladesh","23.7472147","90.3980307"
"""sutrapur""","Gazipur District, Sutrapur - 1942, Bangladesh","24.0799224","90.1865732"
"""mirpur - 1""","Mirpur, Dhaka - 1216, Bangladesh","23.801924","90.3523456"
"""interlink technology""","Bangladesh","24.0","90.0"
"""basundhara r /a""","Bangladesh","24.0","90.0"
"""priyo prangon""","Bangladesh","24.0","90.0"
"""dhanmondi foot over bridge""","Dhanmondi Govt. Boys' High Schoole Shahid Minar, Foot Over Bridge, Sobhanbag, Dhaka - 1207, Bangladesh","23.7573921","90.3749613"
"""shobujbag""","Shobujbag Kacha Bazar Road, HaliShohor, Chattogram - 4216, Bangladesh","22.3397486","91.784815"
"""bhuiya estate""","Bhuiya Estate Road, Hazaribagh, Dhaka - 1312, Bangladesh","23.7301501","90.3625107"
"""green model town""","Green Model Town, Dhaka - 1232, Bangladesh","23.7280141","90.4512815"
"""komlapur""","Komlapur Road, Jhenaidah District, -, Bangladesh","23.2811035","88.9653649"
"""nurer chala""","Nurer Chala, Dhaka - 1212, Bangladesh","23.7957069","90.4331606"
"""shonir akhra""","Shonir Akhra, Dhaka - 1236, Bangladesh","23.7036614","90.4508803"
"""mirpur dhaka 1216""","Bangladesh, Lane 1, Mirpur, Dhaka - 1216","23.8202931","90.3710408"
"""darus salam""","Mirpur, Dhaka - 1916, Bangladesh","23.7780349","90.3549041"
"""section  10""","Mikindani ward, 80102, Kenya","-4.0098851","39.6337402"
"""bashundhara""","Bashundhara, Chokjadu Road, Bogura District, Bogura - 5800, Bangladesh","24.8507256","89.3664267"
"""hashim tower""","Hashim Tower, 205/1 Tejgaon Gulshan Link Road, Niketan, Dhaka - 1208, Bangladesh","23.7715296","90.4115671"
"""mirpur dohs house 710 road 10 avenued 3 flat 4 a""","Bangladesh","24.0","90.0"
"""indira road farmngate""","Bangladesh","24.0","90.0"
"""road 10 block d house 328 basundhara""","Bangladesh","24.0","90.0"
"""monshurabad abashik area ada""","Bangladesh","24.0","90.0"
"""west panthapath""","Rajabazar, Dhaka - 1215, Bangladesh","23.7525464","90.3833456"
"""matikata""","Matikata, Dhaka - 1206, Bangladesh","23.8196962","90.3936832"
"""ahsaniya mission cancer and general hospital""","Bangladesh","24.0","90.0"
"""chefs table court side""","Bangladesh","24.0","90.0"
"""aftab nagar project badda""","Bādua, Dhaka Division, Bangladesh","24.34671","90.00523"
"""nuvista pharma plant""","Bangladesh","24.0","90.0"
"""hospital""","hospital, Hospital Road, Pabna District, Pabna - 6600, Bangladesh","24.0165756","89.2449658"
"""the buffet stories mirpur""","The Buffet Stories, Begum Rokeya Sharani, Mirpur, Dhaka - 1216, Bangladesh","23.8182006","90.3653145"
"""nilkhet""","Azimpur, Dhaka - 1205, Bangladesh","23.7329358","90.3860855"
"""kotwali""","Kotwali Thana Road, Kandirpar, Cumilla - 3502, Bangladesh","23.4647456","91.1870087"
"""sayedabad""","Sayedabad Wonderland, Saydabad, Dhaka, Dhaka District, Bangladesh","23.7152237","90.4248802"
"""mirpur 6""","Mirpur, Dhaka - 1216, Bangladesh","23.8108831","90.3643604"
"""house 36 road 7 uttora sector 13""","Bangladesh","24.0","90.0"
"""kamalpur""","Kamalpur, Moulvibazar, Moulvibazar Sadar Upazila, Bangladesh","24.5396617","91.7329651"
"""savar""","Dhaka District, Savar - 1340, Bangladesh","23.8477","90.2587"
"""tejgaon thana health complex""","Bangladesh","24.0","90.0"
"""road 109 gulshan 2""","Road 109, Gulshan, Dhaka - 1212, Bangladesh","23.791029","90.4172453"
"""ad din medical college hospital""","Ad-Din Women's Medical college & Hospital, Jomidar Goli, Mogbazar, Dhaka - 1248, Bangladesh","23.7485032","90.4050678"
"""ibrahimpur""","Brahmanbaria District, Ibrahimpur - 3461, Bangladesh","23.8388035","90.9857133"
"""block  d""","Banasree, Dhaka, Dhaka District, Bangladesh","23.7619434","90.4319378"
"""reckitt benckiser official store tejgaon""","Tejgaon, Bangladesh","23.76296","90.38971"
"""east goran""","Goran, Dhaka - 1214, Bangladesh","23.7481983","90.4365253"
"""new market""","New Market, Mirpur Road, Azimpur, Dhaka - 1205, Bangladesh","23.7332423","90.384369"
"""paschim agargaon""","Bangladesh","24.0","90.0"
"""bardem hospital""","Bardem Hospital, Rankin Street, Wari, Dhaka - 1203, Bangladesh","23.7160002","90.4163756"
"""darussalam rd""","Darussalam Ashiya Jame Masjid, Sharat Gupta Rd, Dhaka, Sharat Gupta Road, Narinda, Dhaka - 1203, Bangladesh","23.7104881","90.4231741"
"""sel bari legacy""","Bangladesh","24.0","90.0"
"""shah ali bagh""","Shah Ali Bagh, Dhaka - 1916, Bangladesh","23.7974702","90.3563554"
"""uttara bhaban 5/a . mirpur 1 dhaka 1216.""","Mīrpur, Dhaka Division, Bangladesh","23.99511","90.32359"
"""ananda food house""","Bangladesh","24.0","90.0"
"""house 295/296""","house, Jamalpur, Jamalpur Sadar Upazila, Bangladesh","24.9207982","89.9626115"
"""arambagh""","Arambagh, Khulna - 9208, Bangladesh","22.8087008","89.5472595"
"""university of dhaka""","University of Dhaka, Unmesh Datta Road, Bokshibazar, Dhaka - 1211, Bangladesh","23.7312443","90.3915283"
"""dayaganj""","Dayaganj, Dhaka - 1204, Bangladesh","23.7104417","90.4246393"
"""utto""","Bangladesh","24.0","90.0"
"""kalachandpur""","Gulshan, Dhaka - 1229, Bangladesh","23.8089642","90.4166054"
"""shahbag  circle""","Bangladesh","24.0","90.0"
"""banani  dohs""","DOHS Banani Park Football & Cricket Field, Gulshan, Dhaka, Dhaka District, Bangladesh","23.7926587","90.3983849"
"""lalbag""","Lalbag, Dhaka - 1211, Bangladesh","23.7180752","90.3846389"
"""shumaiya 's place""","Bangladesh","24.0","90.0"
"""hungry eyes food corner""","Bangladesh","24.0","90.0"
"""kurmitola general hospital""","Kurmitola General Hospital, New Airport Road, Joar Sahara, Dhaka - 1229, Bangladesh","23.8192623","90.4097811"
"""jigatola""","Jigatola, Dhaka - 1209, Bangladesh","23.7390073","90.3710009"
"""ashar alo lake view tower""","Bangladesh","24.0","90.0"
"""tejgaon industrial area""","Tejgaon Industrial Area, Dhaka - 1208, Bangladesh","23.7648783","90.405798"
"""mintu rd""","Mintu Bepari Store, Padma Brg Rd, Naodoba, Mawa-Bhanga Expressway, Shariatpur District, Naodoba -, Bangladesh","23.4016742","90.2455978"
"""syed mahbub murshed ave""","Bangladesh","24.0","90.0"
"""section 13""","Bangladesh Krishi Bank, Baraiyerhat-Joraganj Old Section Road, Chattogram District, Baraiyarhat - 3901, Bangladesh","22.8933377","91.5339391"
"""nawabpur""","Nawabpur, Dhaka - 1100, Bangladesh","23.7168771","90.4118102"
"""poshchim  kafrul""","Kāfrul, Bangladesh","23.78822","90.37359"
"""road 9a""","Road 9A, Dhaka District, Dhaka - 1207, Bangladesh","23.7487665","90.3686708"
"""mohammadppur""","Bangladesh","24.0","90.0"
"""tollabag dhaal""","Dhāal, Rājshāhi Division, Bangladesh","24.7204","88.52302"
"""noyatola""","Noyatola, Dhaka - 1248, Bangladesh","23.7562013","90.4101983"
"""riceman""","Bangladesh","24.0","90.0"
"""vatara""","Nk Electric Office, vatara Vhatara 100 Ft Road, Baridhara, Dhaka - 1212, Bangladesh","23.7985609","90.4246369"
"""dhakshin azampur""","Āzimpur, Bangladesh","22.85","91.5"
"""green rd farmgate""","Green Road, Panthopath, Dhaka - 1215, Bangladesh","23.754526","90.3887101"
"""north ibrahimpur""","Digital Mapping Center, Survey of Bangladesh, Mirpur 14 Rd, Ibrahimpur, Dhaka - 1206, Bangladesh","23.8040149","90.388397"
"""shantinagar""","Shantinagar, Dhaka - 1217, Bangladesh","23.7385358","90.4139156"
"""dokkhin  monipur""","Manipur, Bangladesh","23.47172","91.0612"
"""paschim monipur""","Manipur, Bangladesh","23.47172","91.0612"
"""siddhirganj""","Siddhirganj Power Plants, Narayanganj, Narayanganj Sadar Upazila, Bangladesh","23.6822747","90.5259623"
"""khigoan""","Bangladesh","24.0","90.0"
"""diyabari""","Bangladesh","24.0","90.0"
"""asundhara r/a""","Bangladesh","24.0","90.0"
"""paschim  kafrul""","Kāfrul, Bangladesh","23.78822","90.37359"
"""mirbag""","Noyatola, Dhaka - 1029, Bangladesh","23.7591437","90.4134432"
"""west rampura""","Rampura, Dhaka - 1029, Bangladesh","23.7623412","90.4174201"
"""east tejkunipara""","Japanese Universities Alumni Association in Bangladesh, East Rajabazaar, Rajabazar, Dhaka - 1215, Bangladesh","23.758096","90.3869381"
"""flat no b2""","Bangladesh","24.0","90.0"
"""sonarang""","Tongibari - Sonarang - Betka Road, Munshiganj District, Tongibari Upazila - 1521, Bangladesh","23.5234194","90.461074"
"""basundhara""","Basundhara, 38 Rajani Chawdhury Road, Gendaria, Dhaka - 1204, Bangladesh","23.7044965","90.4217745"
"""nikunja1""","Khilkhet, Dhaka - 1229, Bangladesh","23.8302567","90.4178733"
"""dhanmo""","Bangladesh","24.0","90.0"
"""west karwan bazar""","Bāzār, Rangpur Division, Bangladesh","25.74442","88.49186"
"""matikata mirpur ecb""","Bangladesh","24.0","90.0"
"""delhi darbar mohakhali""","Bangladesh","24.0","90.0"
"""sher  e  bangla nagar""","Sher-E-Bangla Nagar, Dhaka - 1207, Bangladesh","23.7741959","90.3754853"
"""niketon gulshan""","Road 1 Niketon Block A, Gulshan, Dhaka - 1213, Bangladesh","23.7766103","90.4125354"
"""universal  international school""","Universal International School(ইউনিভার্সেল ইন্টারন্যাশনাল স্কুল), 10 7 number line, Mirpur, Dhaka - 1216, Bangladesh","23.8155956","90.3742657"
"""block g""","Green Model Town, Dhaka - 1360, Bangladesh","23.7297335","90.4565226"
"""keraniganj subdistrict""","Keraniganj Subdistrict, Bangladesh","23.6983432","90.3472708"
"""new air port rd""","Bangladesh","24.0","90.0"
"""mohakhali bazar road""","Mohakhali Bazar Jame Masjid Road, Gulshan, Dhaka - 2467, Bangladesh","23.7800045","90.398989"
"""miprur 1""","Bangladesh","24.0","90.0"
"""lalbagh""","Lalbagh Fort, Kazi Riaz Uddin Road, Lalbag, Dhaka - 1211, Bangladesh","23.718843","90.3881528"
"""faridabad""","Faridabad, Dhaka - 1204, Bangladesh","23.6966383","90.4231544"
"""cantonment""","Cantonment, Cantonment Road, Rangpur District, Rangpur - 5401, Bangladesh","25.7606013","89.231221"
"""mirpur ecb""","Bangladesh","24.0","90.0"
"""taqwa biryani house""","Bangladesh","24.0","90.0"
"""mridus jail""","Bangladesh","24.0","90.0"
"""dhaka -1000""","Dhaka, Dhaka District, Bangladesh","23.7643863","90.3890144"
"""shahjadpur bus stop""","Shahjadpur Bus Stop, Bir Uttam Rafiqul Islam Avenue, Gulshan, Dhaka - 1212, Bangladesh","23.7920887","90.4245009"
"""shantibag""","Shantibag Road, Malibagh, Dhaka - 1217, Bangladesh","23.7447372","90.4164333"
"""dhaka chittagong highway""","Dhaka-Chattogram Highway, Chattogram District, Sitakunda - 1352, Bangladesh","22.646881","91.6418983"
"""dhanmondi r /a""","Bangladesh","24.0","90.0"
"""tejgaon gulshan link rd""","Tejgaon Gulshan Link Road, Niketan, Dhaka - 1029, Bangladesh","23.7714526","90.4119188"
"""west nakhalpara""","Nakhalpara, Dhaka - 1208, Bangladesh","23.7698495","90.3934246"
"""fulbaria""","Fulbaria, Gazipur District, Bangladesh","24.1892148","90.3087797"
"""basabo""","Bashabo, Dhaka - 1214, Bangladesh","23.7415414","90.4319335"
"""secret recipe mohakhali""","Bangladesh","24.0","90.0"
"""tikatuli""","Tikatuli, Dhaka - 1203, Bangladesh","23.7189757","90.424011"
"""south badda""","Gulshan, Dhaka - 1212, Bangladesh","23.7751646","90.4225629"
"""89 sihrawardy avenue . road no. 11 baridhara""","Baridhara, Bangladesh","23.80254","90.42117"
"""norshindi sadar . norshindi""","Bangladesh","24.0","90.0"
"""airport rail station""","Bangladesh","24.0","90.0"
"""bonosri e block""","Bangladesh","24.0","90.0"
"""shahjadpur""","Shahjadpur, Dhaka - 1212, Bangladesh","23.7884856","90.4237741"
"""mirpur-13""","Mirpur, Dhaka - 1216, Bangladesh","23.8064","90.3776496"
"""vip road""","Vip road, Bagerhat District, Bagerhat - 9300, Bangladesh","22.6527302","89.7901118"
"""paschim nakhalpara""","Paschim Raja Bazar Jame Masjid, 58 Raja Bazar- Indira Road, Shukrabad, Dhaka - 1215, Bangladesh","23.7550338","90.3813883"
"""donia""","Donia, Dhaka - 1236, Bangladesh","23.7026953","90.4447096"
"""poschim kafrul""","Poschim Kafrul (Wakf) Jame Mosque, পরিসংখ্যান এভিনিউ, Agargaon, Dhaka - 1916, Bangladesh","23.7820308","90.378521"
"""girls school road dhanmindi""","Bangladesh","24.0","90.0"
"""dhaka 1209""","Dhaka, Dhaka District, Bangladesh","23.7643863","90.3890144"
"""mohammadour""","Bangladesh","24.0","90.0"
"""islam pharma""","Islam Pharma, 102/12 Sadek Khan Road, Mohammadpur, Dhaka - 1207, Bangladesh","23.7516649","90.3617035"
"""west kafrul mirpur""","Bangladesh Space Research and Remote Sensing Organization (SPARRSO), Begum Rokeya Sharani, Kazipara, Dhaka - 1103, Bangladesh","23.7810493","90.3786973"
"""west rajabazar""","Prime Minister's Office, Office Of The Prime Minister Bangladesh Bijoy Sharani, Tejgaon, Dhaka - 1212, Bangladesh","23.7683525","90.3918572"
"""kazipara""","Kazipara, Begum Rokeya Sharani, Dhaka - 1216, Bangladesh","23.7992408","90.3719878"
"""block i""","Bashundhara Residential Area, Dhaka - 1229, Bangladesh","23.8201676","90.4397267"
"""bangladesh bar council""","Bangladesh BAR Council, Maulana Bhasani Road, Segunbagicha, Dhaka - 1000, Bangladesh","23.7329672","90.4036785"
"""malibagh b""","Malibagh, Dhaka - 1217, Bangladesh","23.7464464","90.4159433"
"""hashim toweer""","Bangladesh","24.0","90.0"
"""mirpurr 12""","Bangladesh","24.0","90.0"
"""mohanagar housing project""","Bangladesh","24.0","90.0"
"""goran""","Goran, Dhaka - 1214, Bangladesh","23.747854","90.4336267"
"""kulutola""","Sutrapur, Dhaka - 1204, Bangladesh","23.7064981","90.4188205"
"""gulshan avenue""","Bir Uttam Mir Shawkat Sarak (Gulshan Avenue), Gulshan, Dhaka - 1029, Bangladesh","23.7725828","90.4148568"
"""nukunja 2""","Bangladesh","24.0","90.0"
"""nobinagar 1340""","Dhaka District, Nobinagar - 1334, Bangladesh","23.9123657","90.2605169"
"""mirpur 2  main rd""","Scholastica Senior Campus Mirpur, 2/B, 2/C Main Road - 13, Mirpur, Dhaka - 1216, Bangladesh","23.8055923","90.3765748"
"""rayer bazar""","Rayer Bazar, Dhaka, Dhaka District, Bangladesh","23.7448424","90.3627337"
"""kpmlapur railway station dhaka""","Dhaka Division, Bangladesh","24.16667","90.41667"
"""shantinagar .""","Shantinagar, Dhaka - 1217, Bangladesh","23.7385358","90.4139156"
"""agargaon""","Agargaon, Begum Rokeya Sharani, Kazipara, Dhaka - 1216, Bangladesh","23.7784275","90.3800503"
"""moinartek""","Bangladesh","24.0","90.0"
"""sher  e bangla  nagar""","Sher-E-Bangla Nagar, Dhaka - 1207, Bangladesh","23.7741959","90.3754853"
"""dhaka mymensigh highway""","Dhaka - Mymensigh Highway, Uttara, - 1276, Bangladesh","23.8641564","90.3998921"
"""dhaka canmtonment""","Bangladesh","24.0","90.0"
"""basundhara r/ a""","Bangladesh","24.0","90.0"
"""pashchim kafrul""","Kafrul, Dhaka - 1103, Bangladesh","23.7853511","90.3774982"
"""brb hospital""","Bangladesh","24.0","90.0"
"""dhaka 1217""","Dhaka, Dhaka District, Bangladesh","23.7643863","90.3890144"
"""sector 10 uttara""","Uttara, Dhaka - 1231, Bangladesh","23.8823382","90.3893745"
"""dhaka .""","Dhaka, Dhaka District, Bangladesh","23.7643863","90.3890144"
"""shakhari bazar""","Islampur, Dhaka - 1100, Bangladesh","23.7101557","90.4088089"
"""tsc circle""","Bangladesh","24.0","90.0"
"""mpinartek""","Bangladesh","24.0","90.0"
"""uttara medicine""","Bangladesh","24.0","90.0"
"""bharalia""","Bharalia, Keraniganj Subdistrict, Bangladesh","23.7147935","90.3519779"
"""paschim kafrul""","Kāfrul, Bangladesh","23.78822","90.37359"
"""apt 7""","APT, Mirpur-1 Footover Bridge, Shah Ali Bagh, Dhaka - 1216, Bangladesh","23.7987347","90.3530841"
"""dohs basundhara""","Bangladesh","24.0","90.0"
"""east rayer bazar""","Hatembag Road, East Rayer Bazar, Jigatola, Dhaka - 1209, Bangladesh","23.7429847","90.368355"
"""bakshi bazar""","Bokshi Bazaar Bus stop, Bakshi Bazar Road, Dhaka, Orphanage Road, Bokshibazar, Dhaka - 1211, Bangladesh","23.7225591","90.3955594"
"""station rd""","Station Road, Talaimari, Rajshahi - 6204, Bangladesh","24.3684168","88.6244432"
"""tapout fitness""","Bangladesh","24.0","90.0"
"""bashunmdhara r/a""","Bangladesh","24.0","90.0"
"""bvaridhara""","Bangladesh","24.0","90.0"
"""rd 2merul badda""","Bādua, Dhaka Division, Bangladesh","24.34671","90.00523"
"""alfresco tejgaon""","Tejgaon, Bangladesh","23.76296","90.38971"
"""kawla bus stop kawla""","Kawla Rail Gate Bus stop, BRT Line 3, Dokkhin Khan, Dhaka - 1230, Bangladesh","23.8463381","90.4122209"
"""uttara model town""","Uttara, Dhaka - 1231, Bangladesh","23.8693275","90.3926893"
"""mugda para police station""","Bangladesh","24.0","90.0"
"""sector 12""","China Bangladesh Friendship Exhibition Center, Dhaka City Bypass, Narayanganj District, Purbachal - 0000, Bangladesh","23.8426962","90.5338706"
"""north jatrabari""","Jatrabari, Dhaka - 1232, Bangladesh","23.712287","90.4343803"
"""gulshan 2 gulshan""","Embassy of Sweden, 2 Madani Avenue, Gulshan, Dhaka - 1212, Bangladesh","23.7962493","90.4176239"
"""dhanmondi hoqurs market""","Bangladesh","24.0","90.0"
"""shajahanpur""","Shajahanpur Graveyard, Shahidbagh, Dhaka, Dhaka District, Bangladesh","23.7410145","90.421266"
"""ghulshan""","Bangladesh","24.0","90.0"
"""purbachal""","Narayanganj District, Purbachal - 0000, Bangladesh","23.8534224","90.5014224"
"""gulshan -1""","Gulshan, Dhaka - 1212, Bangladesh","23.780553","90.4169"
"""basundhara road""","Basundhara, 38 Rajani Chawdhury Road, Gendaria, Dhaka - 1204, Bangladesh","23.7044965","90.4217745"
"""gandaria""","Dayaganj, Dhaka, Dhaka District, Bangladesh","23.7060804","90.4263861"
"""kalachandpur main rd  kalachandpur""","Kalachandpur Main Road, Gulshan, Dhaka - 1229, Bangladesh","23.8078447","90.4185419"
"""lake city rd""","Bangladesh","24.0","90.0"
"""azampur uttara dhaka.dewanpara""","Bangladesh Petrolium Institute ( BPI), Officers Quarter Road, Azampur, - 1276, Bangladesh","23.8780212","90.4024462"
"""shoniakhra""","Bangladesh","24.0","90.0"
"""sorwardi hospital""","Bangladesh","24.0","90.0"
"""sukonna tower""","Bangladesh","24.0","90.0"
"""bashtola foot over bridge""","Bangladesh","24.0","90.0"
"""foodspire""","Bangladesh","24.0","90.0"
"""dhaka 1207""","Dhaka, Dhaka District, Bangladesh","23.7643863","90.3890144"
"""shantinagar rd""","Shantinagar Road, Rajarbag, Dhaka - 1217, Bangladesh","23.7393386","90.4150796"
"""boro mogbazar""","TAJ Hotel Boro Moghbazar, Outer Circular Road, Mogbazar, Dhaka - 1217, Bangladesh","23.748598","90.404016"
"""vasantek""","Vasantek pocket gate, মূল সড়ক, Bhashantek, Dhaka - 1206, Bangladesh","23.8113817","90.3961485"
"""majumder's kemal atatruk avenue banani""","Bangladesh","24.0","90.0"
"""notun bazar""","Baridhara, Dhaka - 1212, Bangladesh","23.7982944","90.4239709"
"""babu bazar""","Babu bazar, Dhaka - 1100, Bangladesh","23.7099344","90.402599"
"""kathalbaria badda""","Bādua, Dhaka Division, Bangladesh","24.34671","90.00523"
"""united international university campus""","Bangladesh","24.0","90.0"
"""custom clearance br . new airport rd""","Sonali Bank, Custom Clearance Br, Airport Road New Airport Road, Dhaka District, - 1229, Bangladesh","23.8520633","90.4047291"
"""dhaka 1216 (helal diagonstic centre building )""","Dhaka Division, Bangladesh","24.16667","90.41667"
"""she e bangla nagar""","Nagar Chāchkia, Rājshāhi Division, Bangladesh","24.09326","89.34041"
"""aftabnagar""","Aftabnagar, Dhaka - 1214, Bangladesh","23.7657519","90.445198"
"""monipuripara""","Bangladesh","24.0","90.0"
"""south kamalapur""","Motijheel, Dhaka - 1203, Bangladesh","23.7265334","90.4246303"
"""adabar""","Adabar, Dhaka - 1916, Bangladesh","23.7745693","90.3552923"
"""shantos hq""","Bangladesh","24.0","90.0"
"""dhaka uttar   s""","Dhaka-Chattogram Highway, Chattogram District, Chattogram - 4207, Bangladesh","22.3687404","91.778023"
"""dhanmondi 2""","Dhanmondi 2, Jigatola, Dhaka - 1209, Bangladesh","23.7387913","90.379543"
"""nobinagar""","Dhaka District, Nobinagar - 1334, Bangladesh","23.9123657","90.2605169"
"""mirpur 14""","Mirpur, Dhaka - 1103, Bangladesh","23.7988425","90.3847119"
"""twenty 20 snacks""","Bangladesh","24.0","90.0"
"""mirpur  road sher e bangla nagar""","Mirpur Road, Sobhanbag, Dhaka - 1207, Bangladesh","23.7612082","90.3724914"
"""dhaka 1205""","Dhaka, Dhaka District, Bangladesh","23.7643863","90.3890144"
"""sector 6""","Sector 6, Dhaka Metropolitan, Dhaka District, Bangladesh","23.8728058","90.4032722"
"""katabagan""","Bangladesh","24.0","90.0"
"""arambag r/a pallabi""","Pallabi, Bangladesh","23.825","90.37"
"""mirpur 7""","Mirpur 7, Dhaka Metropolitan, Dhaka District, Bangladesh","23.819218","90.3631469"
"""bashunmdhara r /a""","Bangladesh","24.0","90.0"
"""shiddhirganj""","Shiddhirganj, Narayanganj - 1430, Bangladesh","23.6886846","90.5101132"
"""mirpur 11.5""","Bangladesh Shishu Academy (Mirpur Branch)(বাংলাদেশ শিশু একাডেমী (মিরপুর শাখা)), ৫ 4, Mirpur 11, Dhaka - 1216, Bangladesh","23.8167491","90.3667949"
"""basdhundhara r /a""","Bangladesh","24.0","90.0"
"""vagolpur hazaribag""","Hāzāribāg, Bangladesh","23.66603","90.44659"
"""tejgaon ind .area""","Tejgaon Industrial Area, Dhaka - 1208, Bangladesh","23.7648783","90.405798"
"""purbo arichpur""","Gazipur District, Tongi - 1711, Bangladesh","23.8885075","90.4054148"
"""nitol niloy tower nikunjo 2""","Bangladesh","24.0","90.0"
"""162 post office road modhubajar dhanmondi 19""","Dhanmondi, Bangladesh","23.74","90.385"
"""rupnagar""","Lalbag, Dhaka - 1211, Bangladesh","23.7153887","90.3777396"
"""bangla duar""","Bangladesh","24.0","90.0"
"""100 ft""","Bangladesh","24.0","90.0"
"""uttara dhaka""","Uttara, Dhaka - 1231, Bangladesh","23.8693275","90.3926893"
"""sher  e bangla nagar""","Sher-E-Bangla Nagar, Dhaka - 1207, Bangladesh","23.7741959","90.3754853"
"""middle bashabo""","Bashabo, Dhaka - 1214, Bangladesh","23.7415414","90.4319335"
"""bashundhara 4/a""","Shoilo, Bashundhara City, Level 4, Block A, Shop 55, 56 Pantha Path, Panthopath, Dhaka - 1215, Bangladesh","23.7509903","90.3903274"
"""abdullagpur bus stop""","Bangladesh","24.0","90.0"
"""west badda""","Bangladesh Television, Banasree-Hatirjheel U Loop, Rampura, Dhaka - 1219, Bangladesh","23.765714","90.4230068"
"""panch char""","Madaripur District, Panch Char - 7930, Bangladesh","23.378738","90.1666831"
"""suvastu kunjan""","Bangladesh","24.0","90.0"
"""east maniknagar""","Maniknagar, Dhaka - 1203, Bangladesh","23.7236951","90.4367834"
"""mad chicken""","Bangladesh","24.0","90.0"
"""south kafrul""","Kafrul, Dhaka - 1103, Bangladesh","23.7868826","90.3858237"
"""bashundharab r/a""","Bangladesh","24.0","90.0"
"""uttara azampur""","Civil Aviation Authority of Bangladesh (CAAB), Airport Road Dhaka Mymensigh Highway, Azampur, - 1229, Bangladesh","23.8534694","90.4052682"
"""hungry treat""","Bangladesh","24.0","90.0"
"""block k""","Bashundhara Residential Area, Dhaka - 1229, Bangladesh","23.823084","90.4460936"
"""tejgao i/a""","Bangladesh","24.0","90.0"
"""sanmar tower 2""","Sanmar Tower One, CDA Avenue, Nasirabad, Chattogram - 4209, Bangladesh","22.3630854","91.8216241"
"""purba goran""","Goran, Dhaka - 1214, Bangladesh","23.7481983","90.4365253"
"""dakkhinkhan""","Bangladesh","24.0","90.0"
"""talertek rd""","Bangladesh","24.0","90.0"
"""sector 5""","Narayanganj District, Kanchon - 1461, Bangladesh","23.8377768","90.5313504"
"""savar union""","Aruna Polli Rd, Savar Union, Dhaka District, Savar - 1345, Bangladesh","23.8709016","90.2816927"
"""shahid sarani dhaka cantonment""","Dhaka Cantonment, Bangladesh","23.82444","90.40556"
"""dhanmondi n""","Dhanmondi, Dhaka - 1209, Bangladesh","23.7479124","90.3745866"
"""mohammadi housing  society mohammadpur""","Mohammadpur, Bangladesh","23.7659","90.35851"
"""narinda rd""","Narinda Road, Narinda, Dhaka - 1203, Bangladesh","23.7157988","90.4194191"
"""ishandi sarak""","Bangladesh","24.0","90.0"
"""agamasi ln circle""","Bangladesh","24.0","90.0"
"""technical mor""","Technical Mor, Dhaka-Mymensingh Highway, Mymensingh District, Mymensingh - 2200, Bangladesh","24.7385484","90.4072566"
"""sector 13""","Narayanganj District, Purbachal - 0000, Bangladesh","23.8421928","90.4806889"
"""dhanmondi 1209""","Dhanmondi, Dhaka - 1209, Bangladesh","23.7479124","90.3745866"
"""probashi kallan and boideshik kormosonsthan montronalay""","Bangladesh","24.0","90.0"
"""east shewrapara""","RSA Complex, 1359/1, East Shewrapara, Mirpur-Dhaka. Road 2, Shewrapara, Dhaka - 1216, Bangladesh","23.7921526","90.3777312"
"""kallayanpur""","Kallayanpur Khal, Dhaka, Dhaka District, Bangladesh","23.7771485","90.3620119"
"""west""","Bangladesh Television, Banasree-Hatirjheel U Loop, Rampura, Dhaka - 1219, Bangladesh","23.765714","90.4230068"
"""ific bank limited""","IFIC Bank Limited, N706, Jashore District, Benapole - 7431, Bangladesh","23.0445652","88.8996746"
"""bashjunmdhara r/a""","Bangladesh","24.0","90.0"
"""khilkhet  bazar""","Bāzār, Rangpur Division, Bangladesh","25.74442","88.49186"
"""nuketan""","Bangladesh","24.0","90.0"
"""dhaka medical colllege""","Bangladesh","24.0","90.0"
"""bandar""","Narayanganj District, Bandar - 1410, Bangladesh","23.6169828","90.5127954"
"""catering service tehari ghar(sobhanbag)""","Bangladesh","24.0","90.0"
"""sangshad bhaban""","Chatro Sangshad Bhaban, Joypara - Nikra Road, Dhaka District, Dohar - 1330, Bangladesh","23.6181507","90.12167"
"""industrial area tejgaon""","Tejgaon Industrial Area, Dhaka - 1208, Bangladesh","23.7648783","90.405798"
"""sector 13 uttara""","Uttara, Dhaka - 1231, Bangladesh","23.8713405","90.3875569"
"""ahsania mission cancer and general hospital""","Bangladesh","24.0","90.0"
"""kamrangirchar""","Kamrangirchar Model High School, Nursery road, Kamrangichor, Dhaka - 1211, Bangladesh","23.7134685","90.3672662"
"""masdair""","Purbo Masdair Playground, Sher-E-Bangla Road, Narayanganj District, Narayanganj - 1400, Bangladesh","23.6241043","90.4898473"
"""bosila""","Bosila, Dhaka - 1312, Bangladesh","23.7473392","90.345289"
"""sector""","China Bangladesh Friendship Exhibition Center, Dhaka City Bypass, Narayanganj District, Purbachal - 0000, Bangladesh","23.8426962","90.5338706"
"""sector 12 . uttara""","Uttara, Dhaka - 1231, Bangladesh","23.8716563","90.3815934"
"""uttara 1230. dhaka .""","Uttara, Dhaka - 1231, Bangladesh","23.8693275","90.3926893"
"""road 1 sector 1 block f house 28 aftabnagar""","Bangladesh","24.0","90.0"
"""sector 18""","Sector 18, Purbachal, Rupganj Upazila, Bangladesh","23.8520797","90.4996974"
"""kingdom habil complex""","Bangladesh","24.0","90.0"
"""east rajabazar tejgaon""","Japanese Universities Alumni Association in Bangladesh, East Rajabazaar, Rajabazar, Dhaka - 1215, Bangladesh","23.758096","90.3869381"
"""block a""","Moyuri, Dumuria Upazila, Bangladesh","22.8085965","89.5276868"
"""shyambazar""","68 B K Das Road, Farashganj, Dhaka - 1100, Bangladesh","23.7027796","90.4152971"
"""golden rice""","Bangladesh","24.0","90.0"
"""middle paikpara""","Paikpara, Dhaka - 1916, Bangladesh","23.7892825","90.3607154"
"""kotowali""","Amira Beauty Parlour, Alkoron Road, Kotowali, Chattogram, Huseyn Shaheed Suhrawardy Road, Chattogram District, Chattogram - 4000, Bangladesh","22.3316698","91.8343845"
"""bishaw road""","Sundorban Courier Service Pvt. Ltd., Bishaw Road Mor, Port Connecting Road, Noyabazar, Chattogram, Port Connecting Road, HaliShohor, Chattogram - 4202, Bangladesh","22.3449938","91.7874096"
"""dhanmondi 15 bus stand""","Bangladesh","24.0","90.0"
"""dhanmondi 32""","32 Laboratory road, Kathalbagan, Dhaka - 1205, Bangladesh","23.7380208","90.3859514"
"""pashcim shewrapara""","Bangladesh","24.0","90.0"
"""sector 9""","Uttara, Dhaka Metropolitan, Dhaka District, Bangladesh","23.8774447","90.3981802"
"""tt para""","Bangladesh","24.0","90.0"
"""devconsultants limited ( devcon) .nikunja 2""","Bangladesh","24.0","90.0"
"""swamibag""","Dayaganj, Dhaka - 1203, Bangladesh","23.713396","90.4235859"
"""dhaka-1229""","1229, Bangladesh","23.8515","90.403"
"""dohs baridhara""","Joar Sahara, Dhaka, Dhaka District, Bangladesh","23.8131162","90.4131292"
"""metal lal pathar""","Bangladesh","24.0","90.0"
"""bon""","Bangladesh","24.0","90.0"
"""mirpur dohs house  710 road 10 avenue 3 flat 4 a""","Bangladesh","24.0","90.0"
"""habib convention center""","Habib Convention Center, N2, Mugrakul, Tarabo - 1460, Bangladesh","23.7407764","90.5256758"
"""banani dhaka""","Campus 2, AIUB (American International University Bangladesh), House 82/B Road 4, Gulshan, Dhaka - 1213, Bangladesh","23.7947055","90.4023902"
"""sector - 13""","Narayanganj District, Purbachal - 0000, Bangladesh","23.8421928","90.4806889"
"""muk""","Naogaon Muk Badhir School, Par Naogaon, Naogaon, Naogaon, Naogaon District, Naogaon - 6500, Bangladesh","24.8084343","88.947417"
"""sector 11""","Uttara, Dhaka - 1231, Bangladesh","23.8773859","90.3904662"
"""mirpur sare 11""","Mirpur Original 10, Begum Rokeya Sharani, Mirpur, Dhaka - 1216, Bangladesh","23.8102909","90.3675265"
"""nitol niloy tower nikunja 2""","Bangladesh","24.0","90.0"
"""dhaka 1219""","Dhaka, Dhaka District, Bangladesh","23.7643863","90.3890144"
"""manikadi""","Manikdi, Dhaka - 1206, Bangladesh","23.8270857","90.3923784"
"""dakhin keraniganj""","Kerāniganj, Rājshāhi Division, Bangladesh","24.75003","88.07271"
"""dhaka 1208""","Dhaka, Dhaka District, Bangladesh","23.7643863","90.3890144"
"""sadarghat gabtali rd""","Bangladesh","24.0","90.0"
"""taltola khilgaon""","Khilgaon, Dhaka - 1219, Bangladesh","23.7512986","90.4244569"
"""zafrabad mohammadpur""","Mohammadpur, Bangladesh","23.7659","90.35851"
"""mirpur 15""","Mirpur, Dhaka - 1206, Bangladesh","23.8055413","90.3832134"
"""1401""","Narayanganj District, - 1401, Bangladesh","23.6387988","90.476484"
"""star burger""","Bangladesh","24.0","90.0"
"""muntasir rahman fahim""","Bangladesh","24.0","90.0"
"""gulshan  2""","Gulshan, Dhaka - 1212, Bangladesh","23.7947191","90.4136986"
"""ma enter uttara 8 no . sector""","Bangladesh","24.0","90.0"
"""bangladesh bank colony""","Agrabad, Chattogram - 4233, Bangladesh","22.3246164","91.80366"
"""baruntek dhaka cantonment""","Dhaka Cantonment, Bangladesh","23.82444","90.40556"
"""natun bazar foot over bridge""","Bangladesh","24.0","90.0"
"""avenue 2""","Avenue-2, Shah Ali Bagh, Dhaka - 1216, Bangladesh","23.8025577","90.3553839"
"""dholaikhal""","Narinda, Dhaka - 1100, Bangladesh","23.7102727","90.4172518"
"""jahangir nagar university""","Jahangir Nagar University, Bus stop, Dhaka - Aricha Highway, Dhaka District, - 1342, Bangladesh","23.880009","90.2730757"
"""east monipur""","PLC Bangladesh, 1012/1 Jamtola Mosjid Road, Shewrapara, Dhaka - 1206, Bangladesh","23.7940614","90.3754148"
"""popular hospital dhanmondi 2""","popular hospital, Dhanmondi 2, Jigatola, Dhaka - 1209, Bangladesh","23.7392113","90.3824483"
"""kataban""","Kataban Road, Shahbag, Dhaka - 1205, Bangladesh","23.7357932","90.3889916"
"""house 6""","house, Jamalpur, Jamalpur Sadar Upazila, Bangladesh","24.9207982","89.9626115"
"""naibhog uttara""","Uttara, Bangladesh","23.8667","90.4"
"""burger shop dhanmondi""","Dhanmondi, Bangladesh","23.74","90.385"
"""luxmibazar""","Luxmibazar Street Market, Municipal Street, Lakshmibazar, Dhaka - 1100, Bangladesh","23.7083641","90.4150807"
"""road 5a dhanmondi near medinova hospital""","","",""
"""agargaon mirpur""","SOS Childrens Villages Bangladesh, Non-governmental organization, Mirpur Road, Kallyanpur, Dhaka - 1207, Bangladesh","23.7740692","90.3669193"
"""west dholaipar""","Dolairpar KinderGarden School, 64-B, West Dholaipar wazed ali street, Dholairpar, Dhaka - 1204, Bangladesh","23.6998006","90.4330674"
"""mukti housing dokkhin monipur""","Manipur, Bangladesh","23.47172","91.0612"
"""dhaka national medical college""","Dhaka National Medical College, Johnson Road, Nawabpur, Dhaka - 1100, Bangladesh","23.7112135","90.4126736"
"""saecvtion 6""","Bangladesh","24.0","90.0"
"""shyampur""","Shyampur, Dhaka - 1236, Bangladesh","23.6855403","90.4394712"
"""farashganj""","Farashganj, Dhaka - 1204, Bangladesh","23.7031127","90.4160782"
"""khaje dewan""","Bokshibazar, Dhaka - 1211, Bangladesh","23.7199584","90.3917252"
"""pllabi mirpur 12""","Mirpur, Bangladesh","23.805","90.366"
"""west dholairpar""","Dholairpar, Dhaka - 1232, Bangladesh","23.701102","90.4337691"
"""awamibag""","Bangladesh","24.0","90.0"
"""1430""","Narayanganj District, - 1430, Bangladesh","23.6941882","90.5078083"
"""fatullah""","Fatullah, Narayanganj - 1401, Bangladesh","23.6503507","90.4757879"
"""bibir bagicha""","Bibir Bagicha No Road, Jatrabari, Dhaka - 1232, Bangladesh","23.7117679","90.4358914"
"""1229""","Dhaka District, - 1229, Bangladesh","23.8230862","90.4240933"
"""baitul aman chairmanbari jame masjid""","Bangladesh","24.0","90.0"
"""kidney foundation hospital & research institute""","Bangladesh Kidney Foundation Hospital and Research Institute, Mirpur 10 Road, Borobagh, Dhaka - 1216, Bangladesh","23.8025848","90.3602833"
"""united house""","Bangladesh","24.0","90.0"
"""south doriapur""","Bangladesh","24.0","90.0"
"""paschim shewrapara""","Bangladesh","24.0","90.0"
"""north shahjahanpur""","Shahjahanpur, Dhaka - 1217, Bangladesh","23.7438047","90.4247848"
"""dokkhin moniour""","Bangladesh","24.0","90.0"
"""not in map""","Bangladesh","24.0","90.0"
"""the sky traders pri. ltd""","Bangladesh","24.0","90.0"
"""jahangirnagar university""","Jahangirnagar University, VC Lane, Bishmile, - 1342, Bangladesh","23.8821271","90.2669735"
"""matuail jatrabari""","Matuail Sub Post Office, Dhaka - Demra Highway, Kajla, Dhaka - 1362, Bangladesh","23.7126985","90.4525271"
"""monipur""","Chandpur District, Monipur - 3600, Bangladesh","23.1597459","90.6443257"
"""chashara""","uttor Chashara, Narayanganj District, Narayanganj - 1400, Bangladesh","23.6258395","90.5008939"
"""shingtola""","Sutrapur, Dhaka - 1204, Bangladesh","23.7067735","90.4167282"
"""sector 14""","Uttara, Dhaka - 1231, Bangladesh","23.8671966","90.3894678"
"""reckitt benckiser officical store jatrabari""","Jātrābāri, Bangladesh","24.98797","90.90801"
"""north kuril""","Bangladesh","24.0","90.0"
"""sadaghat launch terminal""","Bangladesh","24.0","90.0"
"""hazrat shahjalal""","Hazrat Shahjalal (R:) Jame Masjid, Dorgah Mohollah Road, Sylhet District, Sylhet - 3100, Bangladesh","24.9020721","91.8660181"
"""kafrul""","Kafrul, Dhaka - 1103, Bangladesh","23.7891719","90.3863131"
"""shanto's hq""","Bangladesh","24.0","90.0"
"""hatirjheel""","Bangladesh","24.0","90.0"
"""crescent rd kalabagan""","Bangladesh","24.0","90.0"
"""sector 3 uttara""","Uttara, Dhaka - 1276, Bangladesh","23.8641802","90.3961525"
"""fakieapool""","Bangladesh","24.0","90.0"
"""namapara""","Matikata, Dhaka - 1206, Bangladesh","23.822198","90.3883658"
"""mohammadpurn""","Bangladesh","24.0","90.0"
"""nurer""","Nurer Chala, Dhaka - 1212, Bangladesh","23.7957069","90.4331606"
"""south kafrul rd""","Kafrul, Dhaka - 1103, Bangladesh","23.7868826","90.3858237"
"""shankar""","Dhanmondi, Dhaka - 1207, Bangladesh","23.7483109","90.3660743"
"""hazrat shahjal international airport""","Bangladesh","24.0","90.0"
"""raza bazar""","Raza Bazaar Road, Rajabazar, Dhaka - 1215, Bangladesh","23.7534735","90.3864399"
"""bashundgara r/a""","Bangladesh","24.0","90.0"
"""shahjalal islami bank corporate head office""","Bangladesh","24.0","90.0"
"""tejgaon  industrial area""","Tejgaon Industrial Area, Dhaka - 1208, Bangladesh","23.7648783","90.405798"
"""chowdhury para block c""","Bangladesh","24.0","90.0"
"""sher e bangla tiger""","Bangladesh","24.0","90.0"
"""burger freak""","Bangladesh","24.0","90.0"
"""darus  salam""","Mirpur, Dhaka - 1916, Bangladesh","23.7780349","90.3549041"
"""shahjalal international airport domestic terminal""","Shahjalal International Airport Domestic Terminal, VVIP Terminal Entrance, Dhaka District, Dhaka - 1230, Bangladesh","23.8464912","90.4064532"
"""shankhari bazar rd""","Bangladesh","24.0","90.0"
"""dhaka jatio chiriakhana""","Bangladesh","24.0","90.0"
"""bsmmu""","Super Specialized Hospital, BSMMU, Kazi Nazrul Islam Avenue, Shahbag, Dhaka - 1234, Bangladesh","23.7405122","90.3952213"
"""airport dakshinkhan""","Bangladesh","24.0","90.0"
"""sonargon hotel""","Bangladesh","24.0","90.0"
"""madrasa rd 1340""","Madrasa Road, Puran Bazar, Chandpur - 3601, Bangladesh","23.2315157","90.64727"
"""monsurabad""","Adabar, Dhaka - 1916, Bangladesh","23.7750443","90.3513021"
"""the burgery""","Bangladesh","24.0","90.0"
"""kamalapur railway station""","Kamalapur Railway Station, Outer Circular Road, Kamalapur, Dhaka - 1203, Bangladesh","23.7305398","90.4268579"
"""ramchandpur mohammadpur""","Mohammadpur, Bangladesh","23.7659","90.35851"
"""sher e bangla agricultural university rd""","Bangladesh","24.0","90.0"
"""kurmitola sector 2""","Kurmitola, Dhaka - 1229, Bangladesh","23.8251851","90.4057949"
"""mohammmadpur""","Bangladesh","24.0","90.0"
"""moddho para""","Adachaki Moddho Para Road, Sirajganj District, Vanggabari - 6740, Bangladesh","24.3222155","89.6719713"
"""mitford""","Mitford Road, Chawkbazar, Dhaka - 1100, Bangladesh","23.7147375","90.3971328"
"""reghional passport office dhaka east""","Bangladesh","24.0","90.0"
"""gendaria""","Gendaria, Dhaka - 1204, Bangladesh","23.7011711","90.4262398"
"""malibaghj""","Bangladesh","24.0","90.0"
"""block f""","Banasree, Dhaka, Dhaka District, Bangladesh","23.7611583","90.4374109"
"""mohamadpur""","Bangladesh","24.0","90.0"
"""ashkona""","Dokkhin Khan, Dhaka - 1230, Bangladesh","23.8517183","90.4188884"
"""kawla""","Dokkhin Khan, Dhaka - 1230, Bangladesh","23.8463633","90.4200063"
"""japan bangladesh friendship hospital""","Japan Bangladesh Friendship Hospital, Road 3A, Jigatola, Dhaka - 1209, Bangladesh","23.7394953","90.3750642"
"""rd 1 mohammadpur""","M A Medicine Corner, 1 Ring Road, Adabar, Dhaka - 1207, Bangladesh","23.7736406","90.3608853"
"""tyejgaon""","Bangladesh","24.0","90.0"
"""mirpur -1""","Mirpur, Dhaka - 1216, Bangladesh","23.801924","90.3523456"
"""sonargaon hotel""","Pan Pacific Sonargaon Hotel Dhaka, Kazi Nazrul Islam Avenue, Kawran Bazar, Dhaka - 1215, Bangladesh","23.7495727","90.3948725"
"""upazila rd.1340""","Dohar Upazila Office, Upzila Road, Dhaka District, Dohar - 1330, Bangladesh","23.6168896","90.1223336"
"""jurain""","Jurain, Dhaka - 1204, Bangladesh","23.6953714","90.4338889"
"""motaleb tower""","Bangladesh","24.0","90.0"
"""telipara khilgaon""","Khilgaon, Bangladesh","23.75722","90.46443"
"""malibaghg""","Bangladesh","24.0","90.0"
"""agargaon panir tank""","Bangladesh","24.0","90.0"
"""united hospital""","United Hospital, plot 15 Road 71, Gulshan, Dhaka - 1212, Bangladesh","23.8048297","90.4156211"
"""ohakhali""","Bangladesh","24.0","90.0"
"""cheese please""","Bangladesh","24.0","90.0"
"""gulshna""","Bangladesh","24.0","90.0"
"""hazrat shah jalal international airport""","Hazrat Shah Jalal International Airport, New Airport Road, Dhaka District, Dhaka - 1230, Bangladesh","23.8478955","90.4052158"
"""chefs table courside""","Bangladesh","24.0","90.0"
"""evercare hospital dhaka""","Evercare Hospital Dhaka, STS Avenue, Solmaid, Dhaka - 1229, Bangladesh","23.810247","90.4312047"
"""east basabo""","Bashabo, Dhaka - 1214, Bangladesh","23.7386028","90.4372316"
"""north adabor""","স্বপ্ন টেলিকম এন্ড ইলেকট্রনিক্স, House No- 54/1, North Adabor Bazar Uttar Adabar Road, Adabar, Dhaka - 1916, Bangladesh","23.775024","90.3577652"
"""dohs mirpur""","Mirpur Cantonment, Dhaka - 1216, Bangladesh","23.8371883","90.3689834"
"""bashunddhara r/a""","Bangladesh","24.0","90.0"
"""ring tech ( bangladesh ) ltd .""","Bangladesh","24.0","90.0"
"""rd 29""","Road 29, Uttara, - 1276, Bangladesh","23.8720058","90.3983372"
"""dhaka chaka & gulshan chaka banani bus counter m kemal ataturk avenue""","Dhaka Chaka, Gulshan Ave, Gulshan, Dhaka - 1212, Bangladesh","23.793552","90.4149891"
"""block f basundhara residential area""","Bangladesh","24.0","90.0"
"""vatara rd""","Satarkul Vatara 1st Bridge, Bhatara, Dhaka - 1229, Bangladesh","23.7998305","90.4454849"
"""tajmahal road""","Tajmahal Road, Mohammadpur, Dhaka - 1207, Bangladesh","23.7633315","90.3622081"
"""nayatola""","Nayatola, Mogbazar, Dhaka - 1248, Bangladesh","23.755162","90.4066059"
"""bashundhara residential area .""","Bashundhara Residential Area, Dhaka - 1229, Bangladesh","23.8189265","90.4368229"
"""segun bagicha road""","Segun Bagicha Concord, 5 Segunbagicha Road, Segunbagicha, Dhaka - 1000, Bangladesh","23.7347782","90.4067844"
"""chowdhury para""","Chowdhury Para, Cox's Bazar District, Bangladesh","20.99767","92.2564494"
"""sher-e bangla - nagar""","Sher-E-Bangla Nagar, Dhaka - 1207, Bangladesh","23.7741959","90.3754853"
"""ring tech (bangladesh) ltd""","Bangladesh","24.0","90.0"
"""north south university (nsu)""","Bangladesh","24.0","90.0"
"""jahangir gate""","Jahangir Gate Bus stop, Old Airport Road, Nakhalpara, Dhaka - 1215, Bangladesh","23.7752606","90.3897653"
"""central road dhanmondi""","Central Road, Kathalbagan, Dhaka - 1205, Bangladesh","23.7416633","90.3876413"
"""old dhaka""","Old Dhaka-Tangail Road, Gazipur District, Kaliakair - 1750, Bangladesh","24.0692946","90.2174306"
"""pakulla""","Tangail District, Pakulla - 1945, Bangladesh","24.1414438","90.0201295"
"""shiddheswari road""","Stamford University Bangladesh, 51 Siddeshwari Road, Shiddheswari, Dhaka - 1217, Bangladesh","23.7444824","90.4083602"
"""gul;shan 1""","Gul, Chandwad Taluka, India","20.2226036","74.2477902"
"""kumitola""","Bangladesh","24.0","90.0"
"""7th floor""","London ward, Nakuru West, Kenya","-0.2864982","36.0514231"
"""north bashabo""","Bashabo, Dhaka - 1214, Bangladesh","23.7432489","90.4295"
"""hazrat shahjalal international airport kurmitola""","Hazrat Shahjalal International Airport, Terminal-3, Airport Road New Airport Road, Khilkhet, Dhaka - 1229, Bangladesh","23.8416155","90.4101005"
"""tongi paurashava""","Bangladesh","24.0","90.0"
"""demra""","Pabna District, Demra - 6650, Bangladesh","24.1392046","89.4733047"
"""turag""","Turag, Babupura, Shahbag, Dhaka - 1205, Bangladesh","23.7345451","90.3865593"
"""block k baridhara dohs""","Bangladesh","24.0","90.0"
"""airport railway station""","Bangladesh","24.0","90.0"
"""moghbazar rd""","TAJ Hotel Boro Moghbazar, Outer Circular Road, Mogbazar, Dhaka - 1217, Bangladesh","23.748598","90.404016"
"""house 317 road 21 mohakhali dohs""","Bangladesh","24.0","90.0"
"""mirpur 9""","Mirpur, Dhaka - 1216, Bangladesh","23.8320555","90.3744432"
"""bijoy rakeen city building a8 tower 2""","Bangladesh","24.0","90.0"
"""segunbagicha rd""","Bangladesh University of Engineering & Technology, Unmesh Datta Road, Bokshibazar, Dhaka - 1211, Bangladesh","23.7253034","90.3911721"
"""baitul aman chairman bari jame masjid""","Bangladesh","24.0","90.0"
"""amlapara""","Sirajganj District, Sirajganj - 6700, Bangladesh","24.4657855","89.7181285"
"""honda st. tejkunipara""","Honda Sreet, Tejgaon, Dhaka - 1215, Bangladesh","23.7620913","90.39055"
"""100 feet road""","Purbachal 300 Feet Road, Narayanganj District, Kanchon - 1461, Bangladesh","23.8342036","90.5322973"
"""jatiyo grihayon kortripokkho""","Bangladesh","24.0","90.0"
"""section""","Bangladesh Krishi Bank, Baraiyerhat-Joraganj Old Section Road, Chattogram District, Baraiyarhat - 3901, Bangladesh","22.8933377","91.5339391"
"""bivagio upo porichaloker karjaloy""","Bangladesh","24.0","90.0"
"""bashundhara ra""","Bangladesh","24.0","90.0"
"""dhanmondi 32 bus stop""","Dhanmondi 6A Bus stop, Satmasjid Road, Dhanmondi, Dhaka - 1209, Bangladesh","23.742265","90.3738997"
"""sadarghat launch terminal""","Bangladesh","24.0","90.0"
"""bnashundhara r/a""","Bangladesh","24.0","90.0"
"""bimanbandar railway""","Bangladesh","24.0","90.0"
"""uttara 11""","11, Uttara, Road 7/C - 1276, Bangladesh","23.8764435","90.4000554"
"""mirpur 12 bus stand""","Mirpur-12 Bus stand, Begum Rokeya Sharani, Mirpur, Dhaka - 1216, Bangladesh","23.8283207","90.3641049"
"""ishandi  sarak""","Bangladesh","24.0","90.0"
"""jatio nursing uccho shikkha & gobeshona protistha""","","",""
"""mohakhali dihs""","Bangladesh","24.0","90.0"
"""bashudnhjara rf/a""","Bangladesh","24.0","90.0"
"""premier school dhaka mirpur branch""","Bangladesh","24.0","90.0"
"""diyabari uttara""","Uttara, Bangladesh","23.8667","90.4"
"""shekhertek""","Adabar, Dhaka - 1207, Bangladesh","23.7704607","90.3514987"
"""kurmitola sector 3""","Kurmitola, Dhaka - 1229, Bangladesh","23.8251851","90.4057949"
"""north kafrul""","Kafrul, Dhaka - 1103, Bangladesh","23.7920858","90.3851156"
"""grey advertising banmgladesh ltd""","Bangladesh","24.0","90.0"
"""baitul aman chairman bari jame mashjid""","Bangladesh","24.0","90.0"
"""saector 15""","Bangladesh","24.0","90.0"
"""ascent group""","Ascent Group Corporate, Madani Ave, Dhaka, Embasy Road, Gulshan, Dhaka - 1212, Bangladesh","23.7970835","90.4244428"
"""14 dhanmondi r/a""","Bangladesh","24.0","90.0"
"""sector 15""","Gazipur District, - 0000, Bangladesh","23.8524767","90.4784787"
"""south basabo""","Bashabo, Dhaka - 1214, Bangladesh","23.7383875","90.4315063"
"""west nandipara""","Nandipara, Dhaka - 1214, Bangladesh","23.7485","90.4444971"
"""gulistan park""","Gulistan Park, Gulistan, Dhaka, Dhaka District, Bangladesh","23.7238986","90.4132822"
"""skyview lounge""","Bangladesh","24.0","90.0"
"""ghulshan 2""","Bangladesh","24.0","90.0"
"""comilla para""","Comilla Para Road, Gulshan, Dhaka - 1212, Bangladesh","23.7813898","90.4238333"
"""foot over bridge""","Foot Over Bridge, Mohammadpur, Dhaka - 1207, Bangladesh","23.7570663","90.3748753"
"""demra staff quarter bus stop""","Bangladesh","24.0","90.0"
"""dhaka railway station""","Dhaka Airport Railway Station, BRT Line 3, Dokkhin Khan, Dhaka - 1230, Bangladesh","23.8518203","90.4082315"
"""dpkkhin paikpara""","Pāikpāra, Chittagong, Bangladesh","22.28455","91.9809"
"""shangkar""","Bangladesh","24.0","90.0"
"""jafrabad""","Chandpur District, Jafrabad - 3601, Bangladesh","23.2112514","90.6465604"
"""bonomala rd""","Bonomala Road, Cherag Ali, Tongi - 1712, Bangladesh","23.9110886","90.4028225"
"""darus salam.kallyanpur""","Mirpur, Dhaka - 1916, Bangladesh","23.7780349","90.3549041"
"""lal fokir eer majar""","Bangladesh","24.0","90.0"
"""house no 578""","house, Jamalpur, Jamalpur Sadar Upazila, Bangladesh","24.9207982","89.9626115"
"""toyenbee circular road""","Bangladesh","24.0","90.0"
"""dhanbmondi r/a""","Bangladesh","24.0","90.0"
"""amtoli mohakhali""","Amtoli Staff Welfare Government Primary School, Shahid Tajuddin Ahmad Avenue, Gulshan, Dhaka - 1208, Bangladesh","23.7755778","90.3992018"
"""ayirport""","Bangladesh","24.0","90.0"
"""wst dhanmondi""","Dhanmondi, Bangladesh","23.74","90.385"
"""sector 4""","Dhaka District, - 1276, Bangladesh","23.8660802","90.4031924"
"""new airport rpad""","Bangladesh","24.0","90.0"
"""bijoy rakeen city building ab tower 2""","Bangladesh","24.0","90.0"
"""dakkhinpara mohakhali""","Bangladesh","24.0","90.0"
"""doctor goli malibagh""","Bangladesh","24.0","90.0"
"""dhaka university""","Dhaka University, Kazi Nazrul Islam Avenue, Shahbag, Dhaka - 1000, Bangladesh","23.7316827","90.3968231"
"""boro moghbazar""","TAJ Hotel Boro Moghbazar, Outer Circular Road, Mogbazar, Dhaka - 1217, Bangladesh","23.748598","90.404016"
"""treat cafe & restaurant""","treat cafe, Sena Nikhom 1 Road, Chatuchak District, 10900, Thailand","13.8327154","100.5882565"
"""purana""","Purana Paltan Line, Noya Paltan, Dhaka - 1217, Bangladesh","23.7384749","90.411512"
"""moneshwar road""","Moneshwar Road, Jigatola, Dhaka - 1209, Bangladesh","23.7395486","90.3704652"
"""fakirapool rd""","Fakirapool Road, Fakirapool, Dhaka - 1000, Bangladesh","23.7330071","90.4154405"
"""dilkusha rd.dilkusha""","Bangladesh Secretariat, Topkhana Road, Paltan, Dhaka - 1000, Bangladesh","23.7300126","90.4074836"
"""cantonmment""","Bangladesh","24.0","90.0"
"""sabujbagb""","Bangladesh","24.0","90.0"
"""3 food mirpur 1""","Mirpur Shopping Center Food Court, Mirpur 2 Road, Borobagh, Dhaka - 1216, Bangladesh","23.8046432","90.3633937"
"""maniik mia avenue""","Bangladesh","24.0","90.0"
"""dhanmondi r/a b""","Bangladesh","24.0","90.0"
"""lamal shoroni""","Bangladesh","24.0","90.0"
"""siddheswari road""","Siddheswari College, 25 Outer Circular Road, Shiddheswari, Dhaka - 1217, Bangladesh","23.7472609","90.4095883"
"""gulshan-1""","Gulshan, Dhaka - 1212, Bangladesh","23.780553","90.4169"
"""kallyanpur main rd""","Kallyanpur Main Road, Kallyanpur, Dhaka - 1916, Bangladesh","23.7798133","90.3609403"
"""sir sayed rd university of dhaka""","Dhaka Division, Bangladesh","24.16667","90.41667"
"""modhu city""","Dhaka District, Ghatarchar - 1312, Bangladesh","23.7339077","90.3258603"
"""palpara""","Palpara, Khulna - 9202, Bangladesh","22.881251","89.5154691"
"""cangkhar pool""","Bangladesh","24.0","90.0"
"""companion care clinic""","Bangladesh","24.0","90.0"
"""chefs table""","Bangladesh","24.0","90.0"
"""rupayan angel""","Bangladesh","24.0","90.0"
"""mirpur zoo road""","Bangladesh Insulator and Sanitaryware Factory Ltd. (BISF), Zoo Road, Nobaberbag, Dhaka - 1216, Bangladesh","23.8094318","90.3514563"
"""dakkhin mugdapara""","Islami Bank Bangladesh Limited, Bashabo Branch, Bashabo-Madartek Road, Bashabo, Dhaka - 1214, Bangladesh","23.7403862","90.4326774"
"""kamrangir char""","Kamrangir Char Beribadh, Lalbag, Dhaka - 1310, Bangladesh","23.7087981","90.3831264"
"""baridhara dohs )""","Joar Sahara, Dhaka, Dhaka District, Bangladesh","23.8131162","90.4131292"
"""east kafrul""","Bangladesh Space Research and Remote Sensing Organization (SPARRSO), Begum Rokeya Sharani, Kazipara, Dhaka - 1103, Bangladesh","23.7810493","90.3786973"
"""taltola""","Cumilla District, Taltola - 3623, Bangladesh","23.1421902","91.0338574"
"""north jurain""","Islami Bank Bangladesh Limited ATM, Dhaka-Mawa Expressway, Dholairpar, Dhaka - 1232, Bangladesh","23.7097246","90.434183"
"""bansaree""","Ruhama cottage, Bansaree Block-G Road 6, Banasree, Dhaka - 1219, Bangladesh","23.7597595","90.4393806"
"""uttara sector 10""","Dhaka-Ashulia Highway, Bhatulia, - 1711, Bangladesh","23.8842229","90.3950134"
"""regan""","Bangladesh","24.0","90.0"
"""kachukhet dhaka cantonment""","Dhaka Cantonment, Bangladesh","23.82444","90.40556"
"""sekhertek""","Shaikhertek, Dhaka Division, Bangladesh","24.16899","90.76264"
"""sadar ghat""","Sadar Ghat, Ahsanullah Road, Babu bazar, Dhaka - 1100, Bangladesh","23.7058771","90.4092566"
""". east rayer bazar""","Hatembag Road, East Rayer Bazar, Jigatola, Dhaka - 1209, Bangladesh","23.7429847","90.368355"
"""south bishil""","Bishil, Dhaka - 1916, Bangladesh","23.7950566","90.3516303"
"""mohammadi housing society""","Bangladesh","24.0","90.0"
"""west shewrapara mirpur""","722/1, West Shewrapara, Mirpur, Dhaka-1216., 722/1 Tomij Uddin Road, Shewrapara, Dhaka - 1216, Bangladesh","23.7919727","90.3740871"
"""chad uddan""","Bangladesh","24.0","90.0"
"""mosjid a kawser giridhara saddam market""","Bangladesh","24.0","90.0"
"""kawranbazar""","KawranBazar Road, Kawran Bazar, Dhaka - 1234, Bangladesh","23.7523076","90.3948217"
"""bashudnhara r/a""","Bangladesh","24.0","90.0"
"""residential area dhanmondi""","Dhanmondi, Dhaka - 1205, Bangladesh","23.7470706","90.3757465"
"""jatio grihayon kortripokkho""","Bangladesh","24.0","90.0"
"""sheker tek""","Bangladesh","24.0","90.0"
"""bashundhara residential area""","Bashundhara Residential Area, Dhaka - 1229, Bangladesh","23.8189265","90.4368229"
"""gachha""","Pukur gachha govt primary school, Z5202, Bogura District, Dupchachia - 5880, Bangladesh","24.9005251","89.1102553"
"""west dholaipur""","Bangladesh","24.0","90.0"
"""west isdair""","Isdāir, Bangladesh","23.63513","90.49846"
"""100 gulshan avenue""","100 Bir Uttam Mir Shawkat Sarak, Gulshan, Dhaka - 1212, Bangladesh","23.7874066","90.4169864"
"""north goran""","Goran, Dhaka - 1214, Bangladesh","23.7509383","90.43215"
"""basati housing""","Shah Ali Bagh, Dhaka - 1216, Bangladesh","23.8003725","90.3603177"
"""araco diagonstic & dental clinic""","","",""
"""ulon""","Bangladesh","24.0","90.0"
"""1421""","Narayanganj District, - 1421, Bangladesh","23.6674447","90.4722543"
"""mirpur -6""","Mirpur, Dhaka - 1216, Bangladesh","23.8108831","90.3643604"
"""uttara sector 11 no park""","Bangladesh","24.0","90.0"
"""market""","Market, Bridge, Barguna District, -, Bangladesh","21.9348574","90.0657356"
"""sabujbagh""","Sabujbagh Road, Moulvibazar District, Sreemangal - 3210, Bangladesh","24.3086883","91.7211092"
"""1346""","1346, Bangladesh","24.3137","89.6089"
"""sheikh hasina national institute of burn and plastic surgery""","Bangladesh","24.0","90.0"
"""hazrat shahjalal antorjatik""","Bangladesh","24.0","90.0"
"""shewrapara""","Shewrapara, Begum Rokeya Sharani, Dhaka - 1216, Bangladesh","23.7909631","90.3755087"
"""borobag""","Uttar Khan, Dhaka - 1276, Bangladesh","23.8805636","90.4260831"
"""secvtor 3""","Bangladesh","24.0","90.0"
"""west kawran bazar""","Bangladesh University of Textiles, Shahid Tajuddin Ahmad Avenue, Tejgaon Industrial Area, Dhaka - 1208, Bangladesh","23.7601664","90.401985"
"""meena click shantinagar""","Bangladesh","24.0","90.0"
"""west agargaon""","Agargaon, Dhaka - 1916, Bangladesh","23.7812337","90.3689456"
"""shekher tek""","Bangladesh","24.0","90.0"
"""house 30 road 17 sector 11 uttara""","Uttara, Bangladesh","23.8667","90.4"
"""west  dholaipur""","Bangladesh","24.0","90.0"
"""shilpo l""","Bangladesh","24.0","90.0"
"""unicafe restaurant & fun panthapath""","","",""
"""shahbag chattar""","Bangladesh","24.0","90.0"
"""narayanganj.1400""","Narayanganj, Narayanganj Sadar Upazila, Bangladesh","23.6236732","90.4988075"
"""bashabo""","Bashabo, Dhaka - 1214, Bangladesh","23.7405474","90.4333478"
"""west arichpur""","Bangladesh","24.0","90.0"
"""dhakhin khan hydrabad rd""","Bangladesh","24.0","90.0"
"""hatirjhil""","Hatirjhil Project Army Camp, Hatirjheel Link Road, Noyatola, Dhaka - 1029, Bangladesh","23.7628942","90.4117049"
"""uttar""","Uttar, Barisal Division, Bangladesh","22.3234","89.89999"
"""puirbachal""","Bangladesh","24.0","90.0"
"""dhanmondi 32 house no 21 house name syvandale sonnet flat no a2""","","",""
"""mirpur `""","Mirpur, Kushtia District, Bangladesh","23.9363038","88.997764"
"""pizza arabian night""","Bangladesh","24.0","90.0"
"""shantnagar""","Bangladesh","24.0","90.0"
"""alke circus road kalabagan""","Bangladesh","24.0","90.0"
"""kurmitola sector 4""","Kurmitola, Dhaka - 1229, Bangladesh","23.8251851","90.4057949"
"""dhakeshwari road""","Dhakeshwari National Temple, Orphanage Road, Bokshibazar, Dhaka - 1211, Bangladesh","23.7229587","90.3902478"
"""basundha r/a""","Bangladesh","24.0","90.0"
"""tejgaon indra""","Indra, Khulna Division, Bangladesh","23.23837","89.34725"
"""kllyanpur""","Bangladesh","24.0","90.0"
"""mpohammadpur""","Bangladesh","24.0","90.0"
"""block k baridhara""","Baridhara, Bangladesh","23.80254","90.42117"
"""meradia""","South Banasree, Dhaka - 1214, Bangladesh","23.754935","90.4362485"
"""lal fokir er majar""","Bangladesh","24.0","90.0"
"""block b bashundhara r/a""","Bangladesh","24.0","90.0"
"""dhanmondi en road""","Bangladesh","24.0","90.0"
"""sector 5 uttara""","Uttara, Dhaka - 1231, Bangladesh","23.8634958","90.3903093"
"""uttor kafrul purba kazipara""","Digital Mapping Center, Survey of Bangladesh, Mirpur 14 Rd, Ibrahimpur, Dhaka - 1206, Bangladesh","23.8040149","90.388397"
"""bangshal""","Bangshal, Bangladesh","23.71558","90.40628"
"""block d bashundhara r/a""","Bashundhara Residential Area, Dhaka, Dhaka District, Bangladesh","23.8163715","90.4332023"
"""adarsha nagar badda""","Ananda Nagar Adarsha Uccho Bidyaloy, Boithakhali Road, Badda, Dhaka - 1219, Bangladesh","23.7712948","90.4315889"
"""senpara parbata borobagh""","Senpara Parbata, Borobagh, Dhaka - 1216, Bangladesh","23.806478","90.3693146"
"""sayedabadf""","Bangladesh","24.0","90.0"
"""shahjalal international airport
domestic terminal""","Bangladesh","24.0","90.0"
"""universal medical college & hospital""","Universal Medical College Hospital, 74G/75 New Airport Road, Gulshan, Dhaka - 2467, Bangladesh","23.7766326","90.3953894"
"""khilghaon""","Bangladesh","24.0","90.0"
"""narayanganj 1400""","Narayanganj, Narayanganj Sadar Upazila, Bangladesh","23.6236732","90.4988075"
"""shahbagh ramna""","Shahbagh, Kazi Nazrul Islam Avenue, Shahbag, Dhaka - 1234, Bangladesh","23.7400837","90.3960061"
"""west jatrabari""","Jatrabari, Dhaka - 1232, Bangladesh","23.7068154","90.4312582"
"""madani ave""","Madani Avenue, Beraid, Dhaka - 1229, Bangladesh","23.8014942","90.4578719"
"""new  baily rd""","New Baily Road, Shiddheswari, Dhaka - 1217, Bangladesh","23.7418291","90.4096084"
"""public toilet-2 kamalapur""","Kamalapur, Bangladesh","23.73723","90.42533"
"""malitola""","Nawabpur, Dhaka - 1100, Bangladesh","23.7150022","90.4100405"
"""pilkhana""","Pilkhana, Dhaka - 1209, Bangladesh","23.7317491","90.3757956"
"""segunbagicha road""","Segunbagicha Road, Segunbagicha, Dhaka - 1000, Bangladesh","23.7335425","90.406452"
"""south shajahanpur""","Shajahanpur, Bangladesh","24.76667","89.4"
"""darus salam road""","Darus Salam Road, Tolarbag, Dhaka - 1916, Bangladesh","23.789707","90.353939"
"""shyamoli mohammadpur""","Bangladesh Blood Bank & Transfusion Centre, 22/12 Mirpur Road, Mohammadpur, Dhaka - 1207, Bangladesh","23.7727326","90.3671203"
"""praava health""","Bangladesh","24.0","90.0"
"""bihari camp bazar""","Mohammadpur, Dhaka, Dhaka District, Bangladesh","23.767264","90.3654955"
"""shajadpur""","Bangladesh","24.0","90.0"
"""jahangirnagar university bus station""","Bangladesh","24.0","90.0"
"""block h""","Bashundhara Residential Area, Dhaka - 1229, Bangladesh","23.8247315","90.4395496"
"""arichpur""","Gazipur District, Tongi - 1711, Bangladesh","23.8885075","90.4054148"
"""khilkhet bazar""","Bāzār, Rangpur Division, Bangladesh","25.74442","88.49186"
"""1500""","Munshiganj District, - 1500, Bangladesh","23.4765391","90.5272349"
"""baitus salat kuweti mosque""","Bangladesh","24.0","90.0"
"""madartek""","Madartek, Dhaka - 1214, Bangladesh","23.7431008","90.4399835"
"""karnafuli government quarter""","Bangladesh","24.0","90.0"
"""shaymoli""","Shaymoli bus counter, Dhaka - Chittagong Hwy, Chittagong, Dhaka-Chattogram Highway, Chattogram District, Mirsharai -, Bangladesh","22.7209791","91.6035479"
"""sher-e-bangla nagar""","Sher-E-Bangla Nagar, Dhaka - 1207, Bangladesh","23.7741959","90.3754853"
"""matuail jatra""","Bangladesh","24.0","90.0"
"""bank colony""","Bank Colony, Mugda, Dhaka - 1203, Bangladesh","23.7275778","90.4343815"
"""dabor""","Dabor Bus Stop, Sunamganj-Sylhet Highway, Sunamganj District, -, Bangladesh","24.9234732","91.4624691"
"""sant""","Bangladesh","24.0","90.0"
"""katasur""","Mohammadpur, Dhaka - 1207, Bangladesh","23.7552398","90.3580927"
"""south kallyanpur""","Islami Bank Bangladesh LTD, Shovon Sarani, Pirerbag, Dhaka - 1916, Bangladesh","23.7862353","90.367022"
"""basdhundhara r/a""","Bangladesh","24.0","90.0"
"""shiddeshwari road""","Shiddeshwari Girls High School, 30 New Baily Road, Shiddheswari, Dhaka - 1217, Bangladesh","23.7422469","90.411242"
"""farmgate tejgaon""","Prime Minister's Office, Office Of The Prime Minister Bangladesh Bijoy Sharani, Tejgaon, Dhaka - 1212, Bangladesh","23.7683525","90.3918572"
"""beribadh""","Bangladesh","24.0","90.0"
"""iut tree park""","Bangladesh","24.0","90.0"
"""allahr daan khabar hotel and restaurant""","Bangladesh","24.0","90.0"
"""adamzee cantonment public school khelar math""","Bangladesh","24.0","90.0"
"""rhymes residence""","Bangladesh","24.0","90.0"
"""bhataliya uttara""","Dhaka-Ashulia Highway, Bhatulia, - 1711, Bangladesh","23.8842229","90.3950134"
"""road 109 floor 6th""","Road 109, Gulshan, Dhaka - 1212, Bangladesh","23.791029","90.4172453"
"""executive machine limited""","Bangladesh","24.0","90.0"
"""hal roktokorobi mirpur 3""","Mirpur, Bangladesh","23.805","90.366"
"""dhanmondi rf/a""","Bangladesh","24.0","90.0"
"""1350""","Dhaka District, Dhamrai Subdistrict - 1350, Bangladesh","23.916809","90.2175148"
"""flat d4""","Bangladesh","24.0","90.0"
"""west monipur""","Monipur, Dhaka - 1216, Bangladesh","23.7987626","90.3621094"
"""shireen's kitchen""","Bangladesh","24.0","90.0"
"""sheikh hasina national institute of burn & plastic surgery""","Sheikh Hasina National Institute of Burn & Plastic Surgery, S. Kamruzzaman Sharani, Bongshal, Dhaka - 1000, Bangladesh","23.7240265","90.4010949"
"""bandartila circle""","Bangladesh","24.0","90.0"
"""b""","b, Adabaria, Barguna Sadar Subdistrict, Bangladesh","22.2233543","90.2001091"
"""kolabagan""","Kolabagan, Dhaka - 1205, Bangladesh","23.7488966","90.3821314"
"""kitchen zone""","Bangladesh","24.0","90.0"
"""katabon""","Shahbag, Dhaka - 1205, Bangladesh","23.7376465","90.3889382"
"""bishwa road""","Bishwa Road, N2, Brahmanbaria District, Brahmanbaria -, Bangladesh","24.0502624","91.1141694"
"""road 5 ) block b""","Road 5 Block B, Niketan, Dhaka - 1029, Bangladesh","23.7731734","90.4109344"
"""gaccha""","Bangladesh","24.0","90.0"
"""uttara model tower""","Bangladesh","24.0","90.0"
"""toyenbee circular""","Bangladesh","24.0","90.0"
"""area""","bangladesh, Station Road, Kadirgonj, Rajshahi - 6207, Bangladesh","24.3742327","88.6097252"
"""open kitchen 2""","Bangladesh","24.0","90.0"
"""house 8 road 2/d uttara""","Uttara, Bangladesh","23.8667","90.4"
"""aftab nagar""","Aftab Motors, North Brook Hall Road, Bangla Bazar, Dhaka - 1100, Bangladesh","23.7079003","90.4126069"
"""azimpur lalbagh""","Azimpur- Lalbagh Road, Azimpur, Dhaka - 1211, Bangladesh","23.7255268","90.3867312"
"""secvtor 04 purbachal""","Bangladesh","24.0","90.0"
"""chawk bazar""","Chattogram District, Chattogram - 4203, Bangladesh","22.3572202","91.8355749"
"""baridhara notun bazar""","Bangladesh Youth Leadership Center, plot 3 Naya Nagar Road, Baridhara, Dhaka - 1212, Bangladesh","23.7993596","90.4247157"
"""ka""","Bangladesh, Lane 1, Mirpur, Dhaka - 1216","23.8202931","90.3710408"
"""shahid baki rd""","Shahid Baki Road, Malibagh, Dhaka - 1219, Bangladesh","23.7522052","90.4173352"
"""darussalam police station""","Bangladesh","24.0","90.0"
"""west palashi""","Palashi, Rangpur Division, Bangladesh","25.42339","88.85715"
"""neweskaton""","Bangladesh","24.0","90.0"
"""north mugda""","Mugda, Dhaka - 1203, Bangladesh","23.7323941","90.4325175"
"""1345""","Dhaka District, - 1345, Bangladesh","23.8844085","90.2923699"
"""dhanmondi dhaka""","Bangladesh Rifles (BDR) Headquarter, Dhanmondi 2, Jigatola, Dhaka - 1209, Bangladesh","23.7363932","90.3761045"
"""chawkbazaer""","Bangladesh","24.0","90.0"
"""aga nawab deory""","Aga Nawab Deory, Armanitola, Dhaka - 1100, Bangladesh","23.7149515","90.3989146"
"""purba badda""","Bangladesh Television, Banasree-Hatirjheel U Loop, Rampura, Dhaka - 1219, Bangladesh","23.765714","90.4230068"
"""west tejturipara""","Bangladesh","24.0","90.0"
"""cmh dhaka dhaka cantonment""","Combined Military Hospital (CMH), Kurmitola Road, Dhaka Cantonment, Dhaka - 1206, Bangladesh","23.8143341","90.3980869"
"""1""","building 2, 1 Dhaka - Pabna Highway, Pabna District, Bonogram - 6670, Bangladesh","24.0068393","89.3556617"
"""dhaka club limited""","Shahbag, Dhaka, Dhaka District, Bangladesh","23.7386122","90.3975012"
"""a""","a, Adabaria, Barguna Sadar Subdistrict, Bangladesh","22.2240032","90.2030141"
"""nurfatah lalbagh""","Lalbagh, Bangladesh","23.71739","90.38787"
"""north badda bus stop""","Bangladesh","24.0","90.0"
"""basan""","Vitipara Jame Masjid, Basan, Mosque, Dhaka - Tangail Highway, Bhogra, Kodda - 1700, Bangladesh","23.98889","90.3654013"
"""sher r bangla rd""","Bangladesh","24.0","90.0"
"""malibagh rail gate""","Malibagh Rail Gate, Atish Depankar Road, Khilgaon, Dhaka - 1217, Bangladesh","23.7497186","90.4132471"
"""bangladesh bank officers quarter""","Bangladesh","24.0","90.0"
"""gulshan 1 road no 127 house no 7e""","Bangladesh","24.0","90.0"
"""nbew market""","Bangladesh","24.0","90.0"
"""dhka railway station""","Bangladesh","24.0","90.0"
"""rayerbag bus stand""","Bangladesh","24.0","90.0"
"""north badda foot over bridge""","Bangladesh","24.0","90.0"
"""dokkhin shahjahanpur""","Shahjāhanpur, Barisal Division, Bangladesh","21.9128","90.73626"
"""ashulia""","Ashulia, Savar - 1341, Bangladesh","23.8969898","90.3289577"
"""board bazar""","Board Bazar, Gazipur - 1712, Bangladesh","23.9452074","90.3825171"
"""tower 2""","Xishxehman palace Fatikchhari, Fatikchhari, Fatikchhari Upazila, Bangladesh","22.6839448","91.789139"
"""allahr dan khabar hotel and restaurant""","Bangladesh","24.0","90.0"
"""baridhara r/a""","Bangladesh","24.0","90.0"
"""road 8 house 153""","Bangladesh","24.0","90.0"
"""chartered life insurance company ltd""","Bangladesh","24.0","90.0"
"""dutch bangla bank limited(dbbl)west dhanmondi""","Dutch-Bangla Bank Limited (DBBL) - Fast Track, Green Rd, Dhaka, Green Road, Panthopath, Dhaka - 1205, Bangladesh","23.7439387","90.3847477"
"""d s pharmacy dhaka medical college cangkhar pool""","Bangladesh","24.0","90.0"
"""shohortoli platform(narayangonj jawar railway)""","Bangladesh","24.0","90.0"
"""postogola shyamoli""","Shyamoli, Bangladesh","23.77438","90.36538"
"""sontek jatrabari""","Jātrābāri, Bangladesh","24.98797","90.90801"
"""pirerbag""","Pirerbag, Dhaka - 1916, Bangladesh","23.7901781","90.3666203"
"""paribag""","Paribag Mosque, Paribagh Road Number 2, Shahbag, Dhaka - 1205, Bangladesh","23.7418603","90.3930865"
"""road 33 gulshan 1 gulshan""","Road 33, Gulshan, Dhaka - 1212, Bangladesh","23.7867312","90.4153275"
"""shikkatuli""","Bongshal, Dhaka - 1100, Bangladesh","23.7187683","90.4051886"
"""dmch garden park dhaka medical college hospital bagan pa""","Bangladesh","24.0","90.0"
"""south madartek""","Madartek, Dhaka - 1214, Bangladesh","23.7415082","90.4404885"
"""rd 9  janata housing mohammadpur""","Mohammadpur, Bangladesh","23.7659","90.35851"
"""tampopo kabab house""","Bangladesh","24.0","90.0"
"""railway station""","Islami Bank Bangladesh Ltd. Kurigram Branch, Kurigram, কুড়িগ্রাম - নাগেশ্বরী - ভুরুঙ্গামারী সড়ক, Kurigram District, Kurigram -, Bangladesh","25.8132936","89.6448356"
"""mes""","Dhaka - Bogura Highway, Bogura District, Bogura - 5842, Bangladesh","24.7563805","89.3955922"
"""bangladesh shenabahinir sadar dipto""","Bangladesh","24.0","90.0"
"""nre airport rd""","Bangladesh","24.0","90.0"
"""kathalbagan green road""","Bangladesh Agricultural Development Corporation, Green Road, Panthopath, Dhaka - 1205, Bangladesh","23.7429661","90.3844183"
"""d-mart arambagh motijheel""","Bangladesh","24.0","90.0"
"""block i bashundhara r/a""","Bangladesh","24.0","90.0"
"""mesars math baria steel corporation mohammadi""","Bangladesh","24.0","90.0"
"""11 a road 92 gulsahn 2 gulshan""","Gulshan, Bangladesh","23.7917","90.4167"
"""darussalam""","Darussalam Tower, 59/DA Mirpur Road, Gabtali, Dhaka - 1216, Bangladesh","23.7784362","90.3560408"
"""babar rd""","Maa Babar Doya Iqbal Enterprise, Sea Beach Rd, Chattogram, Sea Beach Road, Chattogram District, Chattogram - 4222, Bangladesh","22.2493665","91.7914726"
"""sattar villa sector 15 uttara""","Uttara, Bangladesh","23.8667","90.4"
"""circuit house rd""","Rajshahi Simla Park city, Circuit House Rd, Rajshahi, Rajshahi District, Rajshahi - 6000, Bangladesh","24.3633831","88.5807565"
"""paradise bhaban lalbagh""","Lalbagh, Bangladesh","23.71739","90.38787"
"""naya paltan rd""","Naya Paltan Road, Noya Paltan, Dhaka - 1217, Bangladesh","23.7363713","90.4138303"
"""48 road 13c banani""","Road 13C, Gulshan, Dhaka - 1213, Bangladesh","23.7919096","90.4072741"
"""adabar mohammadpur""","Bangladesh Eye care and Faco Center, 18/7, Block # F Ring Road, Adabar, Dhaka - 1207, Bangladesh","23.7691218","90.3588456"
"""manik mia avenue""","Manik Mia Avenue, Sobhanbag, Dhaka - 1215, Bangladesh","23.7583626","90.3792793"
"""sultana razia road purbo  arichpur tongi""","Tungi, Dhaka Division, Bangladesh","23.89154","90.40232"
"""bangladesh army hq""","Bangladesh","24.0","90.0"
"""rupnagar residential area""","Bangladesh Krishi Bank, Community Center Road, Nawabganj, Dhaka - 1211, Bangladesh","23.7200356","90.3735978"
"""postogola railgate""","Bangladesh","24.0","90.0"
"""washpur""","Washpur, Keraniganj - 1312, Bangladesh","23.7387362","90.3418558"
"""industrial area""","Industrial area, Lalmonirhat, Lalmonirhat Sadar, Bangladesh","25.8768402","89.445251"
"""daya ganj""","Bangladesh","24.0","90.0"
"""roadf 13 sector 14 uttara""","Uttara, Bangladesh","23.8667","90.4"
"""pallabi ext. gate 2""","Bangladesh","24.0","90.0"
"""asad ave block e mohammadpur""","Mohammadpur, Bangladesh","23.7659","90.35851"
"""afroza begum road bashundhara r/a""","Bangladesh","24.0","90.0"
"""mirp[ur 12""","Bangladesh","24.0","90.0"
"""dhaka-1208""","Dhaka, Dhaka District, Bangladesh","23.7643863","90.3890144"
"""12 road 18 section 12""","Bangladesh Krishi Bank, Baraiyerhat-Joraganj Old Section Road, Chattogram District, Baraiyarhat - 3901, Bangladesh","22.8933377","91.5339391"
"""sayem sobhan anvir road bashundhara r/a""","Sayem Sobhan Anvir Road, Bashundhara Residential Area, Dhaka - 1229, Bangladesh","23.8141176","90.4303817"
"""mirpur12""","Mirpur, Kushtia District, Bangladesh","23.9363038","88.997764"
"""natun  bazar""","Munshiganj District, Tongibari Upazila - 1521, Bangladesh","23.5284862","90.4513684"
"""sector 03""","Xishxehman palace Fatikchhari, Fatikchhari, Fatikchhari Upazila, Bangladesh","22.6839448","91.789139"
"""dakkhin bishi""","Bangladesh","24.0","90.0"
"""house 21 road 4 sector 4 uttar a""","Bangladesh","24.0","90.0"
"""ema outsourcing & solutions limited ( fmaos ) niketan gulshan 1""","","",""
"""tejgaon link rd""","Tejgaon Gulshan Link Road, Niketan, Dhaka - 1029, Bangladesh","23.7714526","90.4119188"
"""central library ( sau) sher-e - bengla agriculture university""","Bangladesh","24.0","90.0"
"""s""","S, Barguna District, - 8710, Bangladesh","22.0741221","90.1529328"
"""shshbag""","Bangladesh","24.0","90.0"
"""block b banani""","Bangladesh","24.0","90.0"
"""bir uttam ak khandaker rd gulshan 1""","Gulshan, Bangladesh","23.7917","90.4167"
"""adabor mohammadpur dhaka""","Bangladesh Specialised Dental Clinic, 112 Road 3, Mohammadpur, Dhaka - 1207, Bangladesh","23.7629379","90.3567682"
"""health and hope specialized hospital panthapath""","Bangladesh","24.0","90.0"
"""lalbag rd""","Bangladesh University of Engineering & Technology, Unmesh Datta Road, Bokshibazar, Dhaka - 1211, Bangladesh","23.7253034","90.3911721"
"""south kuril""","Bangladesh","24.0","90.0"
"""banglamotor""","Vintage Bake & Cafe, Coffee shop, Kazi Nazrul Islam Avenue, Banglamotor, Dhaka, Kazi Nazrul Islam Avenue, Shahbag, Dhaka - 1234, Bangladesh","23.7456203","90.3946328"
"""dhaka university journalist association (duja) shahbag""","Shahbag, Bangladesh","23.738","90.4"
"""sahntinagar""","Bangladesh","24.0","90.0"
"""dhaka mo""","Bangladesh","24.0","90.0"
"""banasree b""","Banasree, Dhaka - 1219, Bangladesh","23.7617123","90.4312774"
"""nakhalpara""","Nakhalpara, Dhaka - 1208, Bangladesh","23.7688388","90.3960119"
"""naryanganj""","Bangladesh","24.0","90.0"
"""malibagh mor""","Malibagh mor, Malibagh, Dhaka - 1217, Bangladesh","23.7441919","90.4142455"
"""uttara dhaka 1230""","Uttara Adhunik Medical College, House 34, Road 4, Sector 9 Sonargaon Janapath, Uttara, - 1230, Bangladesh","23.8747993","90.396733"
"""shiyal""","Shiyal Bari Mor Bus Stop, Hazi Road, Borobagh, Dhaka - 1216, Bangladesh","23.8081946","90.3580172"
"""uttara sector 10 welfare association""","Bangladesh","24.0","90.0"
"""west banglamotor""","Bangladesh","24.0","90.0"
"""pink city model town""","Dumni, Dhaka, Dhaka District, Bangladesh","23.8307792","90.4628269"
"""baddar""","Bangladesh","24.0","90.0"
"""abaridhara dohs""","Bangladesh","24.0","90.0"
"""bashundara r/a""","Bangladesh","24.0","90.0"
"""narina wari""","Wari, Bangladesh","23.71667","90.41667"
"""dhaka mymensingh highway""","Dhaka-Mymensingh Highway, Mymensingh District, Bhaluka -, Bangladesh","24.3114309","90.3840605"
"""rani mahal boro vanga rd""","Bangladesh","24.0","90.0"
"""rajabazar""","Rajabazar, Dhaka - 1215, Bangladesh","23.7549507","90.3848351"
"""tahordia""","Bangladesh","24.0","90.0"
"""serulia demra""","Demra, Bangladesh","23.70992","90.45456"
"""bahsundhara r/a""","Bangladesh","24.0","90.0"
"""mirpurr 1""","Bangladesh","24.0","90.0"
"""shhbag""","Bangladesh","24.0","90.0"
"""(new16) dhanmondi r/a""","Bangladesh","24.0","90.0"
"""mirpur 14 main rd""","Bangladesh Krishi Bank, Main Road - 13, Mirpur, Dhaka - 1216, Bangladesh","23.8038031","90.3783746"
"""growmore concultants & associates mohakhali dohs""","","",""
"""arax bangladesh""","Bangladesh","24.0","90.0"
"""historical supreme court""","Bangladesh","24.0","90.0"
"""dhamondi r/a""","Bangladesh","24.0","90.0"
"""shanmondi""","Bangladesh","24.0","90.0"
"""purba goren""","Bangladesh","24.0","90.0"
"""mugda""","Mugda, Dhaka - 1203, Bangladesh","23.7291223","90.4335651"
"""west bhashantek""","Bangladesh","24.0","90.0"
"""united nation circle""","United Nation Circle, Gulshan, Dhaka - 1212, Bangladesh","23.7965927","90.4197566"
"""vorta bazar""","Vorta Bari Restaurant, Nazimuddin Road, Bokshibazar, Dhaka - 1000, Bangladesh","23.7243768","90.3959497"
"""hazarib""","Bangladesh","24.0","90.0"
"""mo""","Bangladesh","24.0","90.0"
"""shkhertek""","Bangladesh","24.0","90.0"
"""residential area""","Residential Area, Netrokona, Netrokona District, Bangladesh","24.8653043","90.728194"
"""solmaid vatara""","Bangladesh","24.0","90.0"
"""rd 2 adabor""","Al Tasnim Medical Centre, 2 Ring Road, Mohammadpur, Dhaka - 1207, Bangladesh","23.7670567","90.3583818"
"""bashundhara residential""","Bashundhara Residential Area, Dhaka - 1229, Bangladesh","23.8189265","90.4368229"
"""lalnatia""","Bangladesh","24.0","90.0"
"""arambagh shahjahanpur""","Arambagh Police Box, Station Road, Kamalapur, Dhaka - 1203, Bangladesh","23.7314877","90.4212102"
"""resiodential area""","Bangladesh","24.0","90.0"
"""titi para mor. maniknagar""","Māniknagar, Bangladesh","24.00342","90.94501"
"""amtola (60feet) mirpur 02""","Mirpur, Bangladesh","23.805","90.366"
"""transport gaffur castle""","Bangladesh","24.0","90.0"
"""kakrail ramna""","Stamford University Bangladesh, 51 Siddeshwari Road, Shiddheswari, Dhaka - 1217, Bangladesh","23.7444824","90.4083602"
"""navana silver dale 33/34 north basabo""","Bangladesh","24.0","90.0"
"""road 2/a dhanmondi""","Dhanmondi 9/A, Dhaka District, Dhaka - 1209, Bangladesh","23.7460225","90.3738966"
"""8/3 lake circus kalabagan""","Bangladesh","24.0","90.0"
"""tasty treat farmgate""","Tasty Treat, Green Road, Panthopath, Dhaka - 1215, Bangladesh","23.7559936","90.3896583"
"""flat 4a""","Bangladesh","24.0","90.0"
"""segun bagicha""","Segun Bagicha Concord, 5 Segunbagicha Road, Segunbagicha, Dhaka - 1000, Bangladesh","23.7347782","90.4067844"
"""shahbag circle""","Bangladesh","24.0","90.0"
"""dhaka elevated express -shewra rail gate""","Bangladesh","24.0","90.0"
"""kashimpur""","Kashimpur, Shaharasti Upazila, Bangladesh","23.189653","90.8907201"
"""kuril kazi baru bus stop""","Bangladesh","24.0","90.0"
"""house 157""","house, Jamalpur, Jamalpur Sadar Upazila, Bangladesh","24.9207982","89.9626115"
"""joar shahara kuril""","Joar Shahara Bazar Road, Joar Sahara, Dhaka - 1229, Bangladesh","23.8133087","90.4184094"
"""sector 12 purbachal""","Narayanganj District, Purbachal - 0000, Bangladesh","23.8443713","90.4855812"
"""rave center""","Bangladesh","24.0","90.0"
"""segunbagicha  road""","Segunbagicha Road, Segunbagicha, Dhaka - 1000, Bangladesh","23.7335425","90.406452"
"""utt""","Bangladesh","24.0","90.0"
"""kuril kazi bari bus stop""","Bangladesh","24.0","90.0"
"""west banglamotr""","Bangladesh","24.0","90.0"
"""sector 9 uttara""","Uttara, Dhaka Metropolitan, Dhaka District, Bangladesh","23.8774447","90.3981802"
"""gazipur""","Gazipur, Gazipur District, Bangladesh","23.9997558","90.4173629"
"""naraynganj""","Bangladesh","24.0","90.0"
"""manil mia avenue""","Bangladesh","24.0","90.0"
"""college gate""","AL-MAHADI COMPUTER, College Gate Sherpur - Mymensingh Highway, Sherpur District, Sherpur - 2100, Bangladesh","25.0195424","90.0133791"
"""hossain villa complex""","Bangladesh","24.0","90.0"
"""polashi""","Azimpur, Dhaka - 1211, Bangladesh","23.7270762","90.3893378"
"""afrabnagar""","Bangladesh","24.0","90.0"
"""block d boshundhara r/a""","Bangladesh","24.0","90.0"
"""bashudhara r/a""","Bangladesh","24.0","90.0"
"""road 10""","Road # 10, Badda, Dhaka - 1219, Bangladesh","23.7734017","90.4296505"
"""dhaka 1000""","Dhaka, Dhaka District, Bangladesh","23.7643863","90.3890144"
"""purba kzaipara""","Bangladesh","24.0","90.0"
"""mohakhali doha""","Bangladesh","24.0","90.0"
"""300 feet rd""","Purbachal 300 Feet Road, Narayanganj District, Kanchon - 1461, Bangladesh","23.8342036","90.5322973"
"""sabujbag khilgaon""","Islami Bank Bangladesh Limited, Bashabo Branch, Bashabo-Madartek Road, Bashabo, Dhaka - 1214, Bangladesh","23.7403862","90.4326774"
"""3rd colony""","Lalkuthi, Dhaka - 1916, Bangladesh","23.7897017","90.3473116"
"""square hospital extension building panthapath""","Bangladesh","24.0","90.0"
"""shahjahan road""","Shahjahan Road, Mohammadpur, Dhaka - 1207, Bangladesh","23.7646318","90.3653633"
"""27 section 2""","Bangladesh Krishi Bank, Baraiyerhat-Joraganj Old Section Road, Chattogram District, Baraiyarhat - 3901, Bangladesh","22.8933377","91.5339391"
"""ga""","gate, Khagrachari - Dighinala Road, Khagrachari Hill District, Khagrachhari - 4400, Bangladesh","23.1183951","91.9916815"
"""progati sarani""","Progati Filling Station Ltd, Pragati Sarani, Kuril, Dhaka - 1229, Bangladesh","23.818285","90.4208603"
"""shahbagh road""","BSMMU Outdoor 1 (Medicine), Hospital, BSMMU, Shahbagh Rd, Dhaka, Shahbag Road, Shahbag, Dhaka - 1205, Bangladesh","23.7387404","90.3938152"
"""shahjadpur vatara""","Bangladesh","24.0","90.0"
"""uttara club ( tennis court ) sector 1""","Bangladesh","24.0","90.0"
"""bonosree block a road 1 n/s""","Bangladesh","24.0","90.0"
"""re""","re, Bogura District, Bogura - 5800, Bangladesh","24.8438625","89.3691275"
"""lake circus kalabagan""","Bangladesh","24.0","90.0"
"""al hakim centre""","Bangladesh","24.0","90.0"
"""road12a dhanmondi r/a""","Bangladesh","24.0","90.0"
"""narayanganj 1401""","Narayanganj, Narayanganj Sadar Upazila, Bangladesh","23.6236732","90.4988075"
"""signboard""","Narayanganj District, Narayanganj - 1361, Bangladesh","23.693435","90.4807854"
"""pallabi resident""","Bangladesh","24.0","90.0"
"""arambag bus stop""","Bangladesh","24.0","90.0"
"""jigatola dhanmondi""","Bangladesh Rifles (BDR) Headquarter, Dhanmondi 2, Jigatola, Dhaka - 1209, Bangladesh","23.7363932","90.3761045"
"""tvs tejgaon showroom ( official ) kawran bazar""","Bāzār, Rangpur Division, Bangladesh","25.74442","88.49186"
"""rasulbag""","Rasulbag R/A, Chattogram, Chattogram District, Bangladesh","22.35305","91.8472742"
"""shantinagar kakrail""","Stamford University Bangladesh, 51 Siddeshwari Road, Shiddheswari, Dhaka - 1217, Bangladesh","23.7444824","90.4083602"
"""poschim  hafrul""","Bangladesh","24.0","90.0"
"""a niketon""","Road 1 Niketon Block A, Gulshan, Dhaka - 1213, Bangladesh","23.7766103","90.4125354"
"""eastern mollika shopping complex""","Bangladesh","24.0","90.0"
"""santinagar kakrail""","Kākrāil, Bangladesh","23.73333","90.4"
"""nata paltan""","Paltan, Dhaka Division, Bangladesh","23.73625","90.41426"
"""bishaw road kuril""","Bangladesh","24.0","90.0"
"""joar shahara bazar road""","Joar Shahara Bazar Road, Joar Sahara, Dhaka - 1229, Bangladesh","23.8133087","90.4184094"
"""dhanmondi r/a/shyamoli""","Shyamoli, Bangladesh","23.77438","90.36538"
"""goverment officers staff quarters  ( sarkari kormokorta / kormochari abash )""","Bangladesh","24.0","90.0"
"""mirpur dhaka""","Bangladesh, Lane 1, Mirpur, Dhaka - 1216","23.8202931","90.3710408"
"""banasree demra rd""","Banasree-Demra Road, Aftabnagar, Dhaka - 1214, Bangladesh","23.7574952","90.4477417"
"""lalbagh rd""","Lalbagh Road, Lalbag, Dhaka - 1211, Bangladesh","23.7204763","90.3849389"
"""dhaka university shahbag""","Dhaka University, Kazi Nazrul Islam Avenue, Shahbag, Dhaka - 1000, Bangladesh","23.7316827","90.3968231"
"""iph road mohakhali""","Bangladesh","24.0","90.0"
"""narayanaganj""","Bangladesh","24.0","90.0"
"""sector 21 purbachal""","China Bangladesh Friendship Exhibition Center, Dhaka City Bypass, Narayanganj District, Purbachal - 0000, Bangladesh","23.8426962","90.5338706"
"""sector 8""","Narayanganj District, Purbachal - 1461, Bangladesh","23.8448609","90.5204963"
"""1342""","Dhaka District, - 1342, Bangladesh","23.8834265","90.2678547"
"""rayer bazar mohammadpur""","Bangladesh Eye Hospital, Satmasjid Road, Mohammadpur, Dhaka - 1207, Bangladesh","23.7517112","90.3673685"
"""jamtola""","Jamtola Road, Nilphamari District, Nilphamari -, Bangladesh","25.9711253","88.802575"
"""mad burger""","Bangladesh","24.0","90.0"
"""300 feet entrance  bashundhara""","Bangladesh","24.0","90.0"
"""jagannathpur vatara""","Bangladesh","24.0","90.0"
"""road 17 banasree""","Rampura-Banasree Road, Banasree, Dhaka - 1219, Bangladesh","23.7630023","90.4343932"
"""tin mazar rd . hazaribagh""","Tin Mazar Road, Jigatola, Dhaka - 1209, Bangladesh","23.7378159","90.3693234"
"""charakghata hazaribagh""","Charakghata, Rayer Bazar, Dhaka - 1209, Bangladesh","23.7402934","90.3618148"
"""pirerbag mirpur""","GLOWSIGHT-BD, Unnamed Road, Dhaka, Bangladesh Mirpur-1 Footover Bridge, Shah Ali Bagh, Dhaka - 1216, Bangladesh","23.798125","90.3538218"
"""mirpur -12""","Mirpur 12, Dhaka Metropolitan, Dhaka District, Bangladesh","23.8251043","90.3706719"
"""the box of comfort food""","The Box of Comfort Food, Outer Circular Road, Motijheel, Dhaka - 1203, Bangladesh","23.7315443","90.420732"
"""2 no railgate bus stop""","2 No Railgate Bus Stop ২ নং রেল গেইট বাস স্ট্যান্ড, Bangabandhu Sarak, Narayanganj District, Narayanganj - 1400, Bangladesh","23.6158367","90.5017844"
"""shahi moshjid malibagh""","Bangladesh","24.0","90.0"
"""south banashree""","Bangladesh","24.0","90.0"
"""mohakhali wireless gate""","Road Number 01, Gulshan, Dhaka - 2467, Bangladesh","23.7810001","90.4068724"
"""shahbag road""","Shahbag Road, Shahbag, Dhaka - 1205, Bangladesh","23.7384034","90.3933922"
"""ringtech (bangladesh) ltd""","Bangladesh","24.0","90.0"
"""taltola paschim agargapn""","Bangladesh","24.0","90.0"
"""afroza begum sarak.""","Bangladesh","24.0","90.0"
"""notun bazar. vatara""","Bangladesh","24.0","90.0"
"""gulshan north avenue""","IDP Education Bangladesh, Bir Uttam Rafiqul Islam Avenue, Gulshan, Dhaka - 1212, Bangladesh","23.7872717","90.4255854"
"""middle badda foot over bridge""","Bangladesh","24.0","90.0"
"""vatuliya""","Bangladesh","24.0","90.0"
"""mirpur  rd""","Mirpur Road, Gabtali, Dhaka - 1916, Bangladesh","23.7822217","90.3505159"
"""tamanna pharmacy gulshan branch""","Bangladesh","24.0","90.0"
"""green rod""","Bangladesh","24.0","90.0"
"""balu river""","Balu River, Tarabo, Rupganj Upazila, Bangladesh","23.7965223","90.48154"
"""truck stand dayaganj""","Narinda, Dhaka, Dhaka District, Bangladesh","23.7100316","90.4188803"
"""campus""","Bangladesh","24.0","90.0"
"""mohakhali foot over bridge""","Mohakhali Foot Over Bridge, Gulshan, Dhaka - 2467, Bangladesh","23.7776291","90.3983114"
"""dhaka 1229.""","Dhaka, Dhaka District, Bangladesh","23.7643863","90.3890144"
"""kolerbazar joydebpur rd""","Bangladesh","24.0","90.0"
"""khot clothing banani dohs""","Bangladesh","24.0","90.0"
"""shahjalal international airport""","Hazrat Shahjalal International Airport, Airport Road Balughat Mastertek Road, Manikdi, Dhaka - 1229, Bangladesh","23.8431441","90.4053032"
"""mirpur2""","Mirpur, Kushtia District, Bangladesh","23.9363038","88.997764"
"""kurmitola hospital""","Kurmitola General Hospital, New Airport Road, Joar Sahara, Dhaka - 1229, Bangladesh","23.8192623","90.4097811"
"""rapnagar""","Bangladesh","24.0","90.0"
"""mukti housing shyamoi""","Bangladesh","24.0","90.0"
"""motuijheel""","Bangladesh","24.0","90.0"
"""sector 09""","China Bangladesh Friendship Exhibition Center, Dhaka City Bypass, Narayanganj District, Purbachal - 0000, Bangladesh","23.8426962","90.5338706"
"""rasel automobiles and engineering workshop""","Rasel Automobiles And Engineering Workshop, BRT Line 3, Gazipura, Tongi - 1712, Bangladesh","23.9702672","90.3802541"
"""kalabagam staff quarter""","Bangladesh","24.0","90.0"
"""nargis villa""","Nargis Villa, 37/3 Baghabari Lane, Gendaria, Dhaka - 1204, Bangladesh","23.7001838","90.4274216"
"""dhaka 1230""","Dhaka, Dhaka District, Bangladesh","23.7643863","90.3890144"
"""jalshiri abashon""","Bangladesh","24.0","90.0"
"""armanitola""","Armanitola, Dhaka - 1100, Bangladesh","23.7139744","90.4016165"
"""kurmitola sector 5""","Kurmitola, Dhaka - 1229, Bangladesh","23.8251851","90.4057949"
"""airport railway""","Bangladesh","24.0","90.0"
"""joar shahara bazar rd""","Joar Shahara Bazar Road, Joar Sahara, Dhaka - 1229, Bangladesh","23.8133087","90.4184094"
"""bishaw eoad""","Bangladesh","24.0","90.0"
"""uttarkhan""","Uttarkhan Mazar Road, Dokkhin Khan, - 1230, Bangladesh","23.8658657","90.4251262"
"""purbchal""","Bangladesh","24.0","90.0"
"""sector 12 -uttara""","Uttara, Dhaka - 1231, Bangladesh","23.8716563","90.3815934"
"""shiddeswari road""","Bangladesh","24.0","90.0"
"""middle genda""","Genda, Bangladesh","23.82837","90.26316"
"""domestic terminal ( dac) hazrat shahjalal international airport""","Bangladesh","24.0","90.0"
"""ray shaheb bazar""","Tanti bazar, Dhaka - 1100, Bangladesh","23.7130418","90.4103431"
"""posta""","Bangladesh","24.0","90.0"
"""alltime courier and parcel service dhaka""","Dhaka Division, Bangladesh","24.16667","90.41667"
"""paschim jatrabari""","Paschim Jatrabari Panchyayet Committee Bazar/ Khalpar Bazar, Mirhazaribag, Dhaka, Doyagonj New Road, Dayaganj, Dhaka - 1232, Bangladesh","23.7086731","90.42812"
"""shomir akhra""","Akhera, Rājshāhi Division, Bangladesh","24.9058","88.77014"
"""mohsina dom inno trenta dos residential area dhanmondi""","Dhanmondi, Bangladesh","23.74","90.385"
"""tongio paurashava""","Bangladesh","24.0","90.0"
"""sayedabad bus stand""","Sayedabad Bus Stand, Cumilla-Sylhet Highway, Brahmanbaria District, Binauti -, Bangladesh","23.7942981","91.1483288"
"""national institute of cardio / vascular deseases ( nicvd ) ( jatiyo hridrog institute )""","Bangladesh","24.0","90.0"
"""kadamtali""","Chandpur District, Kadamtali - 3620, Bangladesh","23.2480903","90.9863116"
"""keraniganj""","Dhaka District, Keraniganj - 1310, Bangladesh","23.7005013","90.3826441"
"""senpara parbata mirpur 10""","Senpara Parbata, Monipur, Dhaka - 1216, Bangladesh","23.8052612","90.3697293"
"""railway colony rd""","Agrabad Par Railway Colony Jame Mosjid, Sheikh Mujib Rd, Chattogram, শেখ মুজিব সড়ক, Agrabad, Chattogram - 4233, Bangladesh","22.3252506","91.81292"
"""shahjalal multi storied car parking new airport rd""","Bangladesh","24.0","90.0"
"""east nayanagar""","Nāynagar, Bangladesh","23.25763","90.96539"
"""block b""","Moyuri, Dumuria Upazila, Bangladesh","22.8137267","89.5248356"
"""road-2""","Road # 2, Kuril, Dhaka - 1229, Bangladesh","23.820698","90.4284966"
"""block m""","Dhaka District, Dhaka - 1229, Bangladesh","23.8219151","90.4556024"
"""bangaldersh""","Bangladesh","24.0","90.0"
"""block a bashundhara r/a""","Solmaid, Dhaka, Dhaka District, Bangladesh","23.8097649","90.4283747"
"""kuril bishwaroad""","Bangladesh","24.0","90.0"
"""crimson cup dhanmondi 27""","Dhanmondi, Bangladesh","23.74","90.385"
"""narayan""","Raj Narayan Dhar Road, Lalbag, Dhaka - 1211, Bangladesh","23.7161301","90.3837541"
"""6 road 4 nikunja 2""","Road 4, Khilkhet, Dhaka - 1229, Bangladesh","23.8296776","90.4176548"
"""fuller rd""","Fuller Road, Shahbag, Dhaka - 1211, Bangladesh","23.7308154","90.3918735"
"""mirpur rd lalmatia""","Mirpur Road, Lalmatia, Dhaka - 1207, Bangladesh","23.7689024","90.3690076"
"""bashudnahra r/a""","Bangladesh","24.0","90.0"
"""office address: uttara house building number 6 sector 8 road uttara dhaka""","Dhaka Division, Bangladesh","24.16667","90.41667"
"""joydebpur rd 1702""","Al-Madina Birani House, Bashbari Lane, Chowrasta - Joydebpur Rd, Dhaka, Nawab Yusuf Road, Tanti bazar, Dhaka - 1100, Bangladesh","23.7142135","90.4069501"
"""betan nagar abashik""","Bangladesh","24.0","90.0"
"""alibaba sweets mirpur cantonment""","Bangladesh","24.0","90.0"
"""aalok mother and child care center""","Bangladesh","24.0","90.0"
"""golden pizza""","Bangladesh","24.0","90.0"
"""jartrabari""","Bangladesh","24.0","90.0"
"""merud badda""","Bādua, Dhaka Division, Bangladesh","24.34671","90.00523"
"""sakshinkhan""","Bangladesh","24.0","90.0"
"""parboti nagar""","Nagar Chāchkia, Rājshāhi Division, Bangladesh","24.09326","89.34041"
"""gabtoli high way""","Bangladesh","24.0","90.0"
"""manik nagar""","Manik Nagar Market মানিক নগর বাজার, Faridpur-Bhanga Highway, Faridpur District, -, Bangladesh","23.5108898","89.8791179"
"""rd 6""","Rd 6, Matuail, Dhaka - 1361, Bangladesh","23.6979574","90.4774413"
"""paschim nandipa""","Bangladesh","24.0","90.0"
"""baitul aman chairman jame masjid""","Bangladesh","24.0","90.0"
"""tasty treat lalmatia""","Tasty Treat, Y/14/C Tajmahal Road, Mohammadpur, Dhaka - 1207, Bangladesh","23.7629809","90.3612815"
"""west  dhanmondi""","West Dhanmondi, Dhaka, Dhaka District, Bangladesh","23.745763","90.3696861"
"""kuril vatara""","Bangladesh","24.0","90.0"
"""tanjila telecom & varieties store""","Tanjila Telecom(তানজিলা টেলিকম), 442 Road No. 3, Mirpur 11, Dhaka - 1216, Bangladesh","23.8221153","90.370895"
"""kamlapur""","Kamalapur, Dhaka, Dhaka District, Bangladesh","23.7286123","90.4279481"
"""mohamamdpur""","Bangladesh","24.0","90.0"
"""bti providential industrial area tejgaon""","Tejgaon, Bangladesh","23.76296","90.38971"
"""south""","Bangladesh Air Force HQ Complex, Kafrul, Dhaka, Dhaka District, Bangladesh","23.781523","90.3881822"
"""mohakhali  dohs""","Mohakhali, Dhaka, Dhaka District, Bangladesh","23.7807594","90.3952941"
"""west kafrul purba kazipara""","Bangladesh Space Research and Remote Sensing Organization (SPARRSO), Begum Rokeya Sharani, Kazipara, Dhaka - 1103, Bangladesh","23.7810493","90.3786973"
"""chowk bazar""","Chowk Bazar, Aruail-Chatalpar Rd, Brahmanbaria District, -, Bangladesh","24.2089477","91.0878484"
"""konabari""","Gazipur District, Konabari - 1751, Bangladesh","24.0120416","90.3166405"
"""shahjalal""","Shahjalal (R) Hospital শাহজালাল (রাঃ) হাসপাতালের, Dhaka-Narayanganj Link Road, Bhuigar, Narayanganj - 1421, Bangladesh","23.6288834","90.4973026"
"""baitul aman  chairman bari jame  masjid""","Bangladesh","24.0","90.0"
"""mirpur .""","Mirpur, Kushtia District, Bangladesh","23.9363038","88.997764"
"""kochukhet""","Kafrul, Dhaka - 1103, Bangladesh","23.7938753","90.3897116"
"""paribagh m shahbagh""","Bangladesh","24.0","90.0"
"""hazi camp""","Hazi Camp Road, Dokkhin Khan, - 1230, Bangladesh","23.8513508","90.4197127"
"""fakirapool  siddikbazar""","Bangladesh","24.0","90.0"
"""laz pharma uttara 1 branch""","Bangladesh","24.0","90.0"
"""lalmatia 1207""","Lalmatia, Dhaka - 1207, Bangladesh","23.7567008","90.3691554"
"""department of disaster management""","Bangladesh","24.0","90.0"
"""svaar""","Bangladesh","24.0","90.0"
"""banani branch""","South Point School and College, English medium, Banani Branch, Road No 2, Gulshan, Dhaka - 1212, Bangladesh","23.781893","90.3994316"
"""bash bari road mohammadpur""","Bash Bari road, Mohammadpur, Dhaka - 1207, Bangladesh","23.7594633","90.3596257"
"""dakkhin banasree""","Islami Bank Bangladesh Limited, Bashabo Branch, Bashabo-Madartek Road, Bashabo, Dhaka - 1214, Bangladesh","23.7403862","90.4326774"
""". rainkhola mirpour 1""","Bangladesh","24.0","90.0"
"""college rd""","college Rd, Chattogram District, Rangunia -, Bangladesh","22.4591476","92.0698573"
"""road no 41 gulshan 2""","2 Road 27, Gulshan, Dhaka - 1213, Bangladesh","23.7956142","90.4081864"
"""west  panthapath""","Rajabazar, Dhaka - 1215, Bangladesh","23.7525464","90.3833456"
"""manco tower""","Bangladesh","24.0","90.0"
"""tolarbagh mirpur 1""","Mirpur, Bangladesh","23.805","90.366"
"""dokkhin  pirerbagh""","Bangladesh","24.0","90.0"
"""tolarbag mirpur 1""","Bangladesh Kidney Foundation Hospital and Research Institute, Mirpur 10 Road, Borobagh, Dhaka - 1216, Bangladesh","23.8025848","90.3602833"
"""dine & gossip""","United Kingdom","54.7023545","-3.2765753"
"""lalmatia mohammadpur""","Bangladesh University, 15/1 Iqbal Road, Mohammadpur, Dhaka - 1207, Bangladesh","23.7616428","90.3674589"
"""uttara sector 12 branch""","Bangladesh","24.0","90.0"
"""mokka market lalmohan shah st luxmibazar""","Bangladesh","24.0","90.0"
"""mirpur n""","Mirpur, Kushtia District, Bangladesh","23.9363038","88.997764"
"""senpara parbata""","Senpara Parbata, Kazipara, Dhaka - 1216, Bangladesh","23.8041025","90.3752684"
"""dhaka mymensing highway""","Bangladesh","24.0","90.0"
"""rab forces headquarter uttara""","Uttara, Bangladesh","23.8667","90.4"
"""kalshi""","Mirpur, Dhaka - 1206, Bangladesh","23.8214626","90.3772486"
"""dhaka mymensingh highway kurmitola""","Bangladesh","24.0","90.0"
"""madani avenue 100 feet road""","Madani Avenue, Beraid, Dhaka - 0000, Bangladesh","23.8028854","90.4708529"
"""soutyh banasree project""","Bangladesh","24.0","90.0"
"""basindhara r/a""","Bangladesh","24.0","90.0"
"""buet""","Dept. of Architecture Building, BUET Zahir Raihan Sharani Road, Azimpur, Dhaka - 1000, Bangladesh","23.7275171","90.3910421"
"""hazrat shahjalal international airportb""","Bangladesh","24.0","90.0"
"""saegunbagicha""","Bangladesh","24.0","90.0"
"""kamlaapur""","Bangladesh","24.0","90.0"
"""agargaon mirpur-1""","SOS Childrens Villages Bangladesh, Non-governmental organization, Mirpur Road, Kallyanpur, Dhaka - 1207, Bangladesh","23.7740692","90.3669193"
"""gopibag jatrabari""","Bangladesh Water Development Board Primary School, South Jatrabari, Dhaka, Dhaka-Mawa Expressway, Dholairpar, Dhaka - 1232, Bangladesh","23.7073436","90.4356945"
"""national institute of cardiovascular dieases(nicvd)""","Bangladesh","24.0","90.0"
"""kamal atatruk ave""","Bangladesh","24.0","90.0"
"""fakira pool""","Bangladesh","24.0","90.0"
"""gulshan -2""","Gulshan, Dhaka - 1212, Bangladesh","23.7947191","90.4136986"
"""high court area shahbagh""","Bangladesh","24.0","90.0"
"""agargaon n mirpur""","SOS Childrens Villages Bangladesh, Non-governmental organization, Mirpur Road, Kallyanpur, Dhaka - 1207, Bangladesh","23.7740692","90.3669193"
"""block g banani""","Bangladesh","24.0","90.0"
"""borobagh mirpur 2""","Bangladesh University of Business and Technology, 9 Rupnagar Road, Borobagh, Dhaka - 1216, Bangladesh","23.8119187","90.3571516"
"""rina sultana kibria""","Bangladesh","24.0","90.0"
"""41 house 47 gulshan 2 amari hotel dhaka 1212""","Dhaka Division, Bangladesh","24.16667","90.41667"
"""kaliakoir aminbazar link road""","Kaliakoir aminbazar link road, Dhaka District, Akran - 1340, Bangladesh","23.8465848","90.2994197"
"""shikder medical college""","Bangladesh","24.0","90.0"
"""road 8 ( east ) dohs baridhara""","Baridhara, Bangladesh","23.80254","90.42117"
"""shyamoli rd agargaon""","SOS Childrens Villages Bangladesh, Non-governmental organization, Mirpur Road, Kallyanpur, Dhaka - 1207, Bangladesh","23.7740692","90.3669193"
"""300 feet""","Purbachal 300 Feet Road, Narayanganj District, Kanchon - 1461, Bangladesh","23.8342036","90.5322973"
"""mirpur 12 block c rood 9 house 3""","Bangladesh","24.0","90.0"
"""malibagh shahi masjid malibagh""","Bangladesh","24.0","90.0"
"""beside haji biriyani  bashundhara  main agte""","Bangladesh","24.0","90.0"
"""komlapur railway station""","Bangladesh","24.0","90.0"
"""north  shyamoli""","Kallyanpur, Dhaka - 1916, Bangladesh","23.7784144","90.3654452"
"""block g  bashundhara r/a""","Bangladesh","24.0","90.0"
"""gandarias""","Bangladesh","24.0","90.0"
"""navana silber dale 33/34 north basabo""","Bangladesh","24.0","90.0"
"""caab colony""","Dokkhin Khan, Dhaka - 1230, Bangladesh","23.8453284","90.4167101"
"""manikganj govt high schools field""","Bangladesh","24.0","90.0"
"""boro beraid""","Bangladesh","24.0","90.0"
"""dakhin paikpara""","Pāikpāra, Chittagong, Bangladesh","22.28455","91.9809"
"""sector 13 road 03 house 07""","Bangladesh","24.0","90.0"
"""shahid sharani dhaka cantonment""","Dhaka Cantonment, Bangladesh","23.82444","90.40556"
"""shah alibag""","Arunima Apartment, 36/7/B, Shah Alibag Shah Ali Bagh Road, Shah Ali Bagh, Dhaka - 1216, Bangladesh","23.7961434","90.3598104"
"""house 75 road 11 sector 13 uttara dhaka bangladesh asia earth""","Āsia, Chittagong, Bangladesh","22.26652","91.94482"
"""padma nilima 329/1 senpara parbata""","Senpāra Parbata, Bangladesh","23.80503","90.36883"
"""uttara club""","Uttara Club, Road 9 Sector 1, Dhaka District, - 1230, Bangladesh","23.8579431","90.4001332"
"""dakkhin badda gulshan""","Gulshan, Dhaka - 1212, Bangladesh","23.7751646","90.4225629"
"""caab colony dakshinkhan""","Bangladesh","24.0","90.0"
"""dr. rumi's dental""","Bangladesh","24.0","90.0"
"""mirour 2""","Bangladesh","24.0","90.0"
"""saection 2""","Bangladesh","24.0","90.0"
"""mohammafdpur""","Bangladesh","24.0","90.0"
"""tenari mor""","Bangladesh","24.0","90.0"
"""apschim monipur""","Manipur, Bangladesh","23.47172","91.0612"
"""kallyan""","Sena Kallyan Club, ক্যান্টনমেন্ট - বরুড়া সড়ক, Comilla Cantonment, অলিপুর - 3501, Bangladesh","23.4594953","91.1140448"
"""dhaka airport railway station dhaka mymensingh highway""","Bangladesh","24.0","90.0"
"""house 10 road 138 gulshan 1""","House 11, Road 62, Gulshan 2, Dhaka, Bangladesh, House 11 Road 62, Gulshan, Dhaka - 1212, Bangladesh","23.8006904","90.4110444"
"""banani model town""","Banani Model Town, Bangladesh","23.79142","90.40491"
"""one furnioture fakirapool rd""","Bangladesh","24.0","90.0"
"""ba""","Bangladesh Water Developement Board, Barisal, Barisal Sadar Subdistrict, Bangladesh","22.6841244","90.365808"
"""chamelibag rajarbag""","Stamford University Bangladesh, 51 Siddeshwari Road, Shiddheswari, Dhaka - 1217, Bangladesh","23.7444824","90.4083602"
"""narinda wari""","Teletalk Bangladesh Limited, Phoenix Road, Gulistan, Dhaka - 1000, Bangladesh","23.7246577","90.4102205"
"""munshiganj 1500""","Munshiganj, Munshiganj Sadar Upazila, Bangladesh","23.5483797","90.5349722"
"""gelatissimo""","gelatissimo, Road 12, Gulshan, Dhaka - 1213, Bangladesh","23.7905678","90.4081545"
"""cp five ( himu foods)""","Bangladesh","24.0","90.0"
"""armpura""","Bangladesh","24.0","90.0"
"""nee baily rd""","Bangladesh","24.0","90.0"
"""shantibagh malibagh""","SB Bangladesh, Malibagh, Dhaka, Dhaka District, Bangladesh","23.7434059","90.4139739"
"""rajarbagh malobagh""","Bangladesh","24.0","90.0"
"""residential ( slum) moghbazar""","Moghbazar, Bangladesh","23.65","90.58"
"""bahsudnhara r/a""","Bangladesh","24.0","90.0"
"""green life hospital""","Green Life Hospital, Kristopur Road, Mymensingh District, Mymensingh - 2200, Bangladesh","24.7465222","90.4100964"
"""block b aftabnagar""","Bangladesh","24.0","90.0"
"""mohammadfp[ur""","Bangladesh","24.0","90.0"
"""jamayet hazrat abubakkar siddiq ( ra) dakhil madrasa""","Bangladesh","24.0","90.0"
"""mofizbagh housing adabar""","Ramchandrapur, Dhaka - 1207, Bangladesh","23.7683262","90.3506805"
"""modho paikpara""","Pāikpāra, Chittagong, Bangladesh","22.28455","91.9809"
"""paikpara officers quarter""","Bangladesh","24.0","90.0"
"""jameya hazrat abu bakar siddik (ra) dakhil madrasa""","Bangladesh","24.0","90.0"
"""road 15.banani""","15 Road 42, Gulshan, Dhaka - 1213, Bangladesh","23.7910519","90.4119781"
"""airport eailway station""","Bangladesh","24.0","90.0"
"""barua""","Dhaka District, Dhaka - 0000, Bangladesh","23.8360866","90.4541731"
"""gandaraia""","Bangladesh","24.0","90.0"
"""dhakacantonment""","Bangladesh","24.0","90.0"
"""bdcrictime mirpur model thana mirpur 2""","Mirpur, Bangladesh","23.805","90.366"
"""asi pacific  university""","Bangladesh","24.0","90.0"
"""dakkhi""","Bangladesh","24.0","90.0"
"""north south university ( nsu )""","Bangladesh","24.0","90.0"
"""sher -e- bangla""","Sher-E-Bangla National Cricket Stadium, Milk Vita Road, Borobagh, Dhaka - 1216, Bangladesh","23.8068796","90.3636422"
"""middle paikpara mirpur 1""","Islami Bank Bangladesh Ltd, Darus Salam Road, Tolarbag, Dhaka - 1916, Bangladesh","23.7972705","90.3530705"
"""bashudnhara ra/""","Bangladesh","24.0","90.0"
"""1216""","Mirpur, Dhaka - 1216, Bangladesh","23.8079774","90.3671381"
"""dhaka(opposite to radiant kindergarten school)""","Dhaka Division, Bangladesh","24.16667","90.41667"
"""lalbagh road""","Lalbagh Road, Lalbag, Dhaka - 1211, Bangladesh","23.7204763","90.3849389"
"""mukti housing moddho paikpara""","Pāikpāra, Chittagong, Bangladesh","22.28455","91.9809"
"""mirpir 12""","Bangladesh","24.0","90.0"
"""trauma & spine surgeon""","trauma, Calle interna Hosp Razetti, 5201, Barinas State, Venezuela","8.6213085","-70.2030067"
"""chefs treat""","Bangladesh","24.0","90.0"
"""bashundhara  r/a""","Korean school, Bashundhara R/A, Aftab Uddin Ahmed Road, Kuril, Dhaka - 1229, Bangladesh","23.8166725","90.4294266"
"""mirpur 3""","Mirpur, Dhaka - 1216, Bangladesh","23.8081259","90.3545167"
"""jomider goli""","Jomider Bari, 45/Ao/11 Nasir Khaner Goli;Dhalka Nogor Lane, Faridabad, Dhaka - 1204, Bangladesh","23.6994374","90.4242615"
"""mohammadp;ur""","","",""
"""dhaka univeristy""","Bangladesh","24.0","90.0"
"""abshundhara r/a""","Bangladesh","24.0","90.0"
"""lack city""","Bangladesh","24.0","90.0"
"""house 77""","house, Jamalpur, Jamalpur Sadar Upazila, Bangladesh","24.9207982","89.9626115"
"""d haka aricha highway""","Bangladesh","24.0","90.0"
"""safiuddin sarak academy rd""","Bangladesh","24.0","90.0"
"""naya bazar""","Naya Bazar, Brahmanbazar - Shamshernagar Road, Moulvibazar District, Moulvibazar - 3231, Bangladesh","24.4569879","91.9630985"
"""uttar shahjahanpur""","Uttar Brodol Primary School, Fakirapool Road, Fakirapool, Dhaka - 1000, Bangladesh","23.7307262","90.4153716"
"""bashpur""","Bashpur, Cumilla - Chandpur Highway, Bagmara, -, Bangladesh","23.3326007","91.1116123"
"""prime cafe""","Bangladesh","24.0","90.0"
"""notun baz""","Bangladesh","24.0","90.0"
"""kalindi""","Kalindi, 36/a Indira Road, Rajabazar, Dhaka - 1215, Bangladesh","23.7578945","90.3846959"
"""bhasantek""","Bhashantek, Dhaka - 1206, Bangladesh","23.8108874","90.3905526"
"""chairmanbari.banani""","Bangladesh","24.0","90.0"
"""fakirapool water tank circle""","Bangladesh","24.0","90.0"
"""mirrpur 11""","Bangladesh","24.0","90.0"
"""east namapara kabarsthan rd""","Bangladesh","24.0","90.0"
"""basundhara main gate""","Bangladesh","24.0","90.0"
"""ring road mohammadpur""","Ring Road, Mohammadpur, Dhaka - 1207, Bangladesh","23.7704499","90.3590732"
"""aalok mother and child care centre""","Bangladesh","24.0","90.0"
"""paschim dhanmondi""","Paschim Raja Bazar Jame Masjid, 58 Raja Bazar- Indira Road, Shukrabad, Dhaka - 1215, Bangladesh","23.7550338","90.3813883"
"""tsc""","TSC, Mymensingh-Gafargaon Highway, Mymensingh District, Balipara - 2220, Bangladesh","24.7230095","90.4383028"
"""azimpur rd""","Azimpur Road, Azimpur, Dhaka - 1211, Bangladesh","23.7267732","90.3838496"
"""rupnagar residential area mirpur""","Mirpur, Bangladesh","23.805","90.366"
"""pizza burg mirpur""","Pizza Burg, Avenue-1, Shah Ali Bagh, Dhaka - 1216, Bangladesh","23.8035626","90.3548671"
"""sangbad""","Bangladesh","24.0","90.0"
"""koshai bazar dakshinkhan""","Bangladesh","24.0","90.0"
"""government employee hospital fulbaria""","Phulbāria, Dhaka Division, Bangladesh","24.06077","90.59398"
"""sommona tower ( south banashree )""","Bangladesh","24.0","90.0"
"""joynogor govt officers quarter gate mirpur 13""","Mirpur, Bangladesh","23.805","90.366"
"""north south  university ( nsu )""","Bangladesh","24.0","90.0"
"""mirpur 10 circle""","Mirpur-10 Circle, Mirpur, Dhaka - 1216, Bangladesh","23.8070887","90.368613"
"""dayaganj rd""","Sonali Bank PLC., Dayaganj Branch, Doyagonj New Rd, Dhaka, 78/3 Doyagonj Road, Dayaganj, Dhaka - 1203, Bangladesh","23.7107324","90.4240189"
"""kallyanpur mirpur""","SOS Childrens Villages Bangladesh, Non-governmental organization, Mirpur Road, Kallyanpur, Dhaka - 1207, Bangladesh","23.7740692","90.3669193"
"""farmgate  tejgaon""","Prime Minister's Office, Office Of The Prime Minister Bangladesh Bijoy Sharani, Tejgaon, Dhaka - 1212, Bangladesh","23.7683525","90.3918572"
"""mi""","Bangladesh","24.0","90.0"
"""senparaparbata
ahmed nagar""","Nagar Chāchkia, Rājshāhi Division, Bangladesh","24.09326","89.34041"
"""tejgaon airport""","Tejgaon Airport, Prime Minister's Office Rd, Tejgaon, Dhaka - 1215, Bangladesh","23.7787587","90.3847949"
"""bonorsree block a road 1 n/s""","Bangladesh","24.0","90.0"
"""tejgao l/a""","Bangladesh","24.0","90.0"
"""dorgaon""","Bangladesh","24.0","90.0"
"""1341""","Dhaka District, - 1341, Bangladesh","23.895162","90.3112241"
"""sayed nagar notun bazar""","Bāzār, Rangpur Division, Bangladesh","25.74442","88.49186"
"""south chayabithi rd""","Islami Bank Bangladesh Limited, Bashabo Branch, Bashabo-Madartek Road, Bashabo, Dhaka - 1214, Bangladesh","23.7403862","90.4326774"
"""uttor badda""","Badda, Dhaka - 1212, Bangladesh","23.7854175","90.4279147"
"""234/4 east nakhalpara road""","East Nakhalpara Road, Nakhalpara, Dhaka - 1208, Bangladesh","23.7706096","90.3981905"
"""dhaka ripotars unity""","Bangladesh","24.0","90.0"
"""janata housing  mohammadpur""","Mohammadpur, Bangladesh","23.7659","90.35851"
"""gulshan  1""","Gulshan, Dhaka - 1212, Bangladesh","23.780553","90.4169"
"""north south university ( nsu)""","Bangladesh","24.0","90.0"
"""gloria jean's coffees gulshan avenue""","Bangladesh","24.0","90.0"
"""naryanganj 1400""","1400, Bangladesh","23.7219","90.5789"
"""mohammadia housing limited""","Mohammadia Baitut Taqwa Jaame Masjid, Mosque, Road No. 3, Mohammadpur, Dhaka - 1207, Bangladesh","23.7601376","90.3537813"
"""tilpapara community center poribar porikolpona""","Bangladesh","24.0","90.0"
"""rb tower 5th floor 56/9 lake circus
west panthapath kalabagan""","Bangladesh","24.0","90.0"
"""jadur char""","Jadur Char, Raomari Upazila, Bangladesh","25.4974577","89.8008688"
"""savar 1340""","Dhaka District, Savar - 1340, Bangladesh","23.8477","90.2587"
"""kathabagan""","Bangladesh","24.0","90.0"
"""dhaka ( arman khan goli)""","Dhaka Division, Bangladesh","24.16667","90.41667"
"""shegunbagicha""","Shegunbagicha, Bangladesh","23.73138","90.40649"
"""mohhamadia""","Bangladesh","24.0","90.0"
"""pabna colony""","Hydrology Colony, DWDB, Pabna., Hamayetpur, Pabna Sadar Upazila, Bangladesh","24.0058765","89.21752"
"""shongsadh bhaban""","Bangladesh","24.0","90.0"
"""chowdhurypara""","Hajipara, Dhaka - 1219, Bangladesh","23.7549944","90.4180312"
"""basundhara  r/a""","Bangladesh","24.0","90.0"
"""মিরপুর ১২""","Mirpur 12, Dhaka Metropolitan, Dhaka District, Bangladesh","23.8251043","90.3706719"
"""tasty treat uttar badda""","Bādua, Dhaka Division, Bangladesh","24.34671","90.00523"
"""new  eskaton""","Kawran Bazar, Dhaka - 1234, Bangladesh","23.7472147","90.3980307"
"""2nd ln""","2nd Lane, Gopibag, Dhaka - 1203, Bangladesh","23.7224916","90.4248358"
"""shyamoli road no. 2 mukti housing shyamoli""","Bangladesh Film Archive, 60 Feet Road, Sher-E-Bangla Nagar, Dhaka - 1916, Bangladesh","23.7772935","90.3705672"
"""national institute of traumatology & orthopaedic rehabilitati""","National Institute of Traumatology and Orthopaedic Rehabilitation, Syed Mahbub Morshed Avenue, Sher-E-Bangla Nagar, Dhaka - 1207, Bangladesh","23.7731331","90.369471"
"""tilapara khilgaon""","Tilpapara Jame Mosque, Shantipur Road, Khilgaon, Dhaka - 1219, Bangladesh","23.7459811","90.4283068"
"""shakil saroni""","Bangladesh","24.0","90.0"
"""bashunhdara r/a""","Bangladesh","24.0","90.0"
"""block -d bashundhara r/a""","Bashundhara Residential Area, Dhaka, Dhaka District, Bangladesh","23.8163715","90.4332023"
"""1462""","Narayanganj District, - 1462, Bangladesh","23.7841871","90.5705581"
"""poschim monipur""","Manipur, Bangladesh","23.47172","91.0612"
"""crop road""","Crop harvesting road, Sunamganj District, Uzanyarabad Village -, Bangladesh","24.7370013","91.1678237"
"""west arichapur  rustampur""","Rustampur, Bangladesh","23.09877","90.78926"
"""red chicken outlet 3""","Bangladesh","24.0","90.0"
"""basundhara residensial""","Bangladesh","24.0","90.0"
"""taltola khil gaon""","Bangladesh","24.0","90.0"
"""marium tower 1""","Marium Tower - 2, Ka-72/7 Lake View Street, Gulshan, Dhaka - 1212, Bangladesh","23.7911223","90.4226836"
"""gopibag sutrapur""","Bangladesh Oxford School - Wari, Chandi Charan Bosh St, Dhaka, Dhaka-Chittagong Highway, Gulistan, Dhaka - 1203, Bangladesh","23.7193846","90.4181691"
"""guslahn""","Bangladesh","24.0","90.0"
"""dhanmond""","Bangladesh","24.0","90.0"
"""amerul badda""","Bādua, Dhaka Division, Bangladesh","24.34671","90.00523"
"""uttara model twon""","Bangladesh","24.0","90.0"
"""cha""","Bangladesh","24.0","90.0"
"""dhanmodndi""","Bangladesh","24.0","90.0"
"""mazar road counter""","Bangladesh","24.0","90.0"
"""malinagh""","Bangladesh","24.0","90.0"
"""fulbaria 1740""","Fulbaria, Gazipur District, Bangladesh","24.1892148","90.3087797"
"""sks tower vip road mohakhali""","Bangladesh","24.0","90.0"
"""adabor mohammadpur""","Bangladesh Specialised Dental Clinic, 112 Road 3, Mohammadpur, Dhaka - 1207, Bangladesh","23.7629379","90.3567682"
"""azimpur bus stop""","Eden Mohila College Bus stop, Azimpur Rd, Dhaka, Mirpur Road, Azimpur, Dhaka - 1211, Bangladesh","23.72925","90.3860741"
"""dhaka aricha highway savar dhaka""","Dhaka - Aricha Highway, Dokkhinpara, Savar - 1340, Bangladesh","23.8466549","90.2570723"
"""york hospital""","Bangladesh","24.0","90.0"
"""siddik bazar""","Bongshal, Dhaka - 1100, Bangladesh","23.7218052","90.4082481"
"""basundhara residential area""","Basundhara Hotel & Restaurant বসুন্ধরা হোটেল এন্ড রেঁস্তোরা, Chittagong - Rangamati Road, Laliarhut, Hathazari Upazila - 4335, Bangladesh","22.4417927","91.820137"
"""mirpur rd  shyamoli""","Mirpur Road, Kallyanpur, Dhaka - 1916, Bangladesh","23.7755836","90.364882"
"""uttar chhayabithy rd""","Bangladesh","24.0","90.0"
"""kuril bissorod""","Bangladesh","24.0","90.0"
"""syadabad bus stand""","Bangladesh","24.0","90.0"
"""sector 6.uttara""","Uttara, Dhaka - 1276, Bangladesh","23.8728982","90.4030022"
"""shanmondi r/a""","Bangladesh","24.0","90.0"
"""gazipur paurashava""","Bangladesh","24.0","90.0"
"""masjid rd  naya paltan""","Dhaka Trade Center Jame Masjid ~ Gulistan, Dhaka Trade Central, Gulistan Rd, Dhaka, Najimuddin Road, Gulistan, Dhaka - 1100, Bangladesh","23.7234556","90.4113648"
"""pallabi extention""","Bangladesh","24.0","90.0"
"""house 25 road 9a""","House Road, Bagerhat District, Bagerhat - 9300, Bangladesh","22.6552014","89.7926091"
"""ginza""","Ginza, 25 Road 11, Gulshan, Dhaka - 1213, Bangladesh","23.7901079","90.408093"
"""legal solutions high-court area shahbagh""","Bangladesh","24.0","90.0"
"""wireless mogbazar""","Stamford University Bangladesh, 51 Siddeshwari Road, Shiddheswari, Dhaka - 1217, Bangladesh","23.7444824","90.4083602"
"""jatra""","Jatra Bangladesh Ltd, 60, 2nd Floor Kamal Ataturk, Gulshan, Dhaka - 1213, Bangladesh","23.7932789","90.4092818"
""". kalabagan""","Bangladesh","24.0","90.0"
"""basabon""","Bangladesh","24.0","90.0"
"""niketon housing society niketon""","Bangladesh","24.0","90.0"
"""balur math""","Maniknagar, Dhaka - 1232, Bangladesh","23.7235445","90.4388958"
"""ashirbad banani dohs""","Bangladesh","24.0","90.0"
"""safiuddin sarker academy rd""","Safiuddin Sarker Academy Road, Cherag Ali, Tongi - 1712, Bangladesh","23.9091405","90.39288"
"""labaid pharmacy uttara 2""","Uttara, Bangladesh","23.8667","90.4"
"""rifat garments & varities store""","","",""
"""hazrat shhajalal international airport""","Bangladesh","24.0","90.0"
"""sakhari bazar""","Sakhari Bazar Road, Muktarpur, Mirkadim - 1502, Bangladesh","23.556064","90.5010748"
"""clemon indira road club""","Bangladesh","24.0","90.0"
"""bijoynagar""","Paltan, Dhaka - 1000, Bangladesh","23.7333337","90.4121528"
"""poschim na""","Poschim Shekh Para Canal, Morrelganj Upazila, Bangladesh","22.4597886","89.8075384"
"""bansree""","Bangladesh","24.0","90.0"
"""dhaka university shahbagh""","Bangladesh","24.0","90.0"
"""university of dhaka a""","Bangladesh","24.0","90.0"
"""100 feet""","100 feet sleeping Buddha, Ramu, Cox's Bazar District, Bangladesh","21.4479158","92.0929854"
"""uttar khan""","Uttar Khan, Dhaka - 1276, Bangladesh","23.8814882","90.437178"
"""matir rasta moinartek""","Bangladesh","24.0","90.0"
"""kalabagan 2nd ln""","Bangladesh","24.0","90.0"
"""dhanmodni""","Bangladesh","24.0","90.0"
"""kadamtala.bashabo""","Kadamtala Bridge, Madartek, Dhaka - 1214, Bangladesh","23.7372072","90.4389984"
"""kamrangichar""","Bangladesh","24.0","90.0"
"""12 shantinagar pir shaheber goli""","Bangladesh","24.0","90.0"
"""rd 6 adabor""","Adabor Road 6, Adabar, Dhaka - 1207, Bangladesh","23.772436","90.3560798"
"""emerald pride""","Bangladesh","24.0","90.0"
"""shialbari""","Mirpur, Dhaka - 1216, Bangladesh","23.8101366","90.3570951"
"""1230""","Dhaka District, - 1230, Bangladesh","23.8569832","90.4074893"
"""jamiatul uloomil islamia dhaka mohammadia residenatial area  mohammadpur""","Mohammadpur, Bangladesh","23.7659","90.35851"
"""road no 9  dhaka bangladesh""","Dhaka Division, Bangladesh","24.16667","90.41667"
"""mirpure 12""","Bangladesh","24.0","90.0"
"""lalamatia""","Minar Mosque/Lalamatia C Block Jame Masjid, Road 1, Mohammadpur, Dhaka - 1207, Bangladesh","23.755332","90.3707364"
"""darussalam darus salam""","Darussalam Dumping Station, Government office, Footover Bridge, Adabar, Dhaka - 1916, Bangladesh","23.7799167","90.3539607"
"""karnaphuliu garden city""","Bangladesh","24.0","90.0"
"""sohrawardy medical college & hospital""","Shahid Sohrawardy Medical College and Hospital, Mirpur Road, Lalmatia, Dhaka - 1207, Bangladesh","23.7691814","90.3713444"
"""1343""","Dhaka District, - 1343, Bangladesh","23.8714155","90.2641792"
"""17/19 horicharon ray road foridabad dhaka 1204""","1204, Bangladesh","23.7011","90.4263"
"""district employement and manpower office (demo)dhaka""","Dhaka Division, Bangladesh","24.16667","90.41667"
"""korail mohakhali""","Gulshan, Dhaka - 1213, Bangladesh","23.7862603","90.4090856"
"""utttara""","Bangladesh","24.0","90.0"
"""new mohakhali dohs dhaka""","2Rs2, new dohs, mohakhali Bir Uttam A. K. Khandakar Road, Gulshan, Dhaka - 2467, Bangladesh","23.7815117","90.4001144"
"""3510""","Cumilla District, - 3510, Bangladesh","23.4518684","90.9535456"
"""bashundhaar r/a""","Bangladesh","24.0","90.0"
"""188/b bir uttam mir shawkat sarak""","187, 188/B Bir Uttam Mir Shawkat Sarak, Niketan, Dhaka - 1208, Bangladesh","23.7696716","90.4070105"
"""postogola""","Postogola, Dhaka - 1204, Bangladesh","23.6917791","90.4287048"
"""tb  gate road gate mohakhali""","Road Number 01, Gulshan, Dhaka - 2467, Bangladesh","23.7810001","90.4068724"
"""shewrapara bus stand""","West Shewrapara (bus Stand road), Pirerbag, Dhaka, Dhaka District, Bangladesh","23.7905819","90.3712486"
"""harirampur""","Harirampur, Harirampur Subdistrict, Bangladesh","23.7495322","89.974537"
"""tej""","Bangladesh","24.0","90.0"
"""shaymoli mohammadpur""","Shaymoli Technical School and College, Beribadh Road, Mohammadpur, Dhaka - 1207, Bangladesh","23.7592876","90.3526656"
"""1952 historic mother language movement's amtola gate  1952 oitihashik amtola""","Āmtola, Rangpur Division, Bangladesh","26.36232","88.52936"
"""d block 8 no road block d bashundhara r/a""","Bangladesh","24.0","90.0"
"""azimpur  rd""","Azimpur Road, Azimpur, Dhaka - 1211, Bangladesh","23.7267732","90.3838496"
"""gpx central service dhaka mohakhali dohs""","Bangladesh","24.0","90.0"
"""transparent gaffur castle""","Bangladesh","24.0","90.0"
"""niketon gulshan 1""","82/1 Road 2 Niketon, Block A, Gulshan, Dhaka - 1213, Bangladesh","23.7775406","90.411036"
"""mirbag rampura dit link rd mogbazar""","Bangladesh","24.0","90.0"
"""mirpur 5""","Bangladesh Shishu Academy (Mirpur Branch)(বাংলাদেশ শিশু একাডেমী (মিরপুর শাখা)), ৫ 4, Mirpur 11, Dhaka - 1216, Bangladesh","23.8167491","90.3667949"
"""rampuraa""","Bangladesh","24.0","90.0"
"""manikdi""","Manikdi, Dhaka - 1206, Bangladesh","23.8270857","90.3923784"
"""1720""","Narayanganj District, - 1720, Bangladesh","23.8731788","90.580945"
"""nawab chatga uttara""","Uttara, Bangladesh","23.8667","90.4"
"""dhanmondid r/a""","Bangladesh","24.0","90.0"
"""house 338 road 5 avenue 3 mirpur dohs""","Bangladesh","24.0","90.0"
"""bahsundhara r/""","Bangladesh","24.0","90.0"
"""shadarghat""","Bangladesh","24.0","90.0"
"""bashudnhara ra""","Bangladesh","24.0","90.0"
"""ashulia 1341""","Ashulia, Savar - 1341, Bangladesh","23.8969898","90.3289577"
"""nobinagar savar""","Nobinagar, Savar, RAB office, Government office, N5, Bishmile, Nobinagar - 1334, Bangladesh","23.917396","90.2489664"
"""sector 05""","China Bangladesh Friendship Exhibition Center, Dhaka City Bypass, Narayanganj District, Purbachal - 0000, Bangladesh","23.8426962","90.5338706"
"""kaderabad housing mohammadpur""","Bangladesh Eye Hospital, Satmasjid Road, Mohammadpur, Dhaka - 1207, Bangladesh","23.7517112","90.3673685"
"""kollanpur 12no road""","Bangladesh","24.0","90.0"
"""red chick'n outlet 2""","Bangladesh","24.0","90.0"
"""লালবাগ""","Lalbag, Dhaka - 1211, Bangladesh","23.7180752","90.3846389"
"""chowdhury party house & restaurant best community center in dhaka dogair signboard""","Azimpur Party House Mosque, Azimpur Koborsthan Road, Azimpur, Dhaka - 1211, Bangladesh","23.7311699","90.3830921"
"""mohammadpur dhaka""","Bangladesh University, 15/1 Iqbal Road, Mohammadpur, Dhaka - 1207, Bangladesh","23.7616428","90.3674589"
"""airport jame masjid
kurmitola""","Bangladesh","24.0","90.0"
"""dhan""","Crop field of Dhan Pur, Borhanuddin Subdistrict, Bangladesh","22.5472569","90.6878982"
"""blo""","Bangladesh","24.0","90.0"
"""mohanagar project""","Bangladesh","24.0","90.0"
"""c""","c, Barguna, Barguna Sadar Subdistrict, Bangladesh","22.1695727","90.183805"
"""moddho paikapara""","Bangladesh","24.0","90.0"
"""boro bazar""","Gabtali, Dhaka - 1916, Bangladesh","23.786857","90.3406189"
"""manikmia avenue""","Bangladesh","24.0","90.0"
"""free school st dhanmondi""","Free School Street, Panthopath, Dhaka - 1215, Bangladesh","23.7494976","90.3899519"
"""kmalapur""","Bangladesh","24.0","90.0"
"""poschim madartek""","Bangladesh","24.0","90.0"
"""mirpur 2 main rd""","Scholastica Senior Campus Mirpur, 2/B, 2/C Main Road - 13, Mirpur, Dhaka - 1216, Bangladesh","23.8055923","90.3765748"
"""mess alpha""","Bangladesh","24.0","90.0"
"""house 25""","house, Jamalpur, Jamalpur Sadar Upazila, Bangladesh","24.9207982","89.9626115"
"""bgb headquarter pilkhana""","Pilkhāna, Bangladesh","22.57764","90.42629"
"""mohkhali dohs""","Bangladesh","24.0","90.0"
"""lokhnath sweets""","Lokhnath Sweets, Dhaka-Narayanganj Link Road, Bhuigar, Narayanganj - 1421, Bangladesh","23.6246134","90.4985678"
"""salimullah road mohammadpur""","Salimullah Road, Mohammadpur, Dhaka - 1207, Bangladesh","23.7610676","90.3633893"
"""koltabazar sutrapur""","Lakshmibazar, Dhaka - 1100, Bangladesh","23.7119045","90.41338"
"""munshiganj""","Munshiganj, Munshiganj Sadar Upazila, Bangladesh","23.5483797","90.5349722"
"""shekhertek mohammadpur""","Mohammadpur, Bangladesh","23.7659","90.35851"
"""north chapain""","Bangladesh","24.0","90.0"
"""savar mini zoo""","Savar Mini Zoo, Savar Cantonment Zoo Rd, Savar Union, Dhaka District, Savar - 1343, Bangladesh","23.8656552","90.27493"
"""aminbazar""","Dhaka District, Savar - 1354, Bangladesh","23.7864942","90.330182"
"""gopibag senroad""","Bangladesh","24.0","90.0"
"""bijoy  rakeen city building a8 tower 2""","Bangladesh","24.0","90.0"
"""dhaka aricha highway""","Dhaka - Aricha Highway, Manikganj District, Manikganj - 1800, Bangladesh","23.8702616","89.9908794"
"""aminabazar""","Bangladesh","24.0","90.0"
"""genda""","Genda, Dhaka - Aricha Highway, Dokkhinpara, Savar - 1340, Bangladesh","23.833901","90.258979"
"""brac university south badda""","BRAC University, ডিআইটি রোড, Gulshan, Dhaka - 1212, Bangladesh","23.7733146","90.424371"
"""mirour""","Bangladesh","24.0","90.0"
"""bijoy rakeen  city""","Bangladesh","24.0","90.0"
"""dhnamondi""","Bangladesh","24.0","90.0"
"""narsingdi""","Narsingdi, Narsingdi Sadar Upazila, Bangladesh","23.9197152","90.7152981"
"""palashi government staff colony""","Palashi Government Staff Colony, Azimpur Rd, Dhaka, Azimpur Road, Azimpur, Dhaka - 1211, Bangladesh","23.7262311","90.3872494"
"""suttrapur""","Bangladesh","24.0","90.0"
"""mohammadi housing society mohammadpur""","Mohammadpur, Bangladesh","23.7659","90.35851"
"""airport rd farmgate""","Airport Road, Tejgaon, Dhaka - 1215, Bangladesh","23.761344","90.3892428"
"""mon""","Mon Khali, Cox's Bazar District, Bangladesh","21.09605","92.1295942"
"""4700""","Cox's Bazar District, - 4700, Bangladesh","21.4265278","91.9832133"
"""134 west agargaon""","Agargaon, Dhaka - 1916, Bangladesh","23.7812337","90.3689456"
"""arjotpara mohakhali""","Nakhalpara, Dhaka - 2467, Bangladesh","23.7766111","90.3961091"
"""biman  bahini welfare tro""","Bangladesh","24.0","90.0"
"""mir""","Bangladesh Shooting Sports Federation, Bir Uttam Mir Shawkat Sarak, Gulshan, Dhaka - 1212, Bangladesh","23.7735428","90.4165996"
"""shnatinagar""","Bangladesh","24.0","90.0"
"""moktar bari rd""","Bangladesh","24.0","90.0"
"""mini balcony razia sultana road mohammadpur""","Mohammadpur, Bangladesh","23.7659","90.35851"
"""syamoli""","Bangladesh","24.0","90.0"
"""dhaka cntonment""","Bangladesh","24.0","90.0"
"""west dhnamondi""","Bangladesh","24.0","90.0"
"""baridhara gulshan""","Embassy of Japan in Bangladesh, 5–7 Dutabash Road, Gulshan, Dhaka - 1212, Bangladesh","23.7988752","90.4204626"
"""homeolife homeopathy & wellness""","","",""
"""alam nagar central jame mosque""","Alam Nagar Central Jame Mosque আলম নগর কেন্দ্রীয় জামে মসজিদ থেকে, Dhaka - Aricha Highway, Hemayetpur, Boliarpur - 1347, Bangladesh","23.7958273","90.2807759"
"""darussalom darus salam""","Bangladesh","24.0","90.0"
"""baridhara dhaka 1212""","Baridhara, Dhaka - 1212, Bangladesh","23.8028663","90.4196081"
"""ghosh gao koborsthan panjagana masjid paschim ga""","Bangladesh","24.0","90.0"
"""kakrai;""","Kakrai, Bairrad Tahsil, India","25.7070053","77.4058341"
"""subaddha""","Bangladesh","24.0","90.0"
"""alam nagar hemayetpur""","Hemayetpur, Boliarpur, Savar Subdistrict, Bangladesh","23.7977847","90.2808529"
"""keraniganj sibdistrict""","Bangladesh","24.0","90.0"
"""kazi najar""","Bangladesh","24.0","90.0"
"""sector2""","China Bangladesh Friendship Exhibition Center, Dhaka City Bypass, Narayanganj District, Purbachal - 0000, Bangladesh","23.8426962","90.5338706"
"""0""","Xishxehman palace Fatikchhari, Fatikchhari, Fatikchhari Upazila, Bangladesh","22.6839448","91.789139"
"""zigatola""","Zigatola Model Government Primary School, Jigatala Road, Dhaka District, Dhaka - 1209, Bangladesh","23.7375494","90.3724231"
"""salam dairy farm and food products basabo buddha mundir""","Bangladesh","24.0","90.0"
"""sector 4 uttara""","Uttara, Dhaka - 1276, Bangladesh","23.8641998","90.4028027"
"""sobhanbag manik mia avenue""","Bangladesh","24.0","90.0"
"""lazeez""","FC 97 Lazeez Dine, Tempu Stand Road, Chanpur, Kalia - 7520, Bangladesh","23.0413428","89.6289086"
"""sangsad bhaban""","Sangsad Bhaban Road, Sobhanbag, Dhaka - 1215, Bangladesh","23.7613375","90.3802553"
"""zuri by karishma rahman""","Bangladesh","24.0","90.0"
"""sector 8 uttara""","Uttara, Dhaka - 1276, Bangladesh","23.8777293","90.4038344"
"""babu bazzar""","Bangladesh","24.0","90.0"
"""uttara sector 10 jame mosque""","Uttara 10 No. Sector Jame Mosque, Road 2, Uttara, - 1231, Bangladesh","23.8805436","90.3910663"
"""manjil housing manikdi""","Mānikdi, Dhaka Division, Bangladesh","24.86226","90.46855"
"""terminal 2 hazrat shahjalal international airportafter""","Bangladesh","24.0","90.0"
"""caf banani""","Bangladesh","24.0","90.0"
"""shantikunjo""","Shantikunjo Mor, Auto rickshaw stand, Bara Kalibari Rd, Tangail District, Tangail - 1900, Bangladesh","24.2437223","89.9130645"
"""west karfrul""","Bangladesh","24.0","90.0"
"""nimtoli""","Bangladesh","24.0","90.0"
"""shantibagh mosjid er goli""","Bangladesh","24.0","90.0"
"""bangladesh biman bahini welfare trust""","Bangladesh","24.0","90.0"
"""road 2 baridhara dohs""","Joar Sahara, Dhaka, Dhaka District, Bangladesh","23.8131162","90.4131292"
"""purba kaziparara""","Bangladesh","24.0","90.0"
"""shewapara bus stand""","Bangladesh","24.0","90.0"
"""segumbagicha""","Bangladesh","24.0","90.0"
"""dohs bypass gulshan""","Gulshan, Bangladesh","23.7917","90.4167"
"""ondi""","Bangladesh","24.0","90.0"
"""jamgora""","Jamgora, Munshiganj-Sreenagar-Ichapura Road, Munshiganj District, Sreenagar - 1550, Bangladesh","23.5442237","90.344015"
"""the invite mirpur cantonment""","Bangladesh","24.0","90.0"
"""dhaka aricah highway nobinagar""","Bangladesh","24.0","90.0"
"""ulon rd ulon""","Ulon Road, Rampura, Dhaka - 1029, Bangladesh","23.7638468","90.4182278"
"""sheikh rasel gastro liver hospital""","Bangladesh","24.0","90.0"
"""road 7 . dohs baridhara""","Joar Sahara, Dhaka, Dhaka District, Bangladesh","23.8131162","90.4131292"
"""baundhara r/a""","Bangladesh","24.0","90.0"
"""onno rokom pizza""","Bangladesh","24.0","90.0"
"""south mugdapara""","Islami Bank Bangladesh Limited, Bashabo Branch, Bashabo-Madartek Road, Bashabo, Dhaka - 1214, Bangladesh","23.7403862","90.4326774"
"""hazrat shhajalal interrnational airport kurmitola""","Bangladesh","24.0","90.0"
"""tolarbag""","Tolarbag, Dhaka - 1916, Bangladesh","23.7914553","90.3518833"
"""dristy prodip optics and watch""","Bangladesh","24.0","90.0"
"""east nakhalpara""","Nakhalpara, Dhaka - 1208, Bangladesh","23.7710814","90.3986441"
"""dhyampur""","Bangladesh","24.0","90.0"
"""nobonir govt. officers housing mohammadpur""","Nobonir Govt. Officers' Housing, Mohammadpur, Dhaka - 1207, Bangladesh","23.7720398","90.3661956"
"""nilkhet circle""","Bangladesh","24.0","90.0"
"""sonirakhra zapani bazar""","Bāzār, Rangpur Division, Bangladesh","25.74442","88.49186"
"""h24/2 tajmahal rd mohammadpur""","Mohammadpur, Bangladesh","23.7659","90.35851"
"""shanti nibash west jatrabari""","shanti nibash road, Dholairpar, Dhaka - 1232, Bangladesh","23.6996164","90.4336615"
"""ok pallabi palace""","Bangladesh","24.0","90.0"
"""ahtkhola""","Bangladesh","24.0","90.0"
"""popular diagonstic center ltd (uttara branch ) sector 4""","Bangladesh","24.0","90.0"
"""best seo expert in bangladesh sector 4 uttara""","Uttara, Bangladesh","23.8667","90.4"
"""mariam monjkil santianagar kakrail""","Kākrāil, Bangladesh","23.73333","90.4"
"""tasty treat mirpur 10""","Tasty Treat, Begum Rokeya Sharani, Kazipara, Dhaka - 1103, Bangladesh","23.7919787","90.3748948"
"""wireless paltan""","Stamford University Bangladesh, 51 Siddeshwari Road, Shiddheswari, Dhaka - 1217, Bangladesh","23.7444824","90.4083602"
"""elephant road""","Old Elephant Road, Noyatola, Dhaka - 1248, Bangladesh","23.7541942","90.4109303"
"""badda nagar hazaribagh""","Bangladesh","24.0","90.0"
"""block a niketon""","Road 1 Niketon Block A, Gulshan, Dhaka - 1213, Bangladesh","23.7766103","90.4125354"
"""north end coffee roasters city bank center gulshan 1""","Gulshan, Bangladesh","23.7917","90.4167"
"""block d mirpur 1""","Shah Ali Bagh, Dhaka - 1216, Bangladesh","23.8020146","90.3555966"
"""rasulbagh""","RASULBAGH JAME MASJID, Dhaka Elevated Expressway, Gulshan, Dhaka - 2467, Bangladesh","23.7750562","90.3975746"
"""polashi buet""","Bangladesh","24.0","90.0"
"""tajmahal rd mohammadpur""","Tajmahal Road, Mohammadpur, Dhaka - 1207, Bangladesh","23.7633315","90.3622081"
"""city bank ltd atm. banasree demra rd""","Bangladesh","24.0","90.0"
"""d block 7 no road block d bashundhara r/a""","Bangladesh","24.0","90.0"
"""al arafah super shop""","Alif Super Shop, Hazi Badsha Mia Rd, Matuail, Dhaka - 1362, Bangladesh","23.6954669","90.4755396"
"""aftab nagar project""","Bangladesh","24.0","90.0"
"""mirpur model thana""","Mirpur Model Thana, Mirpur 2 Road, Borobagh, Dhaka - 1216, Bangladesh","23.8043629","90.3630675"
"""west rajabazar indira road panthapath""","Bangladesh","24.0","90.0"
"""bir uttam khaled mosharrof avenue paschim nakhalpara sher e bangla nagar""","","",""
"""road no 3 mukti housing shyamoli""","Bangladesh Film Archive, 60 Feet Road, Sher-E-Bangla Nagar, Dhaka - 1916, Bangladesh","23.7772935","90.3705672"
"""oriental mirror residential area dhanmondi""","Dhanmondi, Bangladesh","23.74","90.385"
"""brioche patisserrie -banani 11 block e""","Bangladesh","24.0","90.0"
"""arambag residential area mirpur 7""","Mirpur, Bangladesh","23.805","90.366"
"""hazrat shhahjalal international airport kurmitola""","Bangladesh","24.0","90.0"
"""house 24 road 9/a dhanmondi 1209""","1209, Bangladesh","23.7552","90.3731"
"""tejgaon i/a""","Bangladesh","24.0","90.0"
"""parliament secretariat residentil complex w agargaon""","Bangladesh","24.0","90.0"
"""adabir""","Bangladesh","24.0","90.0"
"""dhaka 1230 bangladesh""","Dhaka-Mawa Expressway, Jurain, Dhaka - 1204, Bangladesh","23.6935413","90.4345218"
"""h 407 rd 8  block d bashundhara r/a""","Bangladesh","24.0","90.0"
"""the aga khan academy dhaka sayem sobhan anvir road  bashundhara r/a""","","",""
"""adashik elaka dhanmondi""","Dhanmondi, Bangladesh","23.74","90.385"
"""kacchi wala prinxe tower bata signal elephant road""","Bangladesh","24.0","90.0"
"""golden hut block h bashundhara r/a""","Bangladesh","24.0","90.0"
"""north tower sonargaon janaapath sector 13 uttara""","Uttara, Bangladesh","23.8667","90.4"
"""house 65 road 15 block d banani dhaka""","Dhaka Division, Bangladesh","24.16667","90.41667"
"""popular hospital dhanmondi road 2 dhanmondi r/a""","Bangladesh","24.0","90.0"
"""adl silhouse block j bashudnhara r/a""","Bangladesh","24.0","90.0"
"""proshanti ohee block i bashundhara r/a""","Bangladesh","24.0","90.0"
"""comfort doctors chamber 165 166 green road dhanmondi""","Dhanmondi, Bangladesh","23.74","90.385"
"""jbs grand sultan block i bashudnhara r/a""","Bangladesh","24.0","90.0"
"""samen footwear east goran""","Gorān, Bangladesh","23.75027","90.43413"
"""340 al haj abdus saobhan road block b bashudnahra r/a""","Alicante, Valencia, Spain","38.5","-0.5"
"""satmasjid road west dhanmondi""","Satmasjid Road, Dhanmondi, Dhaka - 1209, Bangladesh","23.7437224","90.3730242"
"""183 i bl;ock road 9 bahsudnahra r/a""","BL, Dublin, D11, Ireland","53.3739651","-6.2819098"
"""white face wash men's grooming saloon jigatola dhanmondi""","Dhanmondi, Bangladesh","23.74","90.385"
"""web recite sector 13 uttara""","Uttara, Bangladesh","23.8667","90.4"
"""ds graph h 16 syed nazrul islam sarani purana paltan""","Paltan, Dhaka Division, Bangladesh","23.73625","90.41426"
"""cdic changig diabetes in children segunbagicha""","Bangladesh","24.0","90.0"
"""lafz office""","Bangladesh","24.0","90.0"
"""h 35 rd 10 merul badda""","Bādua, Dhaka Division, Bangladesh","24.34671","90.00523"
"""gulshan 1 mohakhali dohs""","Mohakhali, Dhaka, Dhaka District, Bangladesh","23.7807594","90.3952941"
"""h 242 amtola masjid goli north shahjahanpur""","Shahjāhanpur, Barisal Division, Bangladesh","21.9128","90.73626"
"""hazrat shahjalal inetarnational airport terminal 2 airport road new airport road kurmitola sector 2""","Airport Road, Wyoming, United States of America","43.99329","-107.94926"
"""eskaton garden road""","Eskaton Garden Road, Ramna, Dhaka - 1234, Bangladesh","23.7451575","90.3996963"
"""h 223/3 new h 208/13 old green rd""","Bangladesh","24.0","90.0"
"""airport road new airport road kurmitola sector 2""","Bangladesh","24.0","90.0"
"""star line bus  counter special maniknagar ttpara""","Bangladesh","24.0","90.0"
"""dalia h n183/1 rd 5 mohammadi housing ltd mohammadpur""","Mohammadpur, Bangladesh","23.7659","90.35851"
"""faculty of chemical and materials engineering buet west pallabi""","Pallabi, Bangladesh","23.825","90.37"
"""habibullah rd shahbag""","Shahbag, Dhaka, Dhaka District, Bangladesh","23.7404393","90.3942992"
"""apex chemical industrial limited segunbagichaq""","Bangladesh","24.0","90.0"
"""stationery h 6/4 block a lalmatia""","Lālmātia, Rājshāhi Division, Bangladesh","24.43374","88.45688"
"""rashida belayet block f bashundhara r/a""","Bangladesh","24.0","90.0"
"""bepari sloth store islampur rd sadarghat""","Bangladesh","24.0","90.0"
"""east rampura kacha bazar""","Bāzār, Rangpur Division, Bangladesh","25.74442","88.49186"
"""mutual trust bank airport road new airport rd kurmitola sector 2""","","",""
"""canadian university of bangladesh""","Canadian University of Bangladesh, Hazi Salim Uddin Lane, Gulshan, Dhaka - 1212, Bangladesh","23.7747368","90.4255674"
"""apex data management & it ltd block e banani""","","",""
"""airport masjid new airport rd""","Bangladesh","24.0","90.0"
"""super hostel ( dhanmondi branch 0 sh- 9 west""","Bangladesh","24.0","90.0"
"""hotel sarina dhaka kemal atatruk avenue banani""","Bangladesh","24.0","90.0"
"""assure bithi bihongo sector 1 uttara""","Uttara, Bangladesh","23.8667","90.4"
"""dhaka chittagong highway west jatrabari""","Baitul Aman Jame Masjid - Wari, Salauddin Bhaban, Dhaka - Chittagong Highway, Dhaka, Mayor Mohammad Hanif Flyover, Jatrabari, Dhaka - 1203, Bangladesh","23.7167713","90.4202821"
"""32 number building 5th floor of lift""","Bangladesh","24.0","90.0"
"""1/5 kallyanp[ur main road mukti housing kallyanpur""","Bangladesh","24.0","90.0"
"""gloria jeans dhnmondi""","Bangladesh","24.0","90.0"
"""albait restaurant mirpur 1 block a mirpur 1""","Mirpur, Bangladesh","23.805","90.366"
"""gulshan shooting club gulshan 1""","Gulshan, Bangladesh","23.7917","90.4167"
"""matka block a bansree""","Bangladesh","24.0","90.0"
"""commercial bank of ceylon head office""","Bangladesh","24.0","90.0"
"""aarong gulshan tejgaon gulshan link rd""","Bangladesh","24.0","90.0"
"""113 d block 6 no road block d bashundhara r/a""","Bangladesh","24.0","90.0"
"""rampura bridge""","Rampura Bridge, Dhaka District, Dhaka - 1029, Bangladesh","23.7680296","90.4233402"
"""north south rd malitola""","North South Road, Bongshal, Dhaka - 1100, Bangladesh","23.7188496","90.4090136"
"""road 11 banani""","Road 11, Gulshan, Dhaka - 2467, Bangladesh","23.7910104","90.4033418"
"""hotel sarina""","Sarina Hotel, Plot #27 Road 17, Gulshan, Dhaka - 1213, Bangladesh","23.7932936","90.4044419"
"""gulshan 1 gulshan""","Embassy of Palestine, 1 Park Road, Gulshan, Dhaka - 1212, Bangladesh","23.7996801","90.4218864"
"""vai vai enterprise h 26 ave 2 mirpur 11""","Mirpur, Bangladesh","23.805","90.366"
"""unimart gulshan 2 gulshan""","Unimart, Road 91, Gulshan, Dhaka - 1212, Bangladesh","23.7960525","90.4150106"
"""rd 4 block a mirpur 12""","Mirpur, Bangladesh","23.805","90.366"
"""runner groip hazrat shahjalal internatioonal airport kurmitola""","Bangladesh","24.0","90.0"
"""sector 6 uttara""","Uttara, Dhaka - 1276, Bangladesh","23.8728982","90.4030022"
"""kallyanpur  girls school and college  kallyanpur main rd""","Kallyanpur Girls School and College, Kallyanpur Main Road, Kallyanpur, Dhaka - 1916, Bangladesh","23.7822667","90.3593307"
"""h 235 rd 6 mohammadi housing rd mohammadpur""","Mohammadpur, Bangladesh","23.7659","90.35851"
"""dhaka chamber and commerce industry motijheel rd dilkusha""","Bangladesh","24.0","90.0"
"""sheltech monihar bhaban no 4 h 154/1 gate 2 rd monipouripara""","Bangladesh","24.0","90.0"
"""ameena's heritage 9/6 block d""","Bangladesh","24.0","90.0"
"""house 1 road 1 block f aftabnagar""","Bangladesh","24.0","90.0"
"""ibn sina hospital 68 road 15a dhanmondi r/a""","Bangladesh","24.0","90.0"
"""kamalapur railway station kamalapur""","Kamalapur Railway Station, Outer Circular Road, Kamalapur, Dhaka - 1203, Bangladesh","23.7305398","90.4268579"
"""plot 302 nsu rd block b bashudnhara r/a""","Bangladesh","24.0","90.0"
"""matrichata apartment industrial area tejgaon""","Tejgaon, Bangladesh","23.76296","90.38971"
"""muzahid store north kuril""","Bangladesh","24.0","90.0"
"""h 650 rd 3 block g bashundhara r/a""","Bangladesh","24.0","90.0"
"""orchid international school 11 section 2""","Bangladesh","24.0","90.0"
"""pasta fact mirpur dohs""","Bangladesh","24.0","90.0"
"""zoo rd""","Zoo Road, Nobaberbag, Dhaka - 1216, Bangladesh","23.8094038","90.3503368"
"""mojumdar pharmacy h 9 ave 2 mirpur 11""","Mirpur, Bangladesh","23.805","90.366"
"""darus salam rd darus salam""","Darus Salam Road, Tolarbag, Dhaka - 1916, Bangladesh","23.789707","90.353939"
"""caab headquarter (new complex ) hazrat shahjalal international airport kurmitola""","Bangladesh","24.0","90.0"
"""balur math north bishil""","Bangladesh","24.0","90.0"
"""aarong rd 11 banani""","Aarong, 76b Road 11, Gulshan, Dhaka - 1212, Bangladesh","23.7901076","90.4107286"
"""shawon & t mirpur dohs""","Shawon Dasse Slough, Massey, Dubuque County, Iowa, United States of America","42.4263741","-90.5753118"
"""nirvana block c bashundhara r/a""","Bangladesh","24.0","90.0"
"""plot 620 road 9 ave 2 mirpur dohs""","Bangladesh","24.0","90.0"
"""physio aid physiotherapy home service in dhaka residential area dhanmondi""","","",""
"""rajia sarak abdul rafiq housing kallyanpur""","Bangladesh","24.0","90.0"
"""chaap ghor road 9/a satmasjid road dhanmondi""","Dhanmondi, Bangladesh","23.74","90.385"
"""327 i block road 1 bashundhara r/a""","Bangladesh","24.0","90.0"
"""rd s4 eastern housing pallabi""","Pallabi, Bangladesh","23.825","90.37"
"""dipaloy store mohammadia housing society mohammadpur""","Mohammadpur, Bangladesh","23.7659","90.35851"
"""line 12 bauniabadh section 11""","Bangladesh","24.0","90.0"
"""nabakumar institution & dr. shahidullah college 16 unmesh datta road noorbagh siddikbazar""","Nabakumar Institution & Dr. Shahidullah Collage, 16 Unmesh Datta Road, Bokshibazar, Dhaka - 1211, Bangladesh","23.7210634","90.3956593"
"""babar bari road 11 mohammadia housing society mohammadpur""","Mohammadpur, Bangladesh","23.7659","90.35851"
"""tritech building service ltd block i bashundhara r/a""","Bangladesh","24.0","90.0"
"""mejbani khana 36 kamal atatruk avenue banani""","Bangladesh","24.0","90.0"
"""green arcadia 428 d block 7 no road block d bashundhara r/a""","","",""
"""shyamolimoli""","Bangladesh","24.0","90.0"
"""aci gulshan avenue gulshan 1 gulshan""","Gulshan, Bangladesh","23.7917","90.4167"
"""japan garden city ring rd mohammadpur""","Japan Garden City, Ring Road, Mohammadpur, Dhaka - 1207, Bangladesh","23.7642225","90.3584746"
"""nrb global bank limited 94 gulshan avenue dakkhin badda gulshan""","NRB Global Bank Limited, 94 Bir Uttam Mir Shawkat Sarak, Gulshan, Dhaka - 1212, Bangladesh","23.7865572","90.4170714"
"""schneider electric bangladesh gulshan 2 gulshan""","Gulshan, Bangladesh","23.7917","90.4167"
"""443 d block 6 no road block d bashundhara r/a""","Bangladesh","24.0","90.0"
"""zakir super market""","Zakir Super Market, R301, Cherag Ali, Tongi - 1711, Bangladesh","23.8955892","90.4089717"
"""dutch bangla bank ltd secretariat rd university of dhaka""","Dhaka Division, Bangladesh","24.16667","90.41667"
"""34 road 7 section 12""","Bangladesh Krishi Bank, Baraiyerhat-Joraganj Old Section Road, Chattogram District, Baraiyarhat - 3901, Bangladesh","22.8933377","91.5339391"
"""tamanna pharmacy sayem sobhan anvir road block d bashundhara r/a""","","",""
"""bismillah fashion gallary sarulia demra""","Demra, Bangladesh","23.70992","90.45456"
"""mohammadpu""","Bangladesh","24.0","90.0"
"""kalunagar""","Hazaribagh, Dhaka - 1312, Bangladesh","23.7260815","90.360189"
"""food burger house""","Bangladesh","24.0","90.0"
"""house 17 road 14 sector 3 uttara""","Uttara, Bangladesh","23.8667","90.4"
"""old airport""","Old Airport, Old Taxiway, Chattogram District, Chattogram - 4205, Bangladesh","22.2594607","91.8223231"
"""swamibag rd""","DPDC Swamibag NOCS, Corporate office, Swamibagh Rd, Dhaka, Doyagonj Road, Dayaganj, Dhaka - 1203, Bangladesh","23.7125677","90.4230151"
"""embassy of the federal republic of germany park road madani avenue gulshan 2""","Gulshan, Bangladesh","23.7917","90.4167"
"""santi kunja 7 section 2""","Bangladesh","24.0","90.0"
"""link persons international limited block d banani""","Bangladesh","24.0","90.0"
"""moneshwar road dhanmondi""","Moneshwar Road, Jigatola, Dhaka - 1209, Bangladesh","23.7395486","90.3704652"
"""fursan air block a mirpur 10""","Mirpur, Bangladesh","23.805","90.366"
"""bangabazar mor phonix road fakirap[ool gulistan""","Bangladesh","24.0","90.0"
"""the h hotel gulshan 2 gulshan""","Gulshan, Bangladesh","23.7917","90.4167"
"""road 8 block d bashundhara r/a""","Bangladesh","24.0","90.0"
"""l block sector -2 jame masjid block h aftabnagar""","Bangladesh","24.0","90.0"
"""mouchak bus stop dhaka chittagong highway muktajheel shiddhirganj naryanganj 1361""","Bangladesh","24.0","90.0"
"""block f mirpur 2""","Shah Ali Bagh, Dhaka - 1216, Bangladesh","23.8044483","90.3564042"
"""block a banasree""","Rampura, Dhaka, Dhaka District, Bangladesh","23.7650771","90.4259543"
"""dhaka medical college hospital bagan""","Bāgan, Bangladesh","23.15174","90.96711"
"""ashik villa d 58 road 3 mohanagar housing project niketan""","Bangladesh","24.0","90.0"
"""bouddho mondir bus stopage autish dipankar road moddho bashabo komlapur""","","",""
"""hjazrat shahjalal international airport kurmitola""","Bangladesh","24.0","90.0"
"""house 404 dhrubotara aftabuddin ahmed road block c""","Bangladesh","24.0","90.0"
"""laila tower h 21 rd 4 gulshan 1""","Gulshan, Bangladesh","23.7917","90.4167"
"""nova h 301 free school st kathalbagan""","Bangladesh","24.0","90.0"
"""probash mohanagar prokolpo rampura""","Rampura, Bangladesh","23.76261","90.42051"
"""paribarik koborsthan lalsharai rd kachukhet mirpur 14""","Mirpur, Bangladesh","23.805","90.366"
"""paribarik koborsthan lalsharani rd kachukhet mirpur 14""","Mirpur, Bangladesh","23.805","90.366"
"""secret beauty residential area dhanmondi""","Dhanmondi, Bangladesh","23.74","90.385"
"""sher e bangla rd mohammadpur""","Sher-E-Bangla Road, Mohammadpur, Dhaka - 1207, Bangladesh","23.7598151","90.3589638"
"""boss burger""","Bangladesh","24.0","90.0"
"""hazrat shahjalal international airport terminal 2 airport road new airport road kurmitola sector 2""","Airport Road, Wyoming, United States of America","43.99329","-107.94926"
"""parjatan bhaban agargaon mirpur""","Mirpur, Bangladesh","23.805","90.366"
"""la sierra 10 road 8 section 12""","La Sierra, 10 Road 8, Mirpur, Dhaka - 1216, Bangladesh","23.8237754","90.3615043"
"""a.d mart mirpur dohs main rd pallabi""","Pallabi, Bangladesh","23.825","90.37"
"""mouchak rd muktajheel shiddhirganj naryanganj 1361""","1361, Bangladesh","23.8333","90.3333"
"""chs house plot somprosharito pallabi mirpur 11.5""","Mirpur, Bangladesh","23.805","90.366"
"""ashiyan medical college cath lab barua khilkhet""","Bangladesh","24.0","90.0"
"""road 10 mirpur dohs mirpur 12""","Road 10, Mirpur Cantonment, Dhaka - 1216, Bangladesh","23.8379526","90.3698477"
"""dhaka wasa harun mollah eid gaon math pump station block a mirpur 12""","","",""
"""look change output pallabi mirpur""","Mirpur, Bangladesh","23.805","90.366"
"""house 166 block b road 4 block b bashundhara r/a""","Bangladesh","24.0","90.0"
"""meena bazar ecb chattar manikdi dhaka cantonment""","Dhaka Cantonment, Bangladesh","23.82444","90.40556"
"""locus road 11 block c banani""","Bangladesh","24.0","90.0"
"""rowjatus salihath mohila madrasha shah magdum avenue sector 11 uttara""","Uttara, Bangladesh","23.8667","90.4"
"""house 117 road 11 block e banani dhaka""","House, 40/1 Sharat Gupta Road, Narinda, Dhaka - 1203, Bangladesh","23.7109566","90.4228009"
"""dpdc banani office kemal ataturk avenue""","Bangladesh","24.0","90.0"
"""block e banani""","Banani Men's Club Hair Styling Center & Men's Parlour, House No 6, Block E, Road 17/A, Gulshan, Dhaka - 1213, Bangladesh","23.7927316","90.4069139"
"""ansari camp madrasha road korail mohakhali""","Ansari Camp, Madrasha Road, Gulshan, Dhaka - 1213, Bangladesh","23.7872068","90.4103599"
"""rd 87 gulshan 2""","Campus 2, AIUB (American International University Bangladesh), House 82/B Road 4, Gulshan, Dhaka - 1213, Bangladesh","23.7947055","90.4023902"
"""masud manor block f mirpur 2""","Mirpur, Bangladesh","23.805","90.366"
"""green line arambagh counter no 03 south kamalapur""","Kamalapur, Bangladesh","23.73723","90.42533"
"""japan east west medical college""","Bangladesh","24.0","90.0"
"""enayetnagar""","Chandpur District, Enayetnagar - 3602, Bangladesh","23.2267508","90.685841"
"""department of architecture mist mirpur cantonment""","Bangladesh","24.0","90.0"
"""h 726/5 rd adabor""","Bangladesh","24.0","90.0"
"""dhaka block a.mirpur 2""","Amirpur, Khulna Division, Bangladesh","22.49233","89.35677"
"""machimpur""","Cumilla District, Nangalkot Upazila - 3584, Bangladesh","23.078672","91.230027"
"""dokkhi monipur""","Manipur, Bangladesh","23.47172","91.0612"
"""mirpur commerce college road""","Bangladesh University of Business and Technology(BUBT), 77-78 Campus-2 77, 78 Dhaka 1216 Commerce College Road, Borobagh, Dhaka - 1216, Bangladesh","23.8064063","90.3522702"
"""hira kutir h 330/4/k dit rd east rampura""","Rampura, Bangladesh","23.76261","90.42051"
"""sorgiyo dutabash 181/d jafranbug residential area road wireless mogbazar""","Sorgiyo dutabash, 181/D Jafranbug Residential Area Road, Mogbazar, Dhaka - 1248, Bangladesh","23.7543357","90.4066209"
"""mh samorita medical college hospital""","Bangladesh","24.0","90.0"
"""masum store modhubagh  hatirjheel""","Bangladesh","24.0","90.0"
"""bti sandringham block h bashundhara r/a""","Bangladesh","24.0","90.0"
"""road no 10 bashundhara r/a""","Bangladesh","24.0","90.0"
"""70 sarak 10 1 bashundhara r/a""","Bangladesh","24.0","90.0"
"""irpur dohs rd pallabi""","Pallabi, Bangladesh","23.825","90.37"
"""saeed sutos coca-cola road vatara""","Bangladesh","24.0","90.0"
"""abedin villa h 187/b jheelpar rd khilgaon""","Khilgaon, Bangladesh","23.75722","90.46443"
"""house 648/3 bashundhara lane west kazipara mirpur""","Mirpur, Bangladesh","23.805","90.366"
"""ms. trading international & automodiles mir hazirbagh jatrabari""","Pyramid Hill VIC 3575, Australia","-36.0619523","144.1244006"
"""khan brothers gulshan road 127 gulshan 1 gulshan""","Gulshan, Bangladesh","23.7917","90.4167"
"""lal kuthi ghat""","Bangladesh","24.0","90.0"
"""h 1398/19 natunbag khilgaon rd goran""","Gorān, Bangladesh","23.75027","90.43413"
"""hr habib west jatrabari""","Jātrābāri, Bangladesh","24.98797","90.90801"
"""mizan mobile hall bamoli demra""","Demra, Bangladesh","23.70992","90.45456"
"""kalialoir aminbazar link road""","Bangladesh","24.0","90.0"
"""konapara bus stop dhaka demra highway shonir akhra jatrabari 1000""","Konapara bus stop, Dhaka - Demra Highway, Kajla, Dhaka - 1361, Bangladesh","23.7169046","90.4683457"
"""mollah tea store adarsha balika school rd doniya""","Bangladesh","24.0","90.0"
"""h 32 rd 12 south banasree project""","Bangladesh","24.0","90.0"
"""mayer shopner bari east rampura""","Rampura, Bangladesh","23.76261","90.42051"
"""anik varieties store mir hazirbagh jatrabari""","Jātrābāri, Bangladesh","24.98797","90.90801"
"""martyr's memorial of 1971 outer circular rd kamalapur""","Kamalapur, Bangladesh","23.73723","90.42533"
"""adarsha shisu government primary school k b shah rd amlapra maryamgamj sadar naryanganj 1400""","","",""
"""best price store onln rd 17 block j bashundhara r/a""","Alicante, Valencia, Spain","38.5","-0.5"
"""monowara villa h 18 rd 7 merul badda""","Bādua, Dhaka Division, Bangladesh","24.34671","90.00523"
"""faith tower faith bible church birulia akran rd ashulia""","Faith Tower, Faith Bible Church, Birulia-Akran Rd, Ashulia Model Town, Khagan - 1345, Bangladesh","23.866619","90.3102939"
"""mugda medical college & hospital hazi khadem ali rd mugda""","Mugda Medical College & Hospital, Hazi Kadam Ali Road, Mugda, Dhaka - 1203, Bangladesh","23.732369","90.4300418"
"""eastern banasree east rampura""","Rampura, Bangladesh","23.76261","90.42051"
"""ggalore mirpur outlet block d mirpur 2""","Mirpur, Bangladesh","23.805","90.366"
"""house 39 road 5 nikunja 1 khilkhet dhaka""","Dhaka Division, Bangladesh","24.16667","90.41667"
"""madhya para""","Raimony Madhya Para Old Jame Masjid, Dhaka-Mymensingh Highway, Mymensingh District, -, Bangladesh","24.5070892","90.3966956"
"""23 mitali housing society south kafrul paschim kafrul""","Kāfrul, Bangladesh","23.78822","90.37359"
"""sohel ladies tailors h 77 green rd""","Bangladesh","24.0","90.0"
"""road master tyre & battery coca-cola road vatara""","Tyre Master, Greenhills Road, Tallaght-Kilnamanagh DED 1986, South Dublin, D12, Ireland","53.3138166","-6.3414365"
"""laser chain skin centre ltd residential area dhanmondi""","Dhanmondi, Bangladesh","23.74","90.385"
"""h 977/2 begum rokeya sarani west shewrapara""","Bangladesh","24.0","90.0"
"""haque electronics west dhanmondi""","Dhanmondi, Bangladesh","23.74","90.385"
"""tour addition mirpur dohs""","Bangladesh","24.0","90.0"
"""house ka-9a road 12 block k baridhara""","Baridhara, Bangladesh","23.80254","90.42117"
"""shyamoli bus stop mirpur rd shyamoli""","Shyamoli, Bangladesh","23.77438","90.36538"
"""h 340 alhaz abdus sobhan rd block b bashundhara r/a""","Alicante, Valencia, Spain","38.5","-0.5"
"""moni cng station begum rokeya sharani kazipara 1000""","1000, Bangladesh","23.729","90.4112"
"""square hospital ltd p[anthapath rd kalabagan""","Bangladesh","24.0","90.0"
"""udayan 63 road 15a dhanmondi r/a""","Bangladesh","24.0","90.0"
"""chillis restaurant & party center banasree block a banasree""","Chillis Restaurant, Pukkattupady- Edapally Road, Ernakulam, Pukkattupady - 683561, Kerala, India","10.059352","76.3947141"
"""pizza ready shekhertek adabor""","Bangladesh","24.0","90.0"
"""nurul islam paper hosue abdullahpur uttara""","Uttara, Bangladesh","23.8667","90.4"
"""safari park rd""","Safari Park Road, Gazipur District, Sreepur -, Bangladesh","24.176612","90.4513422"
"""beauty sweetmeat dhaka tangail highway mouchak 1751""","1751, Bangladesh","24.0333","90.2833"
"""bengal meat-azimpur""","Azimpur, Dhaka Division, Bangladesh","23.7298","90.3854"
"""biswas clothing sector 12 uttara""","Uttara, Bangladesh","23.8667","90.4"
"""khonikaloy faridabad dakkhinkhan""","Bangladesh","24.0","90.0"
"""anwar pharma & general store rd 2 block e banasree""","A To Z Pharma Whole Sale Chemist, Old Jamia Millia Road, Korangi District, Karachi Division 75210, Pakistan","24.8759397","67.1792573"
"""our serenity block g bashundhara r/a""","Bangladesh","24.0","90.0"
"""mazumdar castle h 656 657 rd 20 block f bashundhara r/a""","Bangladesh","24.0","90.0"
"""house 14""","College of Aviation Technology, 14 Road 2, Uttara, - 1231, Bangladesh","23.8750814","90.3920368"
"""sayedbad bus stand""","Bangladesh","24.0","90.0"
"""border bazar west shewrapara""","Bangladesh","24.0","90.0"
"""lira group industries road 53 gulshan 2""","Gulshan, Bangladesh","23.7917","90.4167"
"""jamuna bank atm h 5 segunbagicha rd segunbagicha""","Bangladesh","24.0","90.0"
"""bengal group ind. gulshan avenue gulshan1 1000""","1000, Bangladesh","23.729","90.4112"
"""amtola bazar 60 feet mirpur 2""","Mirpur, Bangladesh","23.805","90.366"
"""21/8 khiljee road mohammadpur""","Mohammadpur, Bangladesh","23.7659","90.35851"
"""road view cafe roasters dhanmondi west dhanmondi""","Dhanmondi, Bangladesh","23.74","90.385"
"""jbc mohammadi heaven 167 free school street kathalbagan panthapath""","Bangladesh","24.0","90.0"
"""ezzy group""","Bangladesh","24.0","90.0"
"""bangladesh academy of medical & diagonstic ultrasonography (bamdu) kathalbagan green road""","","",""
"""aristocracy 396 road no 15 block a bashundhara r/a""","Bangladesh","24.0","90.0"
"""bedding cloth store 227/a malibagh college road malibagh shahi moshjid malibagh""","Shāhi, Bareilly district, India","28.54946","79.3169"
"""titumir college dhaka north city corporation yatri chauni wireless gate mohakhali""","","",""
"""square hospital ltd panthapath""","Bangladesh","24.0","90.0"
"""bay's westlake gulshan 2 gulshan""","Gulshan, Bangladesh","23.7917","90.4167"
"""square hospitals ltd panthapath rd kalabagan""","Bangladesh","24.0","90.0"
"""tea leaf juice bar sector 4 uttara""","Uttara, Bangladesh","23.8667","90.4"
"""manjil e mashudul islam banani dohs""","Bangladesh","24.0","90.0"
"""new paltan line""","Bangladesh","24.0","90.0"
"""tenement 2 h 301/a rd 6 block e bashundhara r/a""","Bangladesh","24.0","90.0"
"""h 285 rd 16 block f bashundhara r/a""","Bangladesh","24.0","90.0"
"""hasan monil 312 salim uddin market road senpara parbata ahmed nagar""","","",""
"""lab aid hopsital rd 4 dhanmondi""","Dhanmondi, Bangladesh","23.74","90.385"
"""679 mashjid road senpara parbata purba kazipara""","Kāzīpāra, Rangpur Division, Bangladesh","25.74623","89.0251"
"""hotel prime inn mirpur 10 kacha bazar mirpur 2""","Mirpur, Bangladesh","23.805","90.366"
"""madrasatul ahsan baishbari mirpur dhaka-1216 west shewrapara""","Bangladesh","24.0","90.0"
"""25/3 west minipur senpara parbatqa paschim monipur""","Manipur, Bangladesh","23.47172","91.0612"
"""mr. baker h 9/a new baily rd""","Bangladesh","24.0","90.0"
"""icon clothing zafrabad mohammadpur""","Mohammadpur, Bangladesh","23.7659","90.35851"
"""graphic nation block c banasree""","Bangladesh","24.0","90.0"
"""top ten islam tower 35/a & 35/a/a ka salim uddin market road senpara parbata ahmed nagar""","Alicante, Valencia, Spain","38.5","-0.5"
"""dr. milon smiriti tsc  mor siddikbazar""","Bangladesh","24.0","90.0"
"""sultanar shopno general store and fast food nosor uddin rd matikata""","","",""
"""lotto 125 new elephant road dhanmondi""","New Elephant Road, Shahbag, Dhaka - 1205, Bangladesh","23.738992","90.3872386"
"""miniso banani block g""","Bangladesh","24.0","90.0"
"""177 momin saroni uttar kafrul purba kazipara""","Kāzīpāra, Rangpur Division, Bangladesh","25.74623","89.0251"
"""resonance dhaka 161/17 uttar bhasantek road matikata section 13""","Bangladesh","24.0","90.0"
"""onjoly ladies tailor's 46/a dolphin goli dhanmondi""","Dhanmondi, Bangladesh","23.74","90.385"
"""uttar modhubag chourasta jame masjid hatirjheel link rd modhubag""","Bangladesh","24.0","90.0"
"""chadpur book center nilkhet new market""","Bangladesh","24.0","90.0"
"""yar student loan & immigration gulshan 1""","","",""
"""h 417 rd 1 block d bashundhara r/a""","Bangladesh","24.0","90.0"
"""green university begum rokeya sarani west shewrapara""","Green university, Begum Rokeya Sharani, Agargaon, Dhaka - 1103, Bangladesh","23.7852866","90.3782326"
"""h 3/3 b syed nazrul islam sarani naya paltan""","Paltan, Dhaka Division, Bangladesh","23.73625","90.41426"
"""house 808 rado 18 block k bashundhara r/a""","Bangladesh","24.0","90.0"
"""malibag railgate bus stop malibagh rail gate malibagh""","Bangladesh","24.0","90.0"
"""cloud technologies senpara parbata mirpur 10""","Mirpur, Bangladesh","23.805","90.366"
"""7b road 96 banani gulshan""","Road 96, Gulshan, Dhaka - 1212, Bangladesh","23.7948156","90.4180052"
"""siraj- khaleda memorial cantonment board general hospital damalkot bhasantek""","Bangladesh","24.0","90.0"
"""bondhon city bondhan tv boro mogbazar""","Bangladesh","24.0","90.0"
"""standard chartered  bank ltd gulshan ave gulshan""","Gulshan, Bangladesh","23.7917","90.4167"
"""master laundry h 6/6 lalmatia rd block b lalmatia""","Lālmātia, Rājshāhi Division, Bangladesh","24.43374","88.45688"
"""h 9 block c mirpur 13""","9, Kazipara, Dhaka - 1216, Bangladesh","23.8070273","90.3765586"
"""sholoana foundation dohs mirpur""","Mirpur, Bangladesh","23.805","90.366"
"""nuvista pharma limited 6th floor nuvista pharma head office mirpur dohs cultural centre road 9 dhaka 1216""","","",""
"""malibagh government quarter malibaghz bazar road malibagh""","Bangladesh","24.0","90.0"
"""lanka bangla finance gulshan branch""","Bangladesh","24.0","90.0"
"""bangladesh power developement board""","Bangladesh","24.0","90.0"
"""sector 10 road 3 house 39 uttara""","Uttara, Bangladesh","23.8667","90.4"
"""bangladesh bonoshilpo corporation""","Bangladesh","24.0","90.0"
"""shidheswari road""","Bangladesh","24.0","90.0"
"""shahjalal international airport domestic terminal new airport road kurmitola sector 2""","","",""
"""hotel asia pacific h 2 rd 2 baridhara""","Baridhara, Bangladesh","23.80254","90.42117"
"""tropical alauddin tower shopping complex sector 3 uttara""","Uttara, Bangladesh","23.8667","90.4"
"""kornafully garden city shopping complex kakrail rd kakrail""","Kākrāil, Bangladesh","23.73333","90.4"
"""holy family red crescent medical college hospital outdoor h 1 eskaton garden rd old eskaton""","","",""
"""indulge gul;shan 2 gulshan""","Goulburn, Goulburn Mulwaree, Australia","-34.75155","149.72086"
"""tongi kaliganj highway purbo arichpur tongi""","Tongi Kaliganj Highway, Cherag Ali, Tongi - 1711, Bangladesh","23.8938546","90.4036647"
"""laz pharma h 19/1 kakrail rd kakrail""","Kākrāil, Bangladesh","23.73333","90.4"
"""silver spring block d bashundhara r/a""","Bangladesh","24.0","90.0"
"""holiday inn dhaka city centre an ihg hotel industrial area tejgaon""","","",""
"""sarkit house officers quarters kakrail""","Kākrāil, Bangladesh","23.73333","90.4"
"""pizza point sector 6 uttara""","Uttara, Bangladesh","23.8667","90.4"
"""biman holiday premium lounge hazrat shahjalal international airport kurmitola""","Bangladesh","24.0","90.0"
"""block b dhaka uddan mohammadpur""","Mohammadpur, Bangladesh","23.7659","90.35851"
"""farmhouse burger""","Bangladesh","24.0","90.0"
"""tritech building services ltd block i bashundhara r/a""","Bangladesh","24.0","90.0"
"""mridha villa h 3 rd 6 block c banasree""","Bangladesh","24.0","90.0"
"""cooper's h 24/1/a mohammadpur ring rd shyamoli""","Shyamoli, Bangladesh","23.77438","90.36538"
"""hazrat shhajalal intrenational airport terminal 1 airport road new airport road kurmitola  sector 2""","Airport Road, Wyoming, United States of America","43.99329","-107.94926"
"""h 395/1 free school st hatirpool""","Bangladesh","24.0","90.0"
"""north  badda""","Badda, Dhaka - 1212, Bangladesh","23.7854175","90.4279147"
"""oarthopaedic trauma and spine surgery kallyanpur technical mor""","Bangladesh","24.0","90.0"
"""security check post gulshan 2 gulshan""","Gulshan, Bangladesh","23.7917","90.4167"
"""dhaka 1290""","Dhaka, Dhaka District, Bangladesh","23.7643863","90.3890144"
"""dbbl booth zaber & zubair fabrics limited 2nd gate""","","",""
"""h ka- 82/1 rd 10 baridhara dohs""","Bangladesh","24.0","90.0"
"""grace land 37b road 114 gulshan 2 gulshan""","Gulshan, Bangladesh","23.7917","90.4167"
"""babylonia 116 kazi office lane wireless paltan""","Babylonia, 116 Kazi Office Lane, Shiddheswari, Dhaka - 1217, Bangladesh","23.746572","90.4081915"
"""roshni boutiques and ladies tailors moneshwar road dhanmondi""","Dhanmondi, Bangladesh","23.74","90.385"
"""chottogram fast food & coffee shop hazrat shahjalal international airport kurmitola""","","",""
"""618 shantibagh rd dokkhin shahjahanpur shahjaalal""","Bangladesh","24.0","90.0"
"""gulshan pink city shopping complex gulshan 2 gulshan""","Gulshan, Bangladesh","23.7917","90.4167"
"""molla vai tea shop savar manikganj rd 1346""","1346, Bangladesh","24.3137","89.6089"
"""gsm technology banasree block c banasree""","Bangladesh","24.0","90.0"
"""salma'skitchen moneshwar road dhanmondi""","Dhanmondi, Bangladesh","23.74","90.385"
"""bay outlet tejkunipara tejgaon""","Tejgaon, Bangladesh","23.76296","90.38971"
"""getup limited gulshan 1 gulshan""","Gulshan, Bangladesh","23.7917","90.4167"
"""adept international gulshan 1 gulshan""","Gulshan, Bangladesh","23.7917","90.4167"
"""airport rent a car service hazrat shahjalal inetrnational airport kurmitola""","","",""
"""csd pharmacy shahid sarani dhaka cantonment""","Dhaka Cantonment, Bangladesh","23.82444","90.40556"
"""combined military hospital (cmh) shahid sarani dhaka cantonment""","Dhaka Cantonment, Bangladesh","23.82444","90.40556"
"""dhaka river port sadar launch terminal""","Bangladesh","24.0","90.0"
"""h 8/b rd 8 mohammadi housingsociety mohammadpur""","Mohammadpur, Bangladesh","23.7659","90.35851"
"""navana toyota 2s center shahid tazuddin ahmed ave tejgaon industrial area""","","",""
"""kalpara jewllers baitul mokarram gulistan""","Bangladesh","24.0","90.0"
"""lab aid specialized hospital hosue 6 road 4 dhanmondi""","Dhanmondi, Bangladesh","23.74","90.385"
"""dhakeshari temple dhakeshwari rd palashi lalbagh""","Lalbagh, Bangladesh","23.71739","90.38787"
"""manda satir masjid mugdapara sabujbagh""","Bangladesh","24.0","90.0"
"""toilet building 31 (ijtema field ) embankment drive road uttara""","Uttara, Bangladesh","23.8667","90.4"
"""h 1112/a rd 1/a adabor""","Bangladesh","24.0","90.0"
"""h 50/1 mitali rd west dhanmondi""","Dhanmondi, Bangladesh","23.74","90.385"
"""hotel nikunjo residential kamalapur""","Kamalapur, Bangladesh","23.73723","90.42533"
"""bento bowl khaje dewan 1st lane llabagh""","Bangladesh","24.0","90.0"
"""384/4 shantibagh rd dokkhin shahjahanpur shahjahanpur""","Shahjāhanpur, Barisal Division, Bangladesh","21.9128","90.73626"
"""house 207 road 03 block b bashundhara r/a""","Bangladesh","24.0","90.0"
